{"type":"FeatureCollection","crs":{"type":"name","properties":{"name":"EPSG:3435"}},"features":[{"type":"Feature","id":1118068,"geometry":{"type":"Polygon","coordinates":[[[1179052.4895708947,1874011.6929321922],[1179044.1782358158,1874010.9905057752],[1179034.5653941622,1874010.7250863547],[1179034.9518763281,1873996.7297075321],[1179028.8731483249,1873996.5617288689],[1179028.4863380769,1874010.5571076886],[1179024.3200078269,1874010.4419504453],[1179012.2298089149,1874010.0918855236],[1179015.0834777523,1873906.7686014019],[1179011.5490359964,1873906.6708325609],[1179011.6116999129,1873904.4090260703],[1178974.7147920951,1873903.3899992269],[1178974.9060646798,1873896.4628477267],[1179007.844647083,1873897.3726228075],[1179016.031310495,1873897.1098280698],[1179018.2078153326,1873798.7675050939],[1179019.4820909968,1873752.6216000358],[1179034.8993829973,1873752.7544737789],[1179050.1749429884,1873752.8863632805],[1179058.2369347373,1873752.9559169393],[1179056.1614795697,1873828.1109503354],[1179054.8333982318,1873896.3283335681],[1179101.3480689707,1873897.7974907351],[1179101.1636861402,1873904.4772673983],[1179098.0534561402,1873904.3913095654],[1179098.0183512191,1873905.6636167199],[1179054.0532160706,1873904.4493803084],[1179052.5811061556,1873957.7448773689],[1179052.4895708947,1874011.6929321922]]]},"properties":{"OBJECTID":1118068,"Area_SQFT":10622.8344992,"Year":"2022","Height":43.936,"GlobalID":"{A21C6D98-5C49-41BD-8977-8D0AC035D5EA}"}},{"type":"Feature","id":1119165,"geometry":{"type":"Polygon","coordinates":[[[1179328.0428254863,1873903.4438049037],[1179256.4471681756,1873900.8066710639],[1179256.9366685138,1873887.5222488183],[1179257.9258397555,1873887.5586660672],[1179259.1177665067,1873855.1952137435],[1179300.1022645838,1873856.7047251691],[1179300.1698497445,1873854.8674585032],[1179318.2597085726,1873855.5337957512],[1179323.2967719876,1873842.9826397481],[1179324.6163231572,1873839.6945885818],[1179326.5050989031,1873839.1512825948],[1179333.0844820719,1873837.2579136672],[1179333.6517381514,1873821.8534169283],[1179391.0299042112,1873823.9669297594],[1179390.4528056371,1873839.6384863306],[1179390.3970314648,1873845.3126875893],[1179390.2113362979,1873864.1276105852],[1179390.173606718,1873867.947156735],[1179389.8317438897,1873902.6062081459],[1179387.1467098878,1873902.5074550675],[1179328.0428254863,1873903.4438049037]]]},"properties":{"OBJECTID":1119165,"Area_SQFT":8262.8962325899993,"Year":"2022","Height":21.390000000000001,"GlobalID":"{935D43B7-B226-4A31-A568-B4C10D2E3393}"}},{"type":"Feature","id":1119197,"geometry":{"type":"Polygon","coordinates":[[[1179137.2426822148,1873899.2489313981],[1179127.2056287972,1873898.971700975],[1179127.2564817164,1873897.1337781441],[1179101.3861266349,1873896.4192126521],[1179063.6873831521,1873895.0264988991],[1179065.510542237,1873808.047342171],[1179074.873056317,1873807.9725391734],[1179120.0642388815,1873809.2205681729],[1179119.8414703018,1873817.2782948422],[1179129.5960439625,1873817.5476512592],[1179129.1468978778,1873833.8051646675],[1179120.0993437993,1873833.5551651672],[1179119.9589241375,1873838.6443938341],[1179148.514969375,1873839.4331061682],[1179146.9103137886,1873897.5350240681],[1179137.2974721317,1873897.269604662],[1179137.2426822148,1873899.2489313981]]]},"properties":{"OBJECTID":1119197,"Area_SQFT":6635.8391332800002,"Year":"2022","Height":17.523,"GlobalID":"{FCFA3B08-947B-4BF7-A284-BD354F94DE5E}"}},{"type":"Feature","id":1119207,"geometry":{"type":"Polygon","coordinates":[[[1179195.0122516945,1873829.3940842517],[1179194.9125143592,1873836.1890181673],[1179194.7550343554,1873846.8999547462],[1179194.6972916916,1873850.8257999204],[1179194.6628429457,1873853.1624094141],[1179194.634299689,1873855.0971168242],[1179194.3403370264,1873875.1026542322],[1179192.6785949462,1873897.3253788224],[1179192.6618626942,1873898.4782636547],[1179156.9148869521,1873897.9526741509],[1179156.9381808736,1873896.3631103965],[1179156.6330633697,1873883.4553278126],[1179158.0720368717,1873881.5977199816],[1179158.1248582879,1873878.0180027385],[1179157.3879831184,1873865.7699957427],[1179157.535292539,1873855.7559081661],[1179159.28463287,1873846.8041544186],[1179158.6668519564,1873841.1548875032],[1179159.0119956145,1873817.6706825094],[1179159.1258405347,1873809.9354617682],[1179159.2797116244,1873799.4768212691],[1179165.1205791959,1873799.5627790974],[1179170.418140783,1873799.6405348449],[1179172.8662986218,1873799.676624015],[1179174.5050748684,1873799.7005740919],[1179175.2468712837,1873799.7117289305],[1179176.6720652815,1873799.7323981829],[1179179.1510629442,1873799.7688154229],[1179180.1625438607,1873799.7839072542],[1179180.1126751967,1873803.1703834326],[1179180.8872799482,1873814.0056635852],[1179180.8288811133,1873817.9915480111],[1179187.2927789462,1873817.0643845112],[1179195.1920413596,1873817.1805260077],[1179195.0122516945,1873829.3940842517]]]},"properties":{"OBJECTID":1119207,"Area_SQFT":3319.86844281,"Year":"2022","Height":21.940999999999999,"GlobalID":"{C386C687-55ED-41AC-BBBD-7568BC4A03BF}"}},{"type":"Feature","id":1119263,"geometry":{"type":"Polygon","coordinates":[[[1179013.4269849996,1873893.4638379742],[1179007.973583831,1873892.7076058926],[1178883.9941730392,1873889.2834001498],[1178886.1027646214,1873812.9449701724],[1178881.2960157047,1873812.8120964221],[1178881.4092044542,1873808.7126951751],[1178885.3675298726,1873808.8219469273],[1178885.9416757028,1873788.0408205194],[1178927.5036004484,1873789.1887840889],[1178926.636804275,1873820.5722514987],[1178928.0505153579,1873820.6112934209],[1178927.9917884422,1873822.7320240817],[1178941.7046875148,1873823.1106322496],[1178942.1456315224,1873807.13625476],[1178965.6127761854,1873807.7842193423],[1178965.6908600102,1873804.9567971826],[1178983.3617564286,1873805.4449851769],[1178983.4867561788,1873800.9210440908],[1178994.9745940848,1873801.2383006741],[1179015.7708123296,1873802.8390192504],[1179013.4269849996,1873893.4638379742]]]},"properties":{"OBJECTID":1119263,"Area_SQFT":11627.0916187,"Year":"2022","Height":19.895,"GlobalID":"{60E83E02-D7BA-4593-B1EE-803A44AF7C8A}"}},{"type":"Feature","id":1120343,"geometry":{"type":"Polygon","coordinates":[[[1179133.4864561311,1873793.3836575926],[1179130.9969597976,1873793.3127915987],[1179129.088170971,1873793.2586578447],[1179129.1298375505,1873791.8006555126],[1179127.3237387962,1873791.749474518],[1179107.0449079727,1873791.1720478404],[1179107.0035694691,1873792.6297220911],[1179099.0071943961,1873792.4020322645],[1179090.3707287235,1873792.1559697657],[1179077.174888981,1873791.7803143391],[1179078.0252809809,1873761.9132481029],[1179077.7779061489,1873759.4713238503],[1179077.1109127325,1873752.8889879377],[1179084.4278272279,1873751.3072981918],[1179153.3322169534,1873753.2695646102],[1179152.2187021221,1873792.3780821802],[1179149.0792727084,1873792.2885154299],[1179133.5304192973,1873791.8459310168],[1179133.4864561311,1873793.3836575926]]]},"properties":{"OBJECTID":1120343,"Area_SQFT":2990.8327562999998,"Year":"2022","Height":21.265999999999998,"GlobalID":"{7089DA21-C487-4F1E-B846-185FC805CCDE}"}},{"type":"Feature","id":1120896,"geometry":{"type":"Polygon","coordinates":[[[1179180.4948922829,1873729.3217778753],[1179179.2311152832,1873738.6429534433],[1179178.7603156983,1873742.1137470328],[1179178.6835442034,1873745.012035198],[1179171.0323127853,1873744.8089516168],[1179168.6071207863,1873744.7446472852],[1179154.6780147904,1873744.3748973631],[1179153.749538952,1873744.3502911124],[1179143.0960169595,1873744.0678113608],[1179125.7381120515,1873743.6071823598],[1179118.5212629656,1873742.6609900335],[1179119.9992783864,1873722.2158209514],[1179123.1393639671,1873722.299154114],[1179166.7990535381,1873724.0445574534],[1179168.6399291188,1873723.2322231208],[1179180.6481071978,1873723.5507920429],[1179180.4948922829,1873729.3217778753]]]},"properties":{"OBJECTID":1120896,"Area_SQFT":1272.7171259500001,"Year":"2022","Height":30.774999999999999,"GlobalID":"{793AFBD7-98CA-4D72-A12E-FE9762491DD1}"}},{"type":"Feature","id":1120933,"geometry":{"type":"Polygon","coordinates":[[[1179092.5058950584,1873720.4123468739],[1179091.4534037211,1873741.8788393622],[1179069.0128318151,1873740.4848132774],[1179068.0909176425,1873740.4579104511],[1179068.6496435679,1873721.1151013668],[1179071.064336898,1873719.7929255362],[1179092.5058950584,1873720.4123468739]]]},"properties":{"OBJECTID":1120933,"Area_SQFT":496.61209192299998,"Year":"2022","Height":12.930999999999999,"GlobalID":"{ED089A03-C03D-4745-BC59-B5D0DA6B11EF}"}},{"type":"Feature","id":1121237,"geometry":{"type":"Polygon","coordinates":[[[1179170.2186661167,1873674.4219532921],[1179179.7215998722,1873674.7106666358],[1179179.2468632888,1873690.324808629],[1179184.294425365,1873690.4783516321],[1179183.4912773643,1873716.9028394553],[1179169.4581689488,1873716.4763311232],[1179150.3902937095,1873715.8966078663],[1179109.0852582206,1873714.6413610356],[1179108.2489738052,1873714.6157705295],[1179110.4441793833,1873687.9583435419],[1179120.5137130534,1873686.916678959],[1179121.2637115503,1873675.3113872271],[1179121.3358898815,1873672.9360638864],[1179170.2186661167,1873674.4219532921]]]},"properties":{"OBJECTID":1121237,"Area_SQFT":2896.9241803099999,"Year":"2022","Height":36.356000000000002,"GlobalID":"{8D486E45-509B-4030-B3BB-E498B85538EC}"}},{"type":"Feature","id":1121746,"geometry":{"type":"Polygon","coordinates":[[[1179179.1064436173,1873667.111600471],[1179139.3814574603,1873665.8025479729],[1179138.4080342131,1873664.92459696],[1179137.3473407966,1873665.6942804665],[1179137.3637449639,1873664.9029434738],[1179134.8808102962,1873665.6221021372],[1179134.0022031271,1873665.6040575521],[1179119.9307089655,1873665.3160003915],[1179118.2538750505,1873663.3232222241],[1179117.9133245582,1873663.3163324755],[1179118.9454747173,1873639.1634936407],[1179121.4060997213,1873639.2140184788],[1179122.8873959649,1873639.2442021449],[1179174.510980363,1873640.3016147283],[1179175.699626287,1873640.3258929008],[1179177.2485077039,1873640.3577169774],[1179180.0464023694,1873640.4148034786],[1179185.3334652812,1873646.3695159764],[1179185.231759449,1873651.3465401465],[1179179.1064436173,1873667.111600471]]]},"properties":{"OBJECTID":1121746,"Area_SQFT":1696.36563318,"Year":"2022","Height":35.643000000000001,"GlobalID":"{514C7E1B-7C4C-4C05-A2A6-F52CE54CD8D6}"}},{"type":"Feature","id":1122170,"geometry":{"type":"Polygon","coordinates":[[[1179181.4463339522,1873630.8282084826],[1179165.6038459532,1873630.3879206483],[1179162.188498457,1873630.2931045641],[1179161.1757052052,1873630.2648893928],[1179148.4103107951,1873629.9102313111],[1179147.9736318795,1873629.8980922278],[1179147.9877394582,1873629.3918596469],[1179136.2141409626,1873629.0647605646],[1179134.470378045,1873629.0162042305],[1179123.9008453807,1873628.3777540629],[1179123.1793901317,1873628.984052063],[1179122.480572633,1873628.3383840697],[1179119.1800542991,1873628.2468488133],[1179119.2358284679,1873626.2307767242],[1179118.0491510562,1873626.2432438992],[1179120.1370733753,1873603.4863996592],[1179120.8306415533,1873603.5119901556],[1179122.6364122136,1873603.5621869012],[1179127.8601550481,1873602.7839732338],[1179129.2463071342,1873602.8226870699],[1179129.7410567973,1873602.8364665732],[1179131.5153314646,1873602.8856790692],[1179138.059609714,1873603.0674372343],[1179139.1265367116,1873603.93849849],[1179140.0628865478,1873603.123211401],[1179144.1514610453,1873603.2367282431],[1179145.2922067943,1873603.2685523189],[1179149.7180509632,1873603.3915835696],[1179151.9775608757,1873603.4542474849],[1179159.5490680397,1873603.6645488949],[1179159.9020857054,1873603.6743914045],[1179160.4578588721,1873603.6898113261],[1179164.7711704578,1873603.8098898244],[1179169.3669617788,1873604.6602818132],[1179169.4102687894,1873604.5352820759],[1179171.2855931178,1873603.9906637368],[1179178.0542803623,1873604.1789835736],[1179183.9794653682,1873604.3436814034],[1179183.5470515308,1873619.9128759757],[1179181.4463339522,1873630.8282084826]]]},"properties":{"OBJECTID":1122170,"Area_SQFT":1676.73410266,"Year":"2022","Height":35.625,"GlobalID":"{A797D244-63DF-421E-B398-C55DBC86353F}"}},{"type":"Feature","id":1122968,"geometry":{"type":"Polygon","coordinates":[[[1178949.3687141901,1873565.4671187419],[1178941.8802121072,1873565.0819489202],[1178937.6846824405,1873562.7689614138],[1178937.5616511893,1873565.1610169983],[1178926.5649540287,1873564.5954013299],[1178918.0948266124,1873562.1354324967],[1178913.8290871114,1873561.9159447437],[1178910.9796833671,1873563.4930413291],[1178906.4219497005,1873563.2584617496],[1178903.0548304459,1873557.3598515016],[1178902.4045692831,1873550.2752200039],[1178903.0466283697,1873537.7867279258],[1178907.6637451183,1873538.0239321727],[1178908.3218802835,1873538.0577247604],[1178908.916367284,1873538.0885645917],[1178920.5561077797,1873538.6869885954],[1178937.5819923538,1873538.6997838409],[1178938.3900616076,1873538.7414504206],[1178941.3789007787,1873539.524585335],[1178944.1325041887,1873539.6043095894],[1178944.0668875226,1873540.8789133318],[1178947.0622883509,1873542.7821247587],[1178949.7171386848,1873542.9186074217],[1178956.1872700998,1873538.7670409249],[1178962.2584521829,1873540.0813427626],[1178962.3408011021,1873538.4839050083],[1178970.2341580149,1873538.8897440841],[1178975.2846728445,1873539.1495860911],[1178977.2840126785,1873539.252276178],[1178981.7292137593,1873539.4809502542],[1178993.5802399304,1873540.0905290942],[1178992.3148225104,1873564.4074095865],[1178978.8118967626,1873563.7131852584],[1178962.6167191828,1873563.3263750034],[1178957.9756523508,1873563.0875303263],[1178949.3687141901,1873565.4671187419]]]},"properties":{"OBJECTID":1122968,"Area_SQFT":2207.2825630500001,"Year":"2022","Height":43.097000000000001,"GlobalID":"{80C1E8AC-8C03-44AD-A07C-8EB4DD05B836}"}},{"type":"Feature","id":1123055,"geometry":{"type":"Polygon","coordinates":[[[1179029.5683569112,1873553.9090710059],[1179030.3675679122,1873553.9599239186],[1179030.0985395825,1873558.1974482492],[1179006.8423525058,1873556.7220575041],[1179007.7777180863,1873541.9766801805],[1179008.9420858326,1873542.0642784254],[1179009.0464163371,1873540.4166439204],[1179020.3285459946,1873541.1325217558],[1179030.3386965748,1873541.7673630002],[1179029.5683569112,1873553.9090710059]]]},"properties":{"OBJECTID":1123055,"Area_SQFT":370.79422503299998,"Year":"2022","Height":10.93,"GlobalID":"{5E8FF3E5-F737-4188-95CD-E3FB870ED613}"}},{"type":"Feature","id":1123244,"geometry":{"type":"Polygon","coordinates":[[[1179187.6864789452,1873544.359877506],[1179183.8895705321,1873544.2319250037],[1179183.1953462006,1873543.4507585929],[1179177.2156993656,1873543.2493154197],[1179175.4935899526,1873543.999642004],[1179174.0168868655,1873543.9497733428],[1179146.6931226254,1873542.2214303412],[1179146.6537526269,1873543.3913755005],[1179146.1760632948,1873542.2040419201],[1179119.0422593032,1873541.2903298433],[1179116.0278296322,1873542.7555500097],[1179114.4090664717,1873541.2617865889],[1179112.8746207214,1873518.8612408466],[1179117.3887193054,1873516.0833592671],[1179125.7220359661,1873515.0416946779],[1179126.8801701327,1873500.2766323534],[1179169.2685367821,1873501.703794854],[1179175.2563857024,1873501.9055661079],[1179176.3751498717,1873501.9432956877],[1179184.622508697,1873502.2208541802],[1179184.0956068637,1873517.8661640969],[1179188.5732881979,1873518.0170824334],[1179187.6864789452,1873544.359877506]]]},"properties":{"OBJECTID":1123244,"Area_SQFT":2833.9394784900001,"Year":"2022","Height":36.692,"GlobalID":"{15A3DE2A-9245-4AC1-964A-970454A920DE}"}},{"type":"Feature","id":1123797,"geometry":{"type":"Polygon","coordinates":[[[1179159.5316796235,1873451.9348655343],[1179178.2672064477,1873451.9886711906],[1179179.4988312845,1873452.0815187742],[1179181.4804546172,1873452.230468615],[1179187.6300486161,1873452.6937222853],[1179187.6159410353,1873452.8807297871],[1179191.0358816986,1873456.7770474521],[1179190.7973651125,1873481.3094786888],[1179190.1986130341,1873489.2618906132],[1179186.5247358643,1873493.3389821814],[1179186.3541325338,1873495.6070222708],[1179183.3019732872,1873495.3770358537],[1179176.3357798699,1873494.088652605],[1179174.7206256234,1873493.9669336937],[1179172.7626242915,1873493.8196242668],[1179134.504498713,1873493.2205441091],[1179132.9920345498,1873493.106699191],[1179127.7374518837,1873492.7110306807],[1179125.1396880471,1873492.5154930162],[1179124.0744014683,1873492.4354406917],[1179124.0511075526,1873492.433800275],[1179125.9474292197,1873450.9158387037],[1179140.1475320458,1873450.4752227815],[1179159.5316796235,1873451.9348655343]]]},"properties":{"OBJECTID":1123797,"Area_SQFT":2755.7080067799998,"Year":"2022","Height":40.957000000000001,"GlobalID":"{FDC1E677-A358-41D0-8679-940061437A6A}"}},{"type":"Feature","id":1124339,"geometry":{"type":"Polygon","coordinates":[[[1179187.3344455326,1873447.1382872039],[1179183.7163425365,1873446.6707684509],[1179178.4020487003,1873445.9840900369],[1179177.2061849521,1873445.8295627828],[1179164.8075877025,1873445.8275942882],[1179164.0946626191,1873445.7354028744],[1179162.8508987043,1873445.574642027],[1179162.3266215427,1873445.6520697069],[1179162.3449942041,1873445.5093534514],[1179160.4877144564,1873445.269196444],[1179159.8420464599,1873445.1858632874],[1179158.6524162879,1873445.0319922073],[1179157.936538452,1873444.9394727028],[1179156.7029451239,1873444.7800241972],[1179155.0284077921,1873444.5638172873],[1179153.6409433729,1873444.3843557052],[1179152.5333340431,1873445.4335662015],[1179149.9755963755,1873445.6806129515],[1179148.8358348762,1873445.5333035316],[1179146.7541461291,1873445.2642751976],[1179145.0074304573,1873445.0385538612],[1179144.5628775435,1873444.981139296],[1179127.9677663851,1873444.9765461155],[1179124.0146902942,1873444.465720362],[1179124.2417239661,1873419.0346688763],[1179125.7764977992,1873419.2331592978],[1179145.7239644635,1873419.1206267059],[1179149.3026974613,1873419.5832242104],[1179190.7350292832,1873420.8263319593],[1179187.3344455326,1873447.1382872039]]]},"properties":{"OBJECTID":1124339,"Area_SQFT":1667.64127925,"Year":"2022","Height":35.372999999999998,"GlobalID":"{FF43C575-07C7-45F5-A05E-450021BAE8F4}"}},{"type":"Feature","id":1124410,"geometry":{"type":"Polygon","coordinates":[[[1178987.6294644228,1873441.3013566134],[1178980.2170776811,1873441.1579842016],[1178971.997934011,1873440.999191873],[1178961.0868666016,1873439.4280007812],[1178961.1656065995,1873435.3591112928],[1178954.6337955182,1873435.232799202],[1178954.5386513511,1873440.1501122087],[1178918.9678563632,1873439.1363347038],[1178913.6643892806,1873439.2449302806],[1178911.0902474562,1873439.1953896994],[1178911.6102595306,1873412.3020708098],[1178942.9166273514,1873411.1173618753],[1178943.3506816074,1873416.3256847931],[1178966.3555568506,1873417.0884785363],[1178967.3998461002,1873417.1232553774],[1178980.6695045943,1873417.75645621],[1178982.6376765082,1873417.7945138754],[1178982.4372175934,1873428.1524327942],[1178989.1717841795,1873428.2826818698],[1178989.103214764,1873431.8249976251],[1178987.6294644228,1873441.3013566134]]]},"properties":{"OBJECTID":1124410,"Area_SQFT":1848.11788516,"Year":"2022","Height":41.615000000000002,"GlobalID":"{4E6986F9-82DD-4D56-B92F-8CB60C7E6938}"}}]}