{"type":"FeatureCollection","crs":{"type":"name","properties":{"name":"EPSG:3435"}},"features":[{"type":"Feature","id":765315,"geometry":{"type":"Polygon","coordinates":[[[1159359.3977293109,1912107.9316886021],[1159354.8744443893,1912112.8880435172],[1159338.5893719774,1912113.4251159341],[1159304.2380627384,1912112.4762989248],[1159309.0717144923,1911937.4635256471],[1159306.951311908,1911937.4047987368],[1159307.1232275732,1911931.1846668064],[1159309.2436301545,1911931.243393739],[1159309.7862799913,1911911.5931705735],[1159385.1352106379,1911913.6742031558],[1159382.8041785513,1911998.0706878875],[1159366.5469932274,1911997.6215417949],[1159365.7389239662,1912026.8846066236],[1159361.6391946427,1912026.7714178844],[1159359.3977293109,1912107.9316886021]]]},"properties":{"OBJECTID":765315,"Area_SQFT":12884.549014691236,"Year":"2022","Height":30.809999999999999,"GlobalID":"{F94CB060-B8D1-4E7C-A0EC-F1B0A21635B7}"}},{"type":"Feature","id":766350,"geometry":{"type":"Polygon","coordinates":[[[1159548.7139516713,1912015.7435527963],[1159540.6536003302,1912015.6444716242],[1159540.6795189201,1912013.5234128751],[1159524.7002201776,1912013.3272190534],[1159524.7261387559,1912011.2061602972],[1159521.8980604222,1912011.1713834603],[1159522.0158423437,1912001.5555890475],[1159523.2884775936,1912001.5710089547],[1159524.2031739266,1911927.0475359857],[1159568.4173243274,1911927.5905138974],[1159566.4353729091,1911989.2304824693],[1159566.2634572464,1912003.2301263816],[1159565.1322259149,1912003.2160188043],[1159565.0055857429,1912013.5391608775],[1159548.7434791692,1912013.3396862189],[1159548.7139516713,1912015.7435527963]]]},"properties":{"OBJECTID":766350,"Area_SQFT":3756.0211628896413,"Year":"2022","Height":50.594000000000001,"GlobalID":"{1EE5651A-6A7E-4589-8C27-B1F70273367B}"}},{"type":"Feature","id":766741,"geometry":{"type":"Polygon","coordinates":[[[1159515.2008953397,1911978.6967108899],[1159456.1898585293,1911977.7852953861],[1159452.904760116,1911977.7321458878],[1159453.0471482775,1911968.9595256371],[1159456.3322466924,1911969.0130032336],[1159456.3949106133,1911965.1672103917],[1159456.5911044504,1911953.0839012302],[1159475.9171812742,1911953.3975488965],[1159492.0621621003,1911953.6600155637],[1159500.2087993461,1911953.7922331416],[1159500.2396391858,1911951.9028012259],[1159502.9085970973,1911951.9461082288],[1159515.6011570154,1911954.0419045624],[1159516.1598829294,1911960.8614447257],[1159516.0181509268,1911969.5864928877],[1159517.4049591792,1911971.2210040651],[1159517.3619802562,1911973.8719173935],[1159515.2799634272,1911973.8381248126],[1159515.2008953397,1911978.6967108899]]]},"properties":{"OBJECTID":766741,"Area_SQFT":1518.3907449513219,"Year":"2022","Height":37.832000000000001,"GlobalID":"{846C38A5-078E-4A19-AA38-5120EF7E1DD3}"}},{"type":"Feature","id":766803,"geometry":{"type":"Polygon","coordinates":[[[1159129.6708266265,1911919.7890203211],[1159160.0759495371,1911920.9068002386],[1159161.2193199492,1911920.949122983],[1159271.3021049991,1911924.9970151542],[1159272.7122071695,1911930.4307313228],[1159272.6685720868,1911936.5862308189],[1159272.6488870869,1911939.3690336437],[1159272.603283505,1911945.8509760613],[1159272.4280870056,1911970.6547322266],[1159265.3772480858,1911970.6051916352],[1159257.2578417535,1911969.9824894695],[1159233.3992936811,1911969.6340649652],[1159221.2907221008,1911969.4572280571],[1159213.1946096828,1911969.3391180541],[1159185.6126438587,1911968.9365598091],[1159177.3065581156,1911968.8151689854],[1159149.4847633773,1911968.4090018109],[1159141.0779560385,1911968.2862986445],[1159126.6964231299,1911968.1849208891],[1159126.7843494634,1911955.715785729],[1159126.880477875,1911942.1249336493],[1159126.9457664618,1911932.8562514],[1159126.9995721292,1911925.2394687296],[1159127.0382859623,1911919.770319572],[1159129.6708266265,1911919.7890203211]]]},"properties":{"OBJECTID":766803,"Area_SQFT":6818.7268974924345,"Year":"2022","Height":43.906999999999996,"GlobalID":"{E74D2B81-6524-4B0A-97EF-A53656B8D2AB}"}},{"type":"Feature","id":766915,"geometry":{"type":"Polygon","coordinates":[[[1159107.3129317164,1911958.4162396458],[1159094.3037713941,1911958.2167649756],[1159094.331986553,1911956.3785140614],[1159085.140731978,1911956.2374382333],[1159085.1102202213,1911958.2170930572],[1158888.8405997001,1911955.2059442254],[1158888.8579881156,1911954.0747129002],[1158794.1167078095,1911952.6213037292],[1158793.2259615678,1911927.7145294033],[1158793.4342944778,1911914.1397534113],[1158803.1911647317,1911914.2893594024],[1158923.5203203543,1911916.5350898132],[1158926.4898026148,1911916.5905359148],[1158941.9021733543,1911916.8779369073],[1158958.4454473499,1911917.1866633259],[1158971.4542795916,1911917.4294449945],[1158978.6655512576,1911917.5642872378],[1159004.9653674108,1911918.0550998964],[1159016.1379172457,1911918.2634328189],[1159101.2571695559,1911919.8520123158],[1159107.9031536337,1911919.9540462377],[1159107.3129317164,1911958.4162396458]]]},"properties":{"OBJECTID":766915,"Area_SQFT":12155.763090545648,"Year":"2022","Height":41.530999999999999,"GlobalID":"{0BD967C2-5844-4EC4-8A75-EBC22397F727}"}},{"type":"Feature","id":767696,"geometry":{"type":"Polygon","coordinates":[[[1159546.8087717495,1911850.9974912663],[1159523.2950392617,1911850.458778423],[1159506.316726764,1911850.6034631783],[1159505.559510432,1911850.6169145929],[1159503.1149615187,1911849.5903418346],[1159492.5683946749,1911850.1963117691],[1159489.9433999334,1911850.5785288445],[1159488.1481279412,1911850.1261019178],[1159474.0592453571,1911849.6785962621],[1159467.8309113563,1911849.0759071775],[1159467.1580124367,1911832.9565168556],[1159467.9175253606,1911826.9919618524],[1159474.0510432674,1911827.6973410144],[1159485.5680806008,1911827.0083660195],[1159487.4450453499,1911827.4811340948],[1159488.1520649327,1911827.65928336],[1159488.7616437713,1911827.8128263508],[1159491.5956276073,1911828.5270637688],[1159525.378368425,1911827.5057403485],[1159547.4938097505,1911828.0126291111],[1159546.8087717495,1911850.9974912663]]]},"properties":{"OBJECTID":767696,"Area_SQFT":1792.4226597213724,"Year":"2022","Height":57.988,"GlobalID":"{3AE166FE-0A55-4323-971D-DD10137EEBE6}"}},{"type":"Feature","id":767723,"geometry":{"type":"Polygon","coordinates":[[[1159258.8962899235,1911848.3163942622],[1159245.0393622636,1911848.0611454276],[1159245.0626561781,1911846.788510181],[1159232.0541520163,1911846.5490093476],[1159232.0931939289,1911844.4282786718],[1159206.5003973546,1911843.9571510137],[1159157.5664401201,1911843.6218498477],[1159119.3890230453,1911842.9190953488],[1159120.8729439678,1911762.3224717868],[1159258.0281814251,1911764.8477292105],[1159263.7683274227,1911768.0649143646],[1159263.5130785855,1911781.9218420221],[1159262.3821753366,1911781.9011727828],[1159261.6895914234,1911819.5119899316],[1159261.2696447526,1911834.6399124207],[1159261.0718105084,1911845.3859539323],[1159258.9507517568,1911845.3469120185],[1159258.8962899235,1911848.3163942622]]]},"properties":{"OBJECTID":767723,"Area_SQFT":11472.584643866023,"Year":"2022","Height":15.311999999999999,"GlobalID":"{16146B52-FB6F-4AC4-9769-252EBB3F158C}"}},{"type":"Feature","id":767819,"geometry":{"type":"Polygon","coordinates":[[[1159371.7392400468,1911803.8581498608],[1159377.9610123907,1911803.9726509475],[1159377.3570109678,1911836.7770472693],[1159270.7013844196,1911834.8134685231],[1159271.0219218351,1911819.6845617609],[1159271.347380501,1911802.0100564391],[1159277.5688247527,1911802.1245575217],[1159277.6570791677,1911797.3171524385],[1159318.3797667387,1911798.0668228646],[1159318.3407248231,1911800.1875535224],[1159320.7442633216,1911800.2318447635],[1159320.697675488,1911802.7771152772],[1159330.3124856506,1911802.9539521872],[1159330.4010681505,1911798.1465471112],[1159371.8304472205,1911798.9093408585],[1159371.7392400468,1911803.8581498608]]]},"properties":{"OBJECTID":767819,"Area_SQFT":3907.6424180271738,"Year":"2022","Height":43.256999999999998,"GlobalID":"{31C884EC-7D4A-492A-8422-45735D0B5760}"}},{"type":"Feature","id":767913,"geometry":{"type":"Polygon","coordinates":[[[1159476.0553043585,1911803.4588724498],[1159478.3341711874,1911803.4916807832],[1159489.4808024345,1911803.6511292763],[1159512.0555604305,1911803.9746194391],[1159511.7652066776,1911824.2459043555],[1159510.0955905968,1911824.2219542691],[1159477.9726233524,1911823.7619814344],[1159475.7649506077,1911823.7304854414],[1159475.9578636114,1911810.2610241862],[1159473.7501908562,1911810.2292001091],[1159473.847631607,1911803.4273764403],[1159476.0553043585,1911803.4588724498]]]},"properties":{"OBJECTID":767913,"Area_SQFT":744.94439984917153,"Year":"2022","Height":32.387999999999998,"GlobalID":"{47FB175E-729E-4612-9417-E4165A06FAF1}"}},{"type":"Feature","id":768124,"geometry":{"type":"Polygon","coordinates":[[[1159477.8308913605,1911779.803079864],[1159502.8390434298,1911779.9139720378],[1159512.5732759309,1911779.9572790372],[1159512.5624491791,1911782.4598986956],[1159512.4899427628,1911798.7941836065],[1159512.4830530062,1911800.2994299461],[1159484.9194598531,1911800.1773829437],[1159475.90372986,1911800.1373567816],[1159475.9637691074,1911786.6163864413],[1159474.1360168583,1911786.6081843702],[1159474.1662005233,1911779.7870037798],[1159477.8308913605,1911779.803079864]]]},"properties":{"OBJECTID":768124,"Area_SQFT":756.59660841079403,"Year":"2022","Height":30.396000000000001,"GlobalID":"{85BBF4BC-E40B-47C7-BC0C-50DAFDB18EAE}"}},{"type":"Feature","id":768301,"geometry":{"type":"Polygon","coordinates":[[[1159513.4226836793,1911776.5829419554],[1159497.7222557687,1911775.1866192736],[1159488.5798856008,1911776.07506895],[1159476.4768914408,1911775.924150611],[1159476.5858151056,1911767.1649817787],[1159476.6520879392,1911761.855281112],[1159474.7098346082,1911761.8313310444],[1159474.7852937742,1911755.779505878],[1159478.2219666897,1911755.8221567087],[1159490.1077696837,1911755.9704503668],[1159507.5677085149,1911756.1879696213],[1159512.2766885997,1911756.2466965474],[1159513.6759640104,1911756.2640849533],[1159513.4226836793,1911776.5829419554]]]},"properties":{"OBJECTID":768301,"Area_SQFT":744.40077703621807,"Year":"2022","Height":30.478000000000002,"GlobalID":"{727FF6C8-20A0-42A8-831A-CE9DC985AED5}"}},{"type":"Feature","id":768343,"geometry":{"type":"Polygon","coordinates":[[[1159379.5850248835,1911738.7962721237],[1159378.9941468004,1911770.8936488733],[1159374.1867417223,1911770.8050663655],[1159278.0310941637,1911769.3178646201],[1159271.9510538387,1911769.2056601236],[1159271.9694264999,1911768.2171450388],[1159275.0097747494,1911736.8710791245],[1159379.5850248835,1911738.7962721237]]]},"properties":{"OBJECTID":768343,"Area_SQFT":3413.4472376423023,"Year":"2022","Height":42.954000000000001,"GlobalID":"{1DC4FE14-0A2E-4312-894C-509429ED8C30}"}},{"type":"Feature","id":768491,"geometry":{"type":"Polygon","coordinates":[[[1159519.8481957593,1911731.7870997931],[1159530.8773731734,1911732.0915611328],[1159530.4977807577,1911752.4533970437],[1159472.9171872765,1911750.8631771293],[1159473.4444171889,1911731.7785696292],[1159519.8481957593,1911731.7870997931]]]},"properties":{"OBJECTID":768491,"Area_SQFT":1141.6673746694748,"Year":"2022","Height":31.309000000000001,"GlobalID":"{8D376C7E-518E-4FA0-8F60-A6D89EDDD25E}"}},{"type":"Feature","id":768515,"geometry":{"type":"Polygon","coordinates":[[[1159247.5869293485,1911728.8904520473],[1159247.509501673,1911749.0009761171],[1159247.5062208395,1911749.8257776224],[1159212.2835222718,1911749.689951116],[1159212.29303669,1911747.2211240435],[1159212.3661992706,1911728.1945872975],[1159247.5869293485,1911728.8904520473]]]},"properties":{"OBJECTID":768515,"Area_SQFT":747.27564048733882,"Year":"2022","Height":12.599,"GlobalID":"{F3276D92-38C4-4C16-B898-C7AEADBEB0DA}"}},{"type":"Feature","id":768524,"geometry":{"type":"Polygon","coordinates":[[[1159152.4827888741,1911747.9018969601],[1159148.3200675424,1911748.538378638],[1159135.8227172124,1911748.4258460472],[1159135.8991606336,1911739.9301281325],[1159132.9920142139,1911739.9038814707],[1159133.0425390438,1911734.2972653736],[1159132.5628812115,1911732.615838289],[1159132.5796134614,1911730.7795558749],[1159132.5881436293,1911729.8231929687],[1159133.0543500495,1911727.4960978779],[1159133.0687857138,1911725.8907861363],[1159136.0251446285,1911725.9173608737],[1159136.0376117951,1911724.5515499655],[1159148.7649485392,1911724.6663791365],[1159153.6248469602,1911724.7100142168],[1159159.7764094551,1911724.7654602965],[1159169.1907606998,1911724.8501058039],[1159169.1779654454,1911726.2536462958],[1159181.6992658626,1911726.3665069654],[1159185.4115287748,1911726.3999714584],[1159185.3678936951,1911731.2546205474],[1159185.3393504431,1911734.4196404608],[1159185.2202561917,1911747.6643646271],[1159175.3538061148,1911747.5757821281],[1159171.5096537035,1911747.5410052864],[1159168.8013257817,1911747.5167271313],[1159157.08546996,1911747.4114123713],[1159152.4827888741,1911747.9018969601]]]},"properties":{"OBJECTID":768524,"Area_SQFT":1159.9693344635975,"Year":"2022","Height":30.076000000000001,"GlobalID":"{083314F1-D890-4BB3-B168-D32E41965105}"}},{"type":"Feature","id":768696,"geometry":{"type":"Polygon","coordinates":[[[1159517.9705748467,1911729.0886143791],[1159471.8181081081,1911729.1870393802],[1159458.9539606103,1911728.8317251303],[1159459.2311910279,1911718.7946717208],[1159463.0481125365,1911718.9003145492],[1159463.3735711933,1911707.1057187179],[1159518.0443935983,1911708.0253363119],[1159517.9705748467,1911729.0886143791]]]},"properties":{"OBJECTID":768696,"Area_SQFT":1222.9467112605407,"Year":"2022","Height":33.923999999999999,"GlobalID":"{989F09BE-0832-47AE-9CE1-8DF94176C1A4}"}},{"type":"Feature","id":768706,"geometry":{"type":"Polygon","coordinates":[[[1159381.9357419675,1911705.1542790551],[1159381.3812811344,1911727.7474097181],[1159312.3886369911,1911726.0535154624],[1159312.9371923213,1911703.7031664748],[1159381.9357419675,1911705.1542790551]]]},"properties":{"OBJECTID":768706,"Area_SQFT":1551.3183520637333,"Year":"2022","Height":33.844999999999999,"GlobalID":"{507565AB-F36B-4FE6-8C48-37851FA8893D}"}},{"type":"Feature","id":768733,"geometry":{"type":"Polygon","coordinates":[[[1159248.3638306763,1911701.8757423058],[1159248.2745920105,1911725.0108666311],[1159248.1928992576,1911725.0712339578],[1159212.3842438506,1911723.5276018777],[1159212.3891651009,1911722.2539823817],[1159212.4679051037,1911701.8376846472],[1159248.3638306763,1911701.8757423058]]]},"properties":{"OBJECTID":768733,"Area_SQFT":805.66522945617839,"Year":"2022","Height":12.699,"GlobalID":"{B7ED30F1-5078-4202-8CB5-619A722A8D1F}"}},{"type":"Feature","id":768737,"geometry":{"type":"Polygon","coordinates":[[[1159287.3863904129,1911724.6207755508],[1159286.6705125815,1911724.6795024595],[1159285.3437435774,1911724.1775349702],[1159284.3132338279,1911723.0882982977],[1159282.7266228332,1911723.1873794696],[1159278.8079955,1911721.7044427982],[1159273.1364189186,1911723.6617879593],[1159271.1492181718,1911722.9098209625],[1159267.1334781647,1911723.6552262953],[1159267.6498813399,1911702.9853201413],[1159267.748306335,1911702.7254781437],[1159289.4319899986,1911704.9397125572],[1159288.0960346663,1911708.4702173097],[1159288.1124388319,1911709.9236264757],[1159288.2577797454,1911711.2366159728],[1159287.4762852481,1911716.6644266332],[1159287.8558776656,1911717.8927706371],[1159287.3863904129,1911724.6207755508]]]},"properties":{"OBJECTID":768737,"Area_SQFT":398.82620356197936,"Year":"2022","Height":16.233000000000001,"GlobalID":"{6FFD1FC2-AF4E-4FA8-B3F0-C372CACE1345}"}},{"type":"Feature","id":768747,"geometry":{"type":"Polygon","coordinates":[[[1159182.9315468695,1911723.4816702104],[1159167.7114329513,1911723.2976154613],[1159165.8249537852,1911723.2746496312],[1159139.6524339593,1911722.9324587064],[1159136.2292124615,1911722.890792127],[1159136.3633985468,1911711.8229008825],[1159132.5448366289,1911711.7766411351],[1159132.5054666253,1911715.0161359718],[1159130.1527810467,1911714.9875927165],[1159130.1744345461,1911713.2087248864],[1159129.4959582102,1911710.0026945455],[1159129.5044883806,1911709.3015804689],[1159132.5743641269,1911709.3386538855],[1159134.4313157983,1911701.796674218],[1159136.5077552074,1911699.8895258023],[1159149.440800206,1911700.0460215528],[1159166.3062520314,1911700.2504174763],[1159169.4571643674,1911700.2884751428],[1159169.433870449,1911702.2205578946],[1159181.7445413654,1911702.3698358044],[1159183.4446691959,1911702.3905050599],[1159182.9315468695,1911723.4816702104]]]},"properties":{"OBJECTID":768747,"Area_SQFT":1099.8012904456732,"Year":"2022","Height":30.832999999999998,"GlobalID":"{2347490C-D1D1-4625-B639-AAF14B3041AD}"}},{"type":"Feature","id":768941,"geometry":{"type":"Polygon","coordinates":[[[1159516.4948560104,1911684.1585861428],[1159528.9574295031,1911684.5027455676],[1159528.2546750079,1911703.5827598933],[1159522.1877580103,1911703.4151093005],[1159465.7603774436,1911702.6464100552],[1159466.2872792718,1911683.5709888961],[1159516.4948560104,1911684.1585861428]]]},"properties":{"OBJECTID":768941,"Area_SQFT":1197.0802801094919,"Year":"2022","Height":32.862000000000002,"GlobalID":"{9F813554-6E4B-47BC-B01A-AA8C8C005691}"}},{"type":"Feature","id":768948,"geometry":{"type":"Polygon","coordinates":[[[1159382.0043113839,1911702.3652426337],[1159321.0575829067,1911701.3806645542],[1159321.4535794912,1911685.2517598083],[1159323.0086944893,1911685.2898174876],[1159338.3410128937,1911679.9118754726],[1159383.8150033003,1911680.4801158055],[1159383.7365913866,1911683.6684296455],[1159385.7159181302,1911683.7169859689],[1159385.2611946354,1911702.237618217],[1159382.0095607175,1911702.1578939725],[1159382.0043113839,1911702.3652426337]]]},"properties":{"OBJECTID":768948,"Area_SQFT":1341.8758888187444,"Year":"2022","Height":29.32,"GlobalID":"{0F62E5DD-4B10-4951-AC45-43F678FFBE98}"}},{"type":"Feature","id":768981,"geometry":{"type":"Polygon","coordinates":[[[1159294.4857856699,1911698.6162343964],[1159269.0183169153,1911697.3823129791],[1159270.2105717508,1911678.6179148091],[1159295.152122916,1911678.1001993136],[1159294.4857856699,1911698.6162343964]]]},"properties":{"OBJECTID":768981,"Area_SQFT":495.35481933747212,"Year":"2022","Height":11.380000000000001,"GlobalID":"{1A2D7980-DE83-4B33-B637-D8F618DBB3E6}"}},{"type":"Feature","id":768987,"geometry":{"type":"Polygon","coordinates":[[[1159142.5047904598,1911675.3032888887],[1159205.6837979376,1911677.4512504765],[1159204.9275658545,1911697.9810650521],[1159137.6567030423,1911695.5033797268],[1159138.4060453756,1911675.1523705546],[1159142.5047904598,1911675.3032888887]]]},"properties":{"OBJECTID":768987,"Area_SQFT":1376.5469650569007,"Year":"2022","Height":33.591000000000001,"GlobalID":"{D843931A-36D9-40D6-9B7D-40BCED97C483}"}},{"type":"Feature","id":768994,"geometry":{"type":"Polygon","coordinates":[[[1159247.4107485914,1911676.8626689846],[1159247.7496586815,1911678.5027575612],[1159249.4248521787,1911686.6067439779],[1159247.1938855085,1911687.0680291466],[1159247.7312860119,1911689.6680895532],[1159248.1535292622,1911691.7100802211],[1159247.5472312602,1911696.8101356442],[1159236.3349833419,1911696.6086924716],[1159236.0278973475,1911696.6031150618],[1159226.2536386868,1911696.4272623868],[1159225.8622352635,1911694.5345496326],[1159226.0833634359,1911682.9817512308],[1159226.1519328495,1911679.3803804712],[1159226.2165652651,1911675.9971851448],[1159247.4107485914,1911676.8626689846]]]},"properties":{"OBJECTID":768994,"Area_SQFT":445.12415396972614,"Year":"2022","Height":19.712,"GlobalID":"{DA1ABDAE-E1AD-4962-8D95-57161B0B64B2}"}},{"type":"Feature","id":769137,"geometry":{"type":"Polygon","coordinates":[[[1159517.1670987599,1911659.8200521437],[1159516.5522705908,1911682.0808343936],[1159466.336819859,1911681.7829347341],[1159463.9332813625,1911681.7166618973],[1159464.5431882788,1911659.6363254827],[1159517.1670987599,1911659.8200521437]]]},"properties":{"OBJECTID":769137,"Area_SQFT":1168.1206880212455,"Year":"2022","Height":29.003,"GlobalID":"{A7F4D136-0D05-48F5-A58C-6A2BFD93D67E}"}},{"type":"Feature","id":769170,"geometry":{"type":"Polygon","coordinates":[[[1159384.9964313835,1911655.4063470755],[1159384.919987967,1911658.5169051578],[1159387.3235264723,1911658.5759601502],[1159386.8438686295,1911678.1064328994],[1159329.4798101503,1911676.6120133109],[1159328.8177379863,1911673.4079514819],[1159329.2445744069,1911656.0182224817],[1159373.1204708922,1911655.115009066],[1159384.9964313835,1911655.4063470755]]]},"properties":{"OBJECTID":769170,"Area_SQFT":1261.7865336291695,"Year":"2022","Height":34.531999999999996,"GlobalID":"{8C4599A1-B4A5-4775-9E4E-6663677618DB}"}},{"type":"Feature","id":769188,"geometry":{"type":"Polygon","coordinates":[[[1159295.4700356633,1911653.4473614886],[1159295.2705609975,1911664.7429425663],[1159295.0687897503,1911676.1415418121],[1159268.6144463413,1911675.6736949743],[1159268.8158895024,1911664.2750957231],[1159269.015692258,1911652.9795146596],[1159295.4700356633,1911653.4473614886]]]},"properties":{"OBJECTID":769188,"Area_SQFT":600.55108448125736,"Year":"2022","Height":14.92,"GlobalID":"{35B0D126-EFB4-4EA5-A9F6-EEAE57E263C5}"}},{"type":"Feature","id":769214,"geometry":{"type":"Polygon","coordinates":[[[1159205.9479050289,1911670.2813173211],[1159205.8406217734,1911673.1894479883],[1159142.6868767135,1911670.3571045576],[1159138.447055795,1911670.2009369],[1159138.5303889608,1911667.9397865573],[1159132.7361092097,1911667.7262043154],[1159132.8975262074,1911663.3449794811],[1159138.2675942103,1911663.5428137348],[1159138.774811038,1911649.7738123983],[1159191.9892715283,1911649.6717784852],[1159205.1378672752,1911650.1560294856],[1159205.9479050289,1911670.2813173211]]]},"properties":{"OBJECTID":769214,"Area_SQFT":1494.6416346032086,"Year":"2022","Height":35.442999999999998,"GlobalID":"{89DE8B40-4351-4503-9743-60716930600C}"}},{"type":"Feature","id":769367,"geometry":{"type":"Polygon","coordinates":[[[1159476.9864048534,1911608.6515193335],[1159519.1936695159,1911610.8142446689],[1159519.5181439288,1911656.6553603171],[1159456.8312614465,1911657.1278003238],[1159458.1846051938,1911608.1321634219],[1159476.9864048534,1911608.6515193335]]]},"properties":{"OBJECTID":769367,"Area_SQFT":2942.6701023270757,"Year":"2022","Height":29.567,"GlobalID":"{D70BF1A7-075F-45A9-BA17-CB41F31E83D8}"}},{"type":"Feature","id":769425,"geometry":{"type":"Polygon","coordinates":[[[1159373.2323473094,1911650.5648213227],[1159318.0766177389,1911649.9440876539],[1159315.107463568,1911649.8712531494],[1159315.2603504055,1911643.6504650756],[1159309.3223701585,1911643.5047960698],[1159309.5966478235,1911632.3358551671],[1159314.6862045745,1911632.4608549064],[1159314.7278711591,1911630.7643359953],[1159316.2829861557,1911630.8023936546],[1159316.3732090741,1911627.1265479866],[1159323.3006886528,1911627.2968232534],[1159375.44034814,1911629.7679469045],[1159375.0564906411,1911645.4014458267],[1159373.3599717224,1911645.3597792401],[1159373.2323473094,1911650.5648213227]]]},"properties":{"OBJECTID":769425,"Area_SQFT":1365.8827313304555,"Year":"2022","Height":31.408999999999999,"GlobalID":"{EBDD1D39-F322-46C5-A435-81925D0212AD}"}},{"type":"Feature","id":769430,"geometry":{"type":"Polygon","coordinates":[[[1159249.550836178,1911627.5924263266],[1159248.7178325928,1911650.2045858218],[1159223.6368460171,1911649.280703157],[1159218.1706496009,1911645.8079410691],[1159218.8832466013,1911626.4628354129],[1159249.550836178,1911627.5924263266]]]},"properties":{"OBJECTID":769430,"Area_SQFT":685.26153709940365,"Year":"2022","Height":11.460000000000001,"GlobalID":"{90DC68DC-CF91-4998-A8B3-29C28B5B826A}"}},{"type":"Feature","id":769444,"geometry":{"type":"Polygon","coordinates":[[[1159290.9884173274,1911648.8161371534],[1159283.2344958393,1911648.2784085735],[1159283.3614640848,1911646.4477035732],[1159280.4841732506,1911646.2482289101],[1159270.01437792,1911647.6435673297],[1159270.1406899993,1911630.0008860789],[1159270.5009255076,1911626.5556829982],[1159278.0209235854,1911626.7640159093],[1159282.287647339,1911626.9756296664],[1159294.8863754123,1911627.8496436556],[1159294.615378578,1911631.7594127408],[1159294.2928726615,1911636.4093378163],[1159291.8604628327,1911636.240702986],[1159290.9884173274,1911648.8161371534]]]},"properties":{"OBJECTID":769444,"Area_SQFT":464.21902018091248,"Year":"2022","Height":20.292000000000002,"GlobalID":"{B85CD324-53BD-4BBB-9104-CB60A82FDFDF}"}},{"type":"Feature","id":769452,"geometry":{"type":"Polygon","coordinates":[[[1159190.2871752011,1911645.9335969889],[1159188.6792387746,1911647.7964541451],[1159173.1398997821,1911648.0471098127],[1159134.9427977102,1911646.2347774804],[1159135.211169881,1911638.9477185667],[1159138.0376077944,1911639.0520490767],[1159138.2249433813,1911633.9641327392],[1159137.0943682101,1911633.9224661537],[1159137.2869531284,1911628.6934739919],[1159139.5481034627,1911628.776807158],[1159139.7075519608,1911624.4529969052],[1159174.3141100351,1911626.2220222401],[1159174.0221158634,1911634.1504840697],[1159184.7629080238,1911634.5461525698],[1159184.8357425311,1911632.5678100793],[1159190.7714261957,1911632.7863135752],[1159190.2871752011,1911645.9335969889]]]},"properties":{"OBJECTID":769452,"Area_SQFT":1041.0010979764274,"Year":"2022","Height":33.167000000000002,"GlobalID":"{C803D511-663F-43E7-91F9-DF570C262EF2}"}},{"type":"Feature","id":769697,"geometry":{"type":"Polygon","coordinates":[[[1159338.0355673202,1911603.3267268401],[1159377.9905398935,1911606.5622846778],[1159377.886209385,1911610.8122761615],[1159380.4308237133,1911610.8746119947],[1159380.0482785527,1911626.4575860843],[1159358.6116416408,1911625.3453835808],[1159355.8114503962,1911624.8686785002],[1159323.373523158,1911624.3230759273],[1159323.5296908179,1911617.9658051673],[1159324.4771954843,1911602.9940503407],[1159338.0355673202,1911603.3267268401]]]},"properties":{"OBJECTID":769697,"Area_SQFT":1150.1999074400069,"Year":"2022","Height":37.235999999999997,"GlobalID":"{52B0518E-95F1-4A9D-8FED-40947F1D7E66}"}},{"type":"Feature","id":769716,"geometry":{"type":"Polygon","coordinates":[[[1159251.1075915904,1911602.4733820832],[1159250.9353478453,1911611.8408174147],[1159250.7145477592,1911623.8627749893],[1159225.7733246835,1911622.8345618316],[1159219.1663825195,1911622.1970959178],[1159219.5364605223,1911602.0622936718],[1159251.1075915904,1911602.4733820832]]]},"properties":{"OBJECTID":769716,"Area_SQFT":660.19243073642508,"Year":"2022","Height":13.537000000000001,"GlobalID":"{15DBF55B-04BC-4B44-9A93-7DA08E433746}"}},{"type":"Feature","id":769727,"geometry":{"type":"Polygon","coordinates":[[[1159195.3911676088,1911622.625572745],[1159176.02965778,1911621.9126476625],[1159139.8348482905,1911620.9936862485],[1159139.9231027134,1911618.6013025797],[1159138.6511236299,1911618.5547147426],[1159138.8906244645,1911612.0537435014],[1159140.1626035387,1911612.1003313363],[1159140.5894399567,1911600.5038978369],[1159195.295039197,1911602.1833564085],[1159195.1418242769,1911606.3421407591],[1159199.9469327733,1911606.5189776684],[1159199.7543478596,1911611.7479698306],[1159197.2103896937,1911611.6544660858],[1159196.9449702767,1911618.8618007491],[1159195.531587275,1911618.8099635788],[1159195.3911676088,1911622.625572745]]]},"properties":{"OBJECTID":769727,"Area_SQFT":1169.1807588184843,"Year":"2022","Height":22.555,"GlobalID":"{F76890E3-DC9B-4CAE-86CB-8F66DC13A4D2}"}},{"type":"Feature","id":769728,"geometry":{"type":"Polygon","coordinates":[[[1159288.9323190821,1911604.6689157542],[1159288.8493139951,1911604.8359101645],[1159288.2892757447,1911610.1915425044],[1159290.2728675872,1911610.3988911724],[1159289.2180796636,1911620.487125583],[1159289.0143399155,1911622.4379090886],[1159271.823757506,1911621.5717690845],[1159272.1465915001,1911620.4438185801],[1159272.5393072548,1911616.6895609982],[1159271.543246249,1911616.5852304981],[1159272.8723118352,1911603.8713451652],[1159275.9326731691,1911604.1912264233],[1159275.9539985836,1911603.9851900863],[1159288.9323190821,1911604.6689157542]]]},"properties":{"OBJECTID":769728,"Area_SQFT":303.44088755227136,"Year":"2022","Height":20.094000000000001,"GlobalID":"{6196966F-6AF1-4109-BF64-3C6CAE0056BA}"}},{"type":"Feature","id":769867,"geometry":{"type":"Polygon","coordinates":[[[1159549.2457747541,1911588.640732595],[1159548.4537815854,1911609.4933811747],[1159534.4127991793,1911609.1055866652],[1159478.4549058618,1911606.7112344995],[1159479.013303689,1911586.4868655044],[1159549.2457747541,1911588.640732595]]]},"properties":{"OBJECTID":769867,"Area_SQFT":1447.6972086479268,"Year":"2022","Height":29.015000000000001,"GlobalID":"{ED069C05-7DB3-4358-8164-5797EDC7A4E8}"}},{"type":"Feature","id":769928,"geometry":{"type":"Polygon","coordinates":[[[1159384.5735319727,1911603.4789575036],[1159378.0699360576,1911603.3191809228],[1159338.0795304871,1911601.5317829216],[1159338.139569734,1911599.0852655077],[1159330.6468025665,1911598.9012107567],[1159330.8341381543,1911591.2670396711],[1159333.5201564026,1911591.3329844233],[1159333.8223211518,1911579.0328121774],[1159339.476509318,1911579.1715914221],[1159385.1394757167,1911580.4229012523],[1159384.5735319727,1911603.4789575036]]]},"properties":{"OBJECTID":769928,"Area_SQFT":1176.4290971581288,"Year":"2022","Height":30.134,"GlobalID":"{4F205ACE-393E-4069-8C15-A0ABA1003C68}"}},{"type":"Feature","id":769969,"geometry":{"type":"Polygon","coordinates":[[[1159299.9306566587,1911579.8431780091],[1159298.4578905783,1911600.3851316734],[1159275.7496026673,1911600.4425462494],[1159267.5160233402,1911600.4966800082],[1159268.0225840015,1911581.0187005883],[1159268.0055236737,1911578.4373409338],[1159299.9306566587,1911579.8431780091]]]},"properties":{"OBJECTID":769969,"Area_SQFT":668.99056866999672,"Year":"2022","Height":14.263999999999999,"GlobalID":"{E0A2A54E-E1AC-4D9F-9F41-8868E6484917}"}},{"type":"Feature","id":769979,"geometry":{"type":"Polygon","coordinates":[[[1159198.6473946923,1911599.5367081785],[1159195.3967450282,1911599.4169577502],[1159140.6465264533,1911598.9573130019],[1159130.6124257969,1911598.5875630886],[1159130.9769263787,1911588.6948663401],[1159129.42213946,1911588.6374517528],[1159129.5471392127,1911585.2457262494],[1159131.6672137135,1911585.323810095],[1159131.9480530501,1911577.6922636786],[1159134.0681275455,1911577.7703475128],[1159134.1563819691,1911575.3677932622],[1159140.5152931225,1911575.6020447535],[1159195.3373619469,1911576.676189594],[1159199.3665533601,1911580.034450588],[1159198.6473946923,1911599.5367081785]]]},"properties":{"OBJECTID":769979,"Area_SQFT":1557.3325278117866,"Year":"2022","Height":44.055,"GlobalID":"{4C73AD34-DAEC-472C-9F76-3782C9E5141E}"}},{"type":"Feature","id":769983,"geometry":{"type":"Polygon","coordinates":[[[1159250.2663859273,1911586.0679030898],[1159250.1479478388,1911592.4973521682],[1159251.1896124252,1911598.0160419189],[1159251.1663185128,1911599.2863805855],[1159227.4803422652,1911599.2037035865],[1159223.2064006897,1911598.333298512],[1159223.2608625251,1911595.3743149231],[1159225.2487194384,1911592.0396759184],[1159225.3668294342,1911585.6102268423],[1159250.2663859273,1911586.0679030898]]]},"properties":{"OBJECTID":769983,"Area_SQFT":347.09672452782007,"Year":"2022","Height":11.853,"GlobalID":"{CF251134-F963-4570-A219-D2AC1FB47CA9}"}},{"type":"Feature","id":770114,"geometry":{"type":"Polygon","coordinates":[[[1159521.7103967615,1911586.1144909272],[1159479.0598915264,1911584.7995329255],[1159463.6508016153,1911584.3740088423],[1159464.0100528607,1911571.3681293384],[1159461.4654385324,1911571.2979195132],[1159461.6412911965,1911564.9363836874],[1159466.5891159477,1911565.0728663502],[1159466.6593257778,1911562.5282520202],[1159481.7856078621,1911562.9459021003],[1159521.7838874236,1911565.051212847],[1159521.7103967615,1911586.1144909272]]]},"properties":{"OBJECTID":770114,"Area_SQFT":1260.3838646693748,"Year":"2022","Height":35.505000000000003,"GlobalID":"{1B03675F-8C46-4169-A68D-7526B51A778A}"}},{"type":"Feature","id":770234,"geometry":{"type":"Polygon","coordinates":[[[1159329.7780379024,1911553.61160319],[1159382.3399406343,1911556.1532647635],[1159381.9160569711,1911573.4232433448],[1159379.3346973055,1911574.983607678],[1159339.5919946539,1911574.5062464208],[1159315.4171742429,1911573.9127436758],[1159315.7363993214,1911555.1060227677],[1159315.7813467367,1911553.2680999369],[1159329.7780379024,1911553.61160319]]]},"properties":{"OBJECTID":770234,"Area_SQFT":1327.8402033916429,"Year":"2022","Height":39.286999999999999,"GlobalID":"{CA848802-4FC4-43B5-BD47-C261263ED9D5}"}},{"type":"Feature","id":770256,"geometry":{"type":"Polygon","coordinates":[[[1159253.016708507,1911552.3744009363],[1159252.8867875098,1911561.9826494306],[1159252.7316040935,1911573.4370228422],[1159230.1765310986,1911573.1312491738],[1159230.3317145195,1911561.6768757661],[1159230.4655725197,1911551.8051763545],[1159253.016708507,1911552.3744009363]]]},"properties":{"OBJECTID":770256,"Area_SQFT":478.12603153095989,"Year":"2022","Height":13.241,"GlobalID":"{A33FA54D-402E-491C-8746-3103BB414783}"}},{"type":"Feature","id":770265,"geometry":{"type":"Polygon","coordinates":[[[1159291.5494398328,1911572.8090713492],[1159270.7528935091,1911572.7365649173],[1159270.6574212553,1911558.1932869381],[1159271.6416712531,1911557.2569370947],[1159271.3024330903,1911556.1165194293],[1159271.2998084216,1911555.6778720145],[1159271.4257924173,1911554.3324022687],[1159271.4070916707,1911552.5361460154],[1159272.8874036737,1911552.5263035167],[1159275.4339865043,1911552.5095712731],[1159284.1491921619,1911554.2487410111],[1159285.1029304171,1911553.9058939419],[1159288.5546951655,1911553.5564851766],[1159289.1488540859,1911553.4035983582],[1159289.260402414,1911553.4997267679],[1159290.5776569969,1911553.3940839288],[1159292.6583614971,1911553.3803044383],[1159291.5494398328,1911572.8090713492]]]},"properties":{"OBJECTID":770265,"Area_SQFT":413.28951985026305,"Year":"2022","Height":15.029999999999999,"GlobalID":"{6737FC69-67E0-4EE8-9D4E-31315DD37012}"}},{"type":"Feature","id":770280,"geometry":{"type":"Polygon","coordinates":[[[1159203.363920691,1911551.4869355164],[1159203.2920704391,1911572.0341385042],[1159147.2597022094,1911570.4376850098],[1159145.3666613773,1911566.8651855947],[1159146.0015026252,1911549.6234221861],[1159203.363920691,1911551.4869355164]]]},"properties":{"OBJECTID":770280,"Area_SQFT":1188.9711289412371,"Year":"2022","Height":32.405999999999999,"GlobalID":"{532C10F5-79FA-4C21-866A-4C1F35A8778E}"}},{"type":"Feature","id":770450,"geometry":{"type":"Polygon","coordinates":[[[1159540.5000573385,1911541.2179271907],[1159539.6276837611,1911559.037773432],[1159481.9066706104,1911558.5636930151],[1159477.5244615236,1911558.442630263],[1159478.0480825254,1911539.4856471901],[1159540.5000573385,1911541.2179271907]]]},"properties":{"OBJECTID":770450,"Area_SQFT":1148.453746392408,"Year":"2022","Height":31.085999999999999,"GlobalID":"{5135CF0B-34FE-4A6F-BD4C-AF5C4CA9F3B0}"}},{"type":"Feature","id":770500,"geometry":{"type":"Polygon","coordinates":[[[1159388.8543633025,1911550.1106259457],[1159391.257901802,1911550.1696809416],[1159391.1745686326,1911553.5627187772],[1159383.6814733897,1911553.3786640153],[1159335.9857026462,1911551.9498611058],[1159335.6458083175,1911529.8481992779],[1159339.2714572276,1911529.9371098578],[1159390.1716178865,1911531.0312677766],[1159390.0843477147,1911534.5798171111],[1159393.760193388,1911534.6700400261],[1159393.6978575489,1911537.2146543516],[1159391.5771268888,1911537.1628171944],[1159391.4557360543,1911542.1109700222],[1159389.0521975528,1911542.0519150198],[1159388.8543633025,1911550.1106259457]]]},"properties":{"OBJECTID":770500,"Area_SQFT":1221.9701491913411,"Year":"2022","Height":33.218000000000004,"GlobalID":"{56D66AC3-3EEE-4ABA-B582-29A821A8B8BE}"}},{"type":"Feature","id":770538,"geometry":{"type":"Polygon","coordinates":[[[1159251.4612654278,1911527.2291100291],[1159251.311659426,1911538.2733792672],[1159249.599720597,1911550.2474366876],[1159226.7241101852,1911548.7809041827],[1159226.8707634383,1911537.9423431854],[1159227.0210256067,1911526.8692026031],[1159251.4612654278,1911527.2291100291]]]},"properties":{"OBJECTID":770538,"Area_SQFT":541.02141472479877,"Year":"2022","Height":13.093,"GlobalID":"{8AC99C90-863C-44A0-BBE6-E970DCC46234}"}},{"type":"Feature","id":770554,"geometry":{"type":"Polygon","coordinates":[[[1159210.381623188,1911526.8452525272],[1159209.580443691,1911548.6040672672],[1159144.1114145454,1911547.1480334345],[1159140.5782851267,1911547.017784344],[1159141.4129291212,1911524.3551000236],[1159210.381623188,1911526.8452525272]]]},"properties":{"OBJECTID":770554,"Area_SQFT":1535.5765706967297,"Year":"2022","Height":33.484999999999999,"GlobalID":"{E3B81FF7-3A3A-4C56-BF74-D60B8B6F0646}"}},{"type":"Feature","id":770681,"geometry":{"type":"Polygon","coordinates":[[[1159529.610643425,1911537.1037621901],[1159478.1022162796,1911537.520099934],[1159464.9549328638,1911537.1572397707],[1159465.5563096097,1911515.3866140302],[1159467.393904364,1911515.4371388538],[1159467.4447572741,1911513.59954411],[1159486.2465569391,1911514.1189000362],[1159486.301346858,1911512.1395732779],[1159496.3384002671,1911512.4168036969],[1159496.2875473555,1911514.2547265335],[1159530.2159571699,1911515.1917325275],[1159529.610643425,1911537.1037621901]]]},"properties":{"OBJECTID":770681,"Area_SQFT":1500.3580374866121,"Year":"2022","Height":31.789999999999999,"GlobalID":"{C20BDD57-74EA-418C-9893-50346B5B89C3}"}}]}