{"type":"FeatureCollection","crs":{"type":"name","properties":{"name":"EPSG:3435"}},"features":[{"type":"Feature","id":510512,"geometry":{"type":"Polygon","coordinates":[[[1159190.3754294773,1933377.5305470882],[1159183.4531992271,1933377.211650088],[1159183.6090388135,1933373.8212369233],[1159178.7219094806,1933373.5961717551],[1159179.6730230649,1933311.7734607786],[1159181.9315487295,1933311.8774631899],[1159181.8012996481,1933314.7029168501],[1159184.9095611472,1933314.8459611854],[1159184.8052306464,1933317.1061272689],[1159192.1513445601,1933317.4443811986],[1159192.2228667266,1933315.8905785235],[1159195.3311282268,1933316.0336228542],[1159195.2789629765,1933317.1638699402],[1159198.951855893,1933317.3331609406],[1159199.0299397232,1933315.6376262747],[1159201.8553933927,1933315.7678753587],[1159201.7838712265,1933317.3220060999],[1159203.743512972,1933317.4122290241],[1159202.3071641384,1933370.2936849254],[1159193.5584939749,1933369.8907985855],[1159193.2855286424,1933375.824185675],[1159190.4600749752,1933375.6939365834],[1159190.3754294773,1933377.5305470882]]]},"properties":{"OBJECTID":510512,"Area_SQFT":1372.1299099460027,"Year":"2022","Height":29.141999999999999,"GlobalID":"{BD658A4C-6826-4A8B-9490-665C35C5D2C9}"}},{"type":"Feature","id":510528,"geometry":{"type":"Polygon","coordinates":[[[1159078.894681345,1933376.3930821689],[1159055.8314072723,1933375.7867841679],[1159053.359299354,1933375.721823669],[1159051.3428991877,1933375.6690022505],[1159051.3550382701,1933375.208701337],[1159043.8698170225,1933375.012179431],[1159034.4551376961,1933375.2251055075],[1159024.9938705319,1933374.9764183355],[1159033.623118357,1933361.0066300058],[1159040.9334711933,1933346.9981278426],[1159046.0883165218,1933347.1336262606],[1159047.7543236867,1933347.17726134],[1159049.1053708612,1933347.2130224279],[1159052.5374506058,1933347.3032453444],[1159052.6650750223,1933342.4558141055],[1159054.4892183566,1933334.3852921841],[1159054.5882995224,1933330.6143023581],[1159055.9272076036,1933320.7908311817],[1159060.672933016,1933321.53918927],[1159074.0219876764,1933321.9125481017],[1159079.2434339258,1933321.7845956024],[1159080.3799145927,1933324.2248794299],[1159080.0967786754,1933331.2845765993],[1159079.8795875132,1933339.5427621801],[1159079.3287355923,1933360.4987570015],[1159079.1984865123,1933365.4600331702],[1159078.9786706786,1933373.1926292551],[1159078.894681345,1933376.3930821689]]]},"properties":{"OBJECTID":510528,"Area_SQFT":1973.922757084337,"Year":"2022","Height":29.506,"GlobalID":"{574E61D5-8B50-40D3-BA57-38CFA47DEE14}"}},{"type":"Feature","id":510530,"geometry":{"type":"Polygon","coordinates":[[[1159399.1650380834,1933348.8327698426],[1159400.9970554141,1933348.9233208573],[1159400.6666754954,1933355.6162208458],[1159401.6686419984,1933364.5801136696],[1159401.4937735805,1933368.1175081707],[1159399.69292416,1933376.3779903371],[1159345.6677697657,1933375.3556826692],[1159345.7061555181,1933374.5817340948],[1159339.4725721809,1933374.2739919224],[1159341.9571472642,1933366.3570130032],[1159342.1382492681,1933362.69133793],[1159342.0978950146,1933356.7546700197],[1159342.8721716828,1933341.0860661811],[1159343.5467110185,1933327.4318940165],[1159341.8360845156,1933314.0834955173],[1159341.9558349291,1933311.6576473629],[1159342.1123306886,1933308.4929555201],[1159342.4253221827,1933302.1537293633],[1159342.6749935953,1933297.1032145345],[1159341.9131840994,1933292.6918060223],[1159339.0381898482,1933292.5497459513],[1159339.7284771826,1933278.5740521129],[1159339.5247374321,1933268.0993355399],[1159339.769487605,1933263.1446210421],[1159344.2100955152,1933263.3641087909],[1159384.6795027521,1933264.5143689534],[1159392.272663418,1933264.889368213],[1159392.9357198314,1933264.9221765441],[1159398.9839360879,1933265.0632523817],[1159400.9734334091,1933264.1170600378],[1159401.0482364136,1933262.6062362867],[1159404.5912083322,1933262.7814327872],[1159404.4156837452,1933266.33851229],[1159403.2434420022,1933266.2804415429],[1159403.1863554975,1933267.4379195315],[1159402.5223148316,1933279.8686689429],[1159405.8454709155,1933280.0327106193],[1159405.4455373315,1933288.1298072755],[1159404.4963922461,1933307.3417111032],[1159402.8159494121,1933312.1067934444],[1159402.5196901658,1933318.1090780206],[1159402.2562392468,1933323.4387917714],[1159400.4242219154,1933323.3482407751],[1159399.1650380834,1933348.8327698426]]]},"properties":{"OBJECTID":510530,"Area_SQFT":6781.2265767060644,"Year":"2022","Height":56,"GlobalID":"{42E1184D-CFDD-4BF1-86FF-E0CE55C635AA}"}},{"type":"Feature","id":510532,"geometry":{"type":"Polygon","coordinates":[[[1159176.2740797361,1933376.3149983424],[1159161.581851905,1933375.6381624201],[1159161.7511429086,1933371.9652695009],[1159155.6763519044,1933371.685414423],[1159155.747874076,1933370.1316117507],[1159153.2052282356,1933370.0144860025],[1159154.6104091562,1933339.4997832624],[1159152.4913189034,1933339.4020144364],[1159153.6622483262,1933313.9732595182],[1159172.8751364001,1933314.8581002729],[1159173.0313040693,1933311.4673590246],[1159179.1106882321,1933311.7475421818],[1159177.1756527338,1933373.5249776717],[1159176.4043288212,1933373.4895446722],[1159176.2740797361,1933376.3149983424]]]},"properties":{"OBJECTID":510532,"Area_SQFT":1487.9695632435848,"Year":"2022","Height":28.684999999999999,"GlobalID":"{834BBD63-5DE1-4BF2-9FEF-CF0AC8A457C4}"}},{"type":"Feature","id":510586,"geometry":{"type":"Polygon","coordinates":[[[1159260.1170878729,1933372.5312132637],[1159256.7266747071,1933372.3750455934],[1159256.9478028733,1933367.5719055929],[1159256.0150619589,1933367.5289266745],[1159258.4750307912,1933315.2606585226],[1159263.8756105381,1933315.5093456907],[1159263.9668177045,1933313.5316593514],[1159265.3795445454,1933313.5966198633],[1159265.6853182055,1933306.9568693633],[1159278.1170518717,1933307.5293747743],[1159277.8568817882,1933313.1802821108],[1159280.6823354515,1933313.3105311929],[1159280.591128286,1933315.2882175166],[1159283.6462402854,1933315.4289652742],[1159282.0114010354,1933365.7530115901],[1159278.1337841211,1933365.5745342649],[1159278.0038631223,1933368.3999879174],[1159270.6577492042,1933368.0614059258],[1159270.5078151207,1933371.3107432639],[1159264.9983117064,1933371.0571348479],[1159265.1154374578,1933368.5141609265],[1159260.3122974571,1933368.2930327621],[1159260.1170878729,1933372.5312132637]]]},"properties":{"OBJECTID":510586,"Area_SQFT":1481.9123188440126,"Year":"2022","Height":30.559000000000001,"GlobalID":"{806053A5-DBC2-47BB-97B2-7B5F01F5BFB6}"}},{"type":"Feature","id":510603,"geometry":{"type":"Polygon","coordinates":[[[1159208.6578732252,1933312.5418319395],[1159208.6188313121,1933313.3895992734],[1159228.9321108859,1933314.3249648563],[1159227.2444502171,1933371.4419765924],[1159204.0545359764,1933370.3740653396],[1159206.6148983061,1933312.4476720234],[1159208.6578732252,1933312.5418319395]]]},"properties":{"OBJECTID":510603,"Area_SQFT":1304.1897412783201,"Year":"2022","Height":29.722000000000001,"GlobalID":"{48C9EB44-87F8-4FFD-9593-1D3D85368481}"}},{"type":"Feature","id":510605,"geometry":{"type":"Polygon","coordinates":[[[1159334.538526939,1933327.3994137719],[1159336.0923296004,1933327.4709359382],[1159334.082163021,1933371.1240638464],[1159311.0343088522,1933370.0623861798],[1159312.3804347774,1933323.547715432],[1159317.2921703579,1933323.7737648524],[1159317.5198601945,1933318.829220939],[1159321.4752328598,1933319.0113071888],[1159321.748526274,1933313.0779201072],[1159335.1694311837,1933313.6960291066],[1159334.538526939,1933327.3994137719]]]},"properties":{"OBJECTID":510605,"Area_SQFT":1253.4955188396161,"Year":"2022","Height":32.399999999999999,"GlobalID":"{6ABFE6B9-D3DA-4638-A89D-8B9121328CFC}"}},{"type":"Feature","id":510607,"geometry":{"type":"Polygon","coordinates":[[[1159104.609853006,1933371.0364655913],[1159103.7499465921,1933364.5988144276],[1159103.853292837,1933361.7654867584],[1159105.4057831685,1933319.1596008549],[1159117.1524788362,1933319.5877495978],[1159125.9690622468,1933319.9089431867],[1159126.3197833302,1933310.2787131113],[1159122.8247115857,1933310.1514167716],[1159121.5714332426,1933310.1054851026],[1159121.5914463329,1933309.5552893707],[1159122.8532548312,1933309.3754996932],[1159124.7508888345,1933308.5027980295],[1159128.0789661601,1933308.6241888579],[1159127.6655811644,1933319.9706228471],[1159129.0438592508,1933320.0208196065],[1159127.4913689117,1933362.627033585],[1159127.2056083325,1933370.4705218379],[1159125.4421604229,1933370.4062175096],[1159104.609853006,1933371.0364655913]]]},"properties":{"OBJECTID":510607,"Area_SQFT":1231.8046511500595,"Year":"2022","Height":30.241,"GlobalID":"{792CC037-5929-47A4-840C-8EE0C39A4C52}"}},{"type":"Feature","id":510615,"geometry":{"type":"Polygon","coordinates":[[[1159247.3198693781,1933370.6676999282],[1159243.646976464,1933370.4984089148],[1159243.7509788834,1933368.2382428315],[1159229.1076354641,1933367.5637035018],[1159230.2391948816,1933314.3850041016],[1159232.3523796333,1933314.482444847],[1159232.3720646296,1933314.0585611975],[1159256.2089592095,1933315.1563280241],[1159254.4402619572,1933367.4564202519],[1159250.5905321271,1933367.2789271793],[1159250.5124482941,1933368.9741337644],[1159247.4045148767,1933368.8310894151],[1159247.3198693781,1933370.6676999282]]]},"properties":{"OBJECTID":510615,"Area_SQFT":1378.7578175156318,"Year":"2022","Height":27.367999999999999,"GlobalID":"{AB695581-A854-4649-97AE-062B60ACE1C0}"}},{"type":"Feature","id":510651,"geometry":{"type":"Polygon","coordinates":[[[1159309.1281446912,1933316.6025193606],[1159308.8158093591,1933323.3833456805],[1159310.8873275225,1933323.4788179391],[1159309.942447528,1933367.180830251],[1159302.6360316945,1933366.8442167563],[1159297.053365692,1933366.6821435888],[1159285.1774052011,1933366.3373280189],[1159285.197418283,1933365.8996648421],[1159283.4966342843,1933365.821252926],[1159284.7134953667,1933315.4781777717],[1159309.1281446912,1933316.6025193606]]]},"properties":{"OBJECTID":510651,"Area_SQFT":1322.3493639125054,"Year":"2022","Height":29.850999999999999,"GlobalID":"{BCED6861-5512-45E8-AE6B-EA43964B4A0A}"}},{"type":"Feature","id":511465,"geometry":{"type":"Polygon","coordinates":[[[1159303.0897709439,1933293.7987591992],[1159302.7990891107,1933304.2472291067],[1159290.966107538,1933301.4247282036],[1159287.9490531965,1933301.3407388537],[1159288.0071239455,1933299.2492076103],[1159288.170509445,1933293.3837337764],[1159303.0897709439,1933293.7987591992]]]},"properties":{"OBJECTID":511465,"Area_SQFT":133.64444303514372,"Year":"2022","Height":10.378,"GlobalID":"{4DC7C1BF-A665-4AC8-B2D1-43ECB0D4C02C}"}},{"type":"Feature","id":511503,"geometry":{"type":"Polygon","coordinates":[[[1159155.2347517405,1933301.8817482803],[1159152.5356101571,1933301.7770896994],[1159151.6474885729,1933301.7426409486],[1159147.8289266573,1933301.5946753607],[1159146.0664629918,1933301.5264340204],[1159146.1753866596,1933298.7108228575],[1159144.449012164,1933298.6438938642],[1159132.5120281542,1933298.1812963637],[1159132.9070404938,1933287.9834821133],[1159133.7003459914,1933267.5091136149],[1159135.4450931614,1933262.6311706193],[1159135.6832816612,1933256.4851855382],[1159135.7853155835,1933253.8503482896],[1159157.064144403,1933254.674821709],[1159156.9804831622,1933256.8277045328],[1159158.1589584844,1933263.5114182006],[1159157.1806139906,1933288.7584149458],[1159156.808895574,1933298.3584613667],[1159155.3735309886,1933298.3030152756],[1159155.2347517405,1933301.8817482803]]]},"properties":{"OBJECTID":511503,"Area_SQFT":1078.2655007675492,"Year":"2022","Height":29.356999999999999,"GlobalID":"{0E99555A-CC4E-402F-8783-0D861AD81910}"}},{"type":"Feature","id":511622,"geometry":{"type":"Polygon","coordinates":[[[1159272.8391752853,1933293.0930519453],[1159269.9513857891,1933293.020545522],[1159270.051779286,1933289.0202254544],[1159270.0776978729,1933287.9943088714],[1159270.1488919561,1933285.1619654479],[1159270.2571594568,1933280.8457011171],[1159269.7647063753,1933280.8332339481],[1159260.740446209,1933280.5146650346],[1159261.2985159599,1933263.4664707873],[1159280.8066790304,1933263.9562992058],[1159281.3634364563,1933264.7896308745],[1159283.9930243676,1933264.8555756263],[1159283.9037856988,1933268.4169202091],[1159281.2738696989,1933268.3509754515],[1159281.1574001161,1933272.9923703731],[1159282.4257702844,1933273.0241944543],[1159282.3644186971,1933275.4667748665],[1159280.8273482861,1933286.1278427825],[1159274.6242767046,1933285.9720032029],[1159274.5875313717,1933287.4388637831],[1159274.5475052018,1933289.0251467014],[1159272.9421934553,1933288.9847924435],[1159272.8391752853,1933293.0930519453]]]},"properties":{"OBJECTID":511622,"Area_SQFT":443.53098670239285,"Year":"2022","Height":12.34,"GlobalID":"{F5CFECFD-6D11-4FFE-8E37-88164174B77B}"}},{"type":"Feature","id":511696,"geometry":{"type":"Polygon","coordinates":[[[1159335.9686421819,1933265.2013754558],[1159335.8646397761,1933289.2160912],[1159313.4699995199,1933289.0300679575],[1159313.6202616936,1933265.0612838629],[1159335.9686421819,1933265.2013754558]]]},"properties":{"OBJECTID":511696,"Area_SQFT":536.75241203500491,"Year":"2022","Height":10.868,"GlobalID":"{D09007A8-CA06-40E8-A187-37999E8A9E10}"}},{"type":"Feature","id":511710,"geometry":{"type":"Polygon","coordinates":[[[1159254.5734637983,1933284.2357862075],[1159244.0131174633,1933284.3611140286],[1159244.0606895462,1933288.3712766222],[1159241.3487527112,1933288.4034287797],[1159241.3011806302,1933284.3929381152],[1159237.1991547141,1933283.3122316161],[1159235.6870186317,1933283.3302762066],[1159235.4206149611,1933260.8309773789],[1159255.8152592063,1933260.5895080385],[1159254.5501698763,1933282.2558032833],[1159254.5734637983,1933284.2357862075]]]},"properties":{"OBJECTID":511710,"Area_SQFT":469.3374788965391,"Year":"2022","Height":10.378,"GlobalID":"{77CC8AE2-BC30-4E6E-A942-13C58DB47B38}"}},{"type":"Feature","id":511723,"geometry":{"type":"Polygon","coordinates":[[[1159302.8522386083,1933287.4834831164],[1159294.6744334484,1933287.1934574589],[1159289.6068582798,1933284.4897227096],[1159285.347352366,1933284.338476277],[1159286.1042406189,1933262.9982958762],[1159286.1186762881,1933262.5931129553],[1159310.426698528,1933263.4553159538],[1159309.6553746066,1933285.200679282],[1159308.2823458668,1933285.1521229493],[1159308.3227001072,1933284.0103929548],[1159302.9821596139,1933283.8210888675],[1159302.8522386083,1933287.4834831164]]]},"properties":{"OBJECTID":511723,"Area_SQFT":550.29965923118482,"Year":"2022","Height":13.272,"GlobalID":"{AAF02D53-1E02-4C9A-955D-93C0D31EA540}"}},{"type":"Feature","id":511729,"geometry":{"type":"Polygon","coordinates":[[[1159104.6426613396,1933287.2377486955],[1159097.6909035898,1933286.9516600305],[1159095.6203696749,1933286.8663583687],[1159088.5472210948,1933286.5753484466],[1159082.4438868407,1933286.3240366117],[1159082.9845681833,1933273.1898765261],[1159083.5344358471,1933259.8319636204],[1159106.2919362537,1933260.7689696266],[1159106.8752684216,1933277.9762842769],[1159105.0271750018,1933277.9001689455],[1159104.6426613396,1933287.2377486955]]]},"properties":{"OBJECTID":511729,"Area_SQFT":609.76572368233587,"Year":"2022","Height":19.77,"GlobalID":"{16F13574-D825-4DB3-BA73-9B1D6DECDB78}"}},{"type":"Feature","id":511769,"geometry":{"type":"Polygon","coordinates":[[[1159185.2720932348,1933256.9271137919],[1159204.0102447229,1933259.7059796224],[1159204.141478057,1933284.2548150304],[1159201.4738324722,1933284.1472037057],[1159184.0234080618,1933283.4434649542],[1159184.0706520653,1933282.2702389504],[1159182.6825314774,1933280.0563326187],[1159183.8419779786,1933256.4451593636],[1159185.2720932348,1933256.9271137919]]]},"properties":{"OBJECTID":511769,"Area_SQFT":533.2412259914214,"Year":"2022","Height":10.946,"GlobalID":"{5ABB2496-6C7D-4A7F-A772-45F86E2B1851}"}},{"type":"Feature","id":511840,"geometry":{"type":"Polygon","coordinates":[[[1159120.253522503,1933255.7709481169],[1159131.221676416,1933256.22239079],[1159130.242347663,1933280.0097447787],[1159119.2741937509,1933279.5583021189],[1159112.810295918,1933279.2922265315],[1159108.2955411691,1933278.0350112007],[1159108.1229693389,1933278.0277933637],[1159109.4195546717,1933256.2036900306],[1159110.8421240018,1933255.383481713],[1159120.253522503,1933255.7709481169]]]},"properties":{"OBJECTID":511840,"Area_SQFT":520.17029892153323,"Year":"2022","Height":14.916,"GlobalID":"{990077F2-103D-4662-AE5D-97A4D5701D35}"}},{"type":"Feature","id":511872,"geometry":{"type":"Polygon","coordinates":[[[1159010.9860245357,1933278.2400632848],[1158938.6800668039,1933240.7253745424],[1158948.8404795555,1933221.1424084629],[1158949.9700704722,1933221.7286933849],[1158952.640668802,1933216.5817220511],[1158951.0087823006,1933215.7352670564],[1158974.9112935464,1933169.6651492345],[1158973.907030459,1933169.1441529028],[1158982.9736133805,1933151.669450321],[1159057.5902620233,1933188.4154398018],[1159010.9860245357,1933278.2400632848]]]},"properties":{"OBJECTID":511872,"Area_SQFT":8228.9328105352361,"Year":"2022","Height":39.716999999999999,"GlobalID":"{6D7C3CB2-E5F5-4709-8516-9F74FFDF0F57}"}},{"type":"Feature","id":511882,"geometry":{"type":"Polygon","coordinates":[[[1159180.2658696475,1933256.2830862091],[1159180.2658696459,1933277.7896048725],[1159161.8062609034,1933277.0451837815],[1159161.840709653,1933276.1901986178],[1159162.2908399899,1933265.0274912843],[1159162.5759444027,1933257.9622167121],[1159162.6720728201,1933255.5734419581],[1159180.2658696475,1933256.2830862091]]]},"properties":{"OBJECTID":511882,"Area_SQFT":387.69227167855695,"Year":"2022","Height":11.914999999999999,"GlobalID":"{98239CF0-6478-46DC-BED3-5CD5ADE7C57E}"}},{"type":"Feature","id":512381,"geometry":{"type":"Polygon","coordinates":[[[1159401.799875329,1933239.5252457145],[1159401.6417391628,1933247.7184707967],[1159349.1661223511,1933246.707646044],[1159336.8918686858,1933246.4710979653],[1159312.4483480249,1933246.0002983701],[1159308.6711246104,1933245.9274638803],[1159306.1931111959,1933241.0570667982],[1159306.2265756961,1933239.3149442999],[1159306.3778221144,1933238.1587786286],[1159306.5861550281,1933227.3464643089],[1159313.3016927759,1933227.4757291293],[1159313.4201308589,1933221.3195734662],[1159402.1174599924,1933223.0285595499],[1159401.799875329,1933239.5252457145]]]},"properties":{"OBJECTID":512381,"Area_SQFT":2309.9914937558829,"Year":"2022","Height":49.734000000000002,"GlobalID":"{3D93ABE4-C2C1-4F8C-A4D7-7CD1C971D8D2}"}},{"type":"Feature","id":512409,"geometry":{"type":"Polygon","coordinates":[[[1159296.9824996956,1933223.3576271448],[1159296.9359118638,1933225.4334103842],[1159296.5464769509,1933242.7936118762],[1159296.47528286,1933245.9586317902],[1159256.7227377049,1933245.0665732075],[1159257.2299545433,1933222.4655685541],[1159296.9824996956,1933223.3576271448]]]},"properties":{"OBJECTID":512409,"Area_SQFT":898.90158339887125,"Year":"2022","Height":15.117000000000001,"GlobalID":"{041B39E6-DE52-4A50-B235-2D54CC234687}"}},{"type":"Feature","id":512662,"geometry":{"type":"Polygon","coordinates":[[[1159212.3274853053,1933227.4478420545],[1159131.7308617451,1933225.9639211346],[1159131.9106514168,1933216.2073789728],[1159130.0724004961,1933216.1735863814],[1159130.0930697485,1933215.0423550482],[1159109.5904860953,1933214.6650592107],[1159111.7017023379,1933099.9917321617],[1159095.0166963439,1933099.6846461715],[1159094.7981928394,1933111.5619190007],[1159034.9869607775,1933110.4608713312],[1159034.919375608,1933114.1370450843],[1159037.747125865,1933114.1892103362],[1159037.7133332752,1933116.0274612503],[1159039.4101802749,1933116.0586291626],[1159039.3737630295,1933118.0382839979],[1159032.44529919,1933117.9106595814],[1159032.5181336899,1933113.9516779981],[1159031.3869023602,1933113.9306806673],[1159031.4571121978,1933110.113103003],[1159008.5509900355,1933109.6911878388],[1159008.5847826099,1933107.8532649984],[1159006.0395121109,1933107.806349087],[1159006.2294723722,1933097.4841912498],[1159008.3505311189,1933097.5232331781],[1159008.4364889567,1933092.857232003],[1159010.5575477004,1933092.896273921],[1159010.6458021165,1933088.0888688432],[1159012.7668608637,1933088.12791076],[1159012.8528187005,1933083.4615815068],[1159014.9738774481,1933083.5006234203],[1159015.062131868,1933078.6932183462],[1159017.1831906149,1933078.7322602542],[1159017.263899117,1933074.3490669185],[1159019.5263617819,1933074.3904054265],[1159019.5965716159,1933070.5728277599],[1159021.859034284,1933070.6144943477],[1159021.9318687809,1933066.6555127623],[1159023.9115236148,1933066.6919300111],[1159024.0286493676,1933060.3287537633],[1159026.0079761141,1933060.3654990939],[1159026.0808106151,1933056.4061894366],[1159028.484677199,1933056.450480673],[1159028.5939289485,1933050.5118442676],[1159031.2806033609,1933050.5613848639],[1159031.3429391964,1933047.1676908531],[1159033.4639979478,1933047.2067327616],[1159033.5473311134,1933042.6821355196],[1159035.6683898591,1933042.7211774366],[1159035.7618936102,1933037.6306364352],[1159037.8829523572,1933037.6696783539],[1159037.9689101863,1933033.003677184],[1159040.0899689444,1933033.0427190997],[1159040.1601787771,1933029.2251414352],[1159042.281237534,1933029.2641833676],[1159042.3642426089,1933024.7392580314],[1159044.4853013607,1933024.7782999373],[1159044.5686345238,1933020.2537026934],[1159046.6896932735,1933020.2927446174],[1159046.7779476924,1933015.4853395279],[1159048.8990064377,1933015.5243814553],[1159048.9928382733,1933010.4338404508],[1159051.11389702,1933010.472882366],[1159051.1841068559,1933006.6553046964],[1159219.4468936399,1933009.7530675321],[1159219.2723533046,1933019.2264737783],[1159221.110604217,1933019.2605944448],[1159221.0768116419,1933021.0985172766],[1159240.7309717906,1933021.4603931983],[1159238.9114216329,1933120.2971377533],[1159237.6387863837,1933120.273843833],[1159235.8271102179,1933218.6863766436],[1159212.4964482239,1933218.2569155623],[1159212.3274853053,1933227.4478420545]]]},"properties":{"OBJECTID":512662,"Area_SQFT":35687.615370378451,"Year":"2022","Height":45.783000000000001,"GlobalID":"{87624146-B860-4AE0-B013-97BFEB45D11D}"}},{"type":"Feature","id":512846,"geometry":{"type":"Polygon","coordinates":[[[1159398.197848412,1933216.5315252962],[1159396.430135414,1933216.450816798],[1159393.2815196675,1933216.306788225],[1159381.9016211713,1933215.7857918947],[1159362.0899810123,1933214.8789695466],[1159358.236314178,1933216.0853319692],[1159347.2609424344,1933215.583036385],[1159342.8482216005,1933215.3809370564],[1159340.8715195202,1933215.2903860505],[1159337.6136520205,1933215.1414362239],[1159330.0332866053,1933214.7943240548],[1159323.7239160219,1933214.5056107196],[1159321.7685393558,1933214.416043967],[1159311.6780083568,1933213.954102634],[1159307.920469943,1933213.782186961],[1159308.3482906115,1933204.4387017258],[1159304.3286136088,1933204.2546469748],[1159304.8276283655,1933193.3570309759],[1159307.6169928613,1933193.4849834752],[1159309.6255190244,1933188.3521197275],[1159309.7961223617,1933184.625093058],[1159309.0008483594,1933170.3331269033],[1159311.9270236115,1933170.1651482421],[1159314.6022151106,1933170.2875233123],[1159326.9414292688,1933170.8524828127],[1159337.7399641031,1933171.3465763195],[1159356.0972108433,1933172.1871258139],[1159358.0571806799,1933172.2766925753],[1159358.9154466838,1933172.3160625775],[1159359.3836215935,1933172.3373879888],[1159364.6185192612,1933172.5768888141],[1159394.2204941688,1933172.7996574037],[1159400.1870176657,1933173.072622725],[1159400.0836714143,1933175.3291798916],[1159399.1299331672,1933196.1693613045],[1159406.637464077,1933196.513192642],[1159406.3074122502,1933203.7211834705],[1159398.7998813349,1933203.3776802295],[1159398.5623490019,1933208.5679585584],[1159398.5019816675,1933209.8878378123],[1159398.3110371684,1933214.0594173896],[1159398.197848412,1933216.5315252962]]]},"properties":{"OBJECTID":512846,"Area_SQFT":4022.7163546348652,"Year":"2022","Height":48.728999999999999,"GlobalID":"{E663FF38-D61E-405A-AD79-2AF42CFCE6DB}"}},{"type":"Feature","id":513282,"geometry":{"type":"Polygon","coordinates":[[[1159063.2834921058,1933186.0411007274],[1159059.7684072722,1933184.2172854764],[1159059.6220821061,1933184.499437145],[1158993.8571217973,1933151.2672201577],[1158998.6651830391,1933141.9995221596],[1158996.9079687011,1933141.0877785762],[1159000.0992352918,1933134.9365441555],[1158997.5887416215,1933133.6340533283],[1158999.2170192068,1933130.4959362526],[1159001.978496626,1933131.9286761596],[1159002.7599911208,1933130.4224455818],[1159005.6474525367,1933131.9201459973],[1159006.2334093689,1933130.7905550729],[1159009.2461986162,1933132.3535440769],[1159013.6100350318,1933123.9431278312],[1159016.4971683649,1933125.4411563328],[1159017.2786628669,1933123.934597665],[1159019.914812447,1933125.3023770861],[1159020.6963069506,1933123.7961464997],[1159023.4581124457,1933125.2288864194],[1159024.2396069532,1933123.7223277502],[1159030.2651854486,1933126.8486338276],[1159028.9626946147,1933129.3594555799],[1159035.4902406065,1933132.7462598262],[1159036.4672727762,1933130.8630615023],[1159039.9820295295,1933132.6868767517],[1159040.9590616922,1933130.8036784106],[1159044.3484906128,1933132.5622050802],[1159045.3251946955,1933130.6793348254],[1159048.714623604,1933132.4378615024],[1159049.6916557732,1933130.5549912401],[1159053.4573962723,1933132.5087274935],[1159054.434428436,1933130.6258572524],[1159058.5771366903,1933132.7751311602],[1159059.5538407732,1933130.8922609196],[1159064.7008121023,1933133.5625311562],[1159062.5515381831,1933137.7049113212],[1159064.4344084307,1933138.6819434827],[1159062.6758817665,1933142.0713724047],[1159064.558752019,1933143.0484045753],[1159062.9304744306,1933146.1865216598],[1159064.8136727728,1933147.1635538319],[1159063.1201066014,1933150.4273268334],[1159065.0033049386,1933151.4043589924],[1159063.3097387676,1933154.6681319894],[1159065.1926090156,1933155.6451641473],[1159063.5646595163,1933158.7832812355],[1159065.4475297634,1933159.7603133947],[1159063.4934654396,1933163.5260539048],[1159065.1253519373,1933164.3728369921],[1159063.1716156874,1933168.1389055704],[1159064.9291581013,1933169.0506491507],[1159062.9101332701,1933172.942045569],[1159066.9268575197,1933175.0263589821],[1159065.950153434,1933176.9092292294],[1159072.3520435137,1933180.230744896],[1159070.5285563485,1933183.7458297305],[1159067.1391274258,1933181.9873030649],[1159066.0318461854,1933184.1211570592],[1159064.650943432,1933183.4049511435],[1159063.2834921058,1933186.0411007274]]]},"properties":{"OBJECTID":513282,"Area_SQFT":2723.5475431809596,"Year":"2022","Height":26.393999999999998,"GlobalID":"{39B843C6-2A31-46AB-80E8-5BC10C8B33BE}"}},{"type":"Feature","id":513526,"geometry":{"type":"Polygon","coordinates":[[[1159400.888787919,1933168.3400206487],[1159399.1079515866,1933168.2822779887],[1159399.1673346651,1933166.4423866482],[1159390.1991767555,1933166.1526890709],[1159387.2864529237,1933166.0588572419],[1159374.953800421,1933165.6605640582],[1159370.9918661001,1933165.5329396529],[1159367.6654291754,1933165.4253283197],[1159365.9049340123,1933165.3685699052],[1159362.186765593,1933165.2484914002],[1159361.0322403414,1933165.2114179819],[1159361.0627520932,1933164.2740838982],[1159358.5112480083,1933164.1917349854],[1159358.4810643431,1933165.1290690596],[1159355.9036416779,1933165.0457359029],[1159353.73960401,1933164.9758541542],[1159346.0716403483,1933164.7284793202],[1159343.5506480143,1933164.6467865792],[1159333.2360361025,1933164.3141100649],[1159333.2678601863,1933163.3298600693],[1159331.5122862714,1933163.2731016537],[1159331.4804621856,1933164.2573516546],[1159329.6415551035,1933164.1979685659],[1159328.3712164387,1933164.1569581535],[1159325.8013396859,1933164.0739530725],[1159321.4621095257,1933163.9338614836],[1159321.6756917795,1933157.3157644873],[1159323.0034450174,1933157.3587433994],[1159323.0493766891,1933155.9342055691],[1159323.3515414388,1933146.574316158],[1159319.3446596928,1933146.4450513306],[1159319.6494491068,1933137.00510958],[1159321.3466241916,1933137.059899505],[1159322.6077765252,1933121.0743671686],[1159324.0011464378,1933118.322076085],[1159328.6451660257,1933119.3069822411],[1159329.9955570202,1933118.5156452481],[1159334.0598533561,1933118.6468785885],[1159335.1031583503,1933118.6806711634],[1159346.6054319267,1933119.0517334228],[1159349.5660559293,1933119.1475337548],[1159350.8682186857,1933119.1895284122],[1159354.2815976755,1933119.2997644155],[1159357.0391380982,1933119.3886750028],[1159358.8403155964,1933119.4467457493],[1159367.0279632586,1933119.7111809182],[1159374.8445486722,1933119.9634769952],[1159376.9741375907,1933120.0323745052],[1159378.2474290044,1933120.0733849162],[1159389.1345463381,1933120.4247621675],[1159394.4721340833,1933120.5970059263],[1159400.6410850023,1933120.7961524972],[1159400.4783556666,1933125.8312474205],[1159400.1607709972,1933135.6773563211],[1159399.9957450819,1933140.7813487391],[1159397.4934534982,1933140.7006402416],[1159397.4094641672,1933143.3039814949],[1159397.3523776685,1933145.0749753295],[1159396.4704896642,1933146.1563379923],[1159397.2736376657,1933147.5165714971],[1159397.2483752538,1933148.2974098236],[1159398.5121522476,1933149.9834300666],[1159399.6663494187,1933150.9929424787],[1159399.3812450038,1933159.8242896509],[1159401.1620813359,1933159.8817042457],[1159400.888787919,1933168.3400206487]]]},"properties":{"OBJECTID":513526,"Area_SQFT":3555.0269503613449,"Year":"2022","Height":46.220999999999997,"GlobalID":"{0A657D81-0815-44BC-8C67-1158A143DF08}"}},{"type":"Feature","id":513749,"geometry":{"type":"Polygon","coordinates":[[[1159283.4887602837,1933150.227524074],[1159261.289329625,1933149.8187322346],[1159261.9349976291,1933114.7522013336],[1159264.4802681222,1933114.7991172564],[1159264.5166853697,1933112.8194624144],[1159276.2525542879,1933113.0356693408],[1159276.6639707827,1933090.7036930064],[1159300.5654977751,1933090.8401756717],[1159300.5340017839,1933092.5488336761],[1159410.2585198299,1933094.5688427603],[1159410.2168532463,1933096.8309773437],[1159404.5610246698,1933096.7269749173],[1159404.222442667,1933115.1084998327],[1159308.7793921102,1933113.3516135821],[1159308.7377255247,1933115.6137481669],[1159303.7885884463,1933115.5228690833],[1159303.8771709439,1933110.7151359224],[1159308.543172112,1933110.801093753],[1159308.7360851096,1933100.3378600916],[1159306.1908146129,1933100.2909441809],[1159306.2351058584,1933097.8870775925],[1159299.0238341999,1933097.7545319137],[1159298.6852521983,1933116.1360568348],[1159284.1213049521,1933115.8680127554],[1159283.4887602837,1933150.227524074]]]},"properties":{"OBJECTID":513749,"Area_SQFT":3434.520039894147,"Year":"2022","Height":49.476999999999997,"GlobalID":"{6E6B8AD3-518D-4CA7-8C07-62E35B25C12A}"}},{"type":"Feature","id":514577,"geometry":{"type":"Polygon","coordinates":[[[1159285.4782576254,1933088.470101668],[1159263.7109127075,1933087.6508775849],[1159264.5744280359,1933040.7372575207],[1159303.7587328593,1933040.5233471983],[1159303.0021726948,1933081.6226744244],[1159285.610147116,1933081.3024650908],[1159285.4782576254,1933088.470101668]]]},"properties":{"OBJECTID":514577,"Area_SQFT":1743.5404512616565,"Year":"2022","Height":18.355,"GlobalID":"{D38E50BC-8445-4B55-A3B2-2113527E0AF5}"}},{"type":"Feature","id":514581,"geometry":{"type":"Polygon","coordinates":[[[1159405.9691583298,1933071.5816840138],[1159404.02067141,1933086.2434000962],[1159403.9921281687,1933088.1725300951],[1159397.6345293324,1933088.0783701905],[1159359.8248936778,1933087.5199723432],[1159359.7084240944,1933087.0540940154],[1159356.9095451811,1933087.0127555137],[1159332.4663526046,1933086.6518638548],[1159328.5854548526,1933085.1292290937],[1159325.1930731952,1933085.0790323329],[1159319.3249746913,1933084.992418349],[1159309.2862808581,1933084.8441246767],[1159309.5228289475,1933068.8280805969],[1159306.6012468573,1933068.7851016843],[1159306.7239500259,1933060.4826248516],[1159309.9939566127,1933060.5308531018],[1159310.2275519448,1933044.7159241049],[1159320.258043695,1933044.8642177738],[1159337.3803847702,1933045.1171700186],[1159382.8300970038,1933045.7884285212],[1159390.376341756,1933045.8999768652],[1159398.2555910777,1933046.0161183542],[1159405.2352359125,1933046.1194645979],[1159405.1738843347,1933050.2674221855],[1159406.5337897446,1933063.9534184311],[1159406.5301808279,1933064.2021055967],[1159406.0784100792,1933064.1952158439],[1159405.9691583298,1933071.5816840138]]]},"properties":{"OBJECTID":514581,"Area_SQFT":3997.5747330345857,"Year":"2022","Height":50.786999999999999,"GlobalID":"{BFD5927A-C0CA-483C-93CB-6644D7BFB299}"}},{"type":"Feature","id":515270,"geometry":{"type":"Polygon","coordinates":[[[1159402.7024325833,1933028.861297017],[1159394.644705914,1933028.58800361],[1159394.650283332,1933028.2878073559],[1159375.248419259,1933027.9305246086],[1159345.7353549358,1933026.9301985241],[1159345.742572767,1933026.5387951143],[1159327.3607197786,1933026.2002131117],[1159327.3587512684,1933026.3071682784],[1159303.3279594481,1933025.4925373595],[1159303.3387861922,1933024.9092051976],[1159286.5127043717,1933024.5994945352],[1159286.5067988678,1933024.9223285273],[1159278.5908042043,1933024.6539563616],[1159278.6022871218,1933024.0296137775],[1159265.5937829611,1933023.790112942],[1159266.0803305467,1932997.3488928629],[1159234.5488975516,1932996.768185372],[1159234.6502753014,1932991.2537607036],[1159236.6299301402,1932991.2901779569],[1159236.7080139681,1932987.0483885338],[1159238.6876688018,1932987.0848057892],[1159238.763127967,1932982.9840922088],[1159240.8838586314,1932983.023134121],[1159240.9619424671,1932978.7813447127],[1159242.9415972966,1932978.8177619558],[1159243.0560983811,1932972.5963177078],[1159241.2178474625,1932972.5625251252],[1159241.3195533005,1932967.0481004664],[1159243.1578042184,1932967.0818930403],[1159243.2411373716,1932962.5569677155],[1159249.8867933811,1932962.6793427907],[1159249.9438798833,1932959.5687847172],[1159252.0649386304,1932959.6078266408],[1159252.1377731266,1932955.6485169709],[1159254.1174279624,1932955.6849342172],[1159254.1928871325,1932951.5845487199],[1159256.1725419553,1932951.6209659702],[1159256.2506257945,1932947.3791765512],[1159258.2299525463,1932947.4155938043],[1159258.3054117099,1932943.3148802121],[1159260.285066542,1932943.3512974705],[1159260.3969429533,1932937.2712571379],[1159259.1243077093,1932937.2479632234],[1159259.2545567942,1932930.1780954751],[1159261.3756155416,1932930.2171373803],[1159261.4484500473,1932926.2578277192],[1159267.8112982062,1932926.3752815558],[1159267.8660881233,1932923.4057993034],[1159269.9868187888,1932923.4448412242],[1159270.0727766294,1932918.778840058],[1159272.1938353723,1932918.8178819749],[1159272.277168541,1932914.2929566484],[1159274.3982272854,1932914.3319985599],[1159274.4838570463,1932909.6659973974],[1159276.6049157912,1932909.7050393126],[1159276.6908736264,1932905.0390381545],[1159278.8119323684,1932905.0780800665],[1159278.8952655403,1932900.5531547251],[1159280.8745922868,1932900.589571987],[1159280.9425055415,1932896.9133982451],[1159290.4159117867,1932897.0876104876],[1159290.5747041204,1932888.462627738],[1159301.8866893637,1932888.6706325682],[1159301.7380676172,1932896.7303277291],[1159307.8184360277,1932896.8422041475],[1159307.9821496122,1932887.9344135772],[1159318.5871152773,1932888.1296231528],[1159318.4568661943,1932895.1994908976],[1159320.1537131912,1932895.2306588141],[1159320.1067972744,1932897.7759293211],[1159350.7901348507,1932898.3405607289],[1159350.9620505124,1932889.008558403],[1159361.7080920131,1932889.2063926505],[1159361.5699689277,1932896.7004721416],[1159363.5496237609,1932896.7368894005],[1159363.4951619268,1932899.7060435638],[1159406.9038677451,1932900.5052545727],[1159406.6541963338,1932914.0793743923],[1159408.7749269966,1932914.1184163103],[1159408.5305049112,1932927.4097283094],[1159406.2680422503,1932927.368061732],[1159406.0154180855,1932941.0835854728],[1159410.9645551643,1932941.1747926392],[1159410.790014829,1932950.6485269673],[1159407.2552449987,1932950.583238381],[1159407.2109537448,1932952.9871049703],[1159405.5141067484,1932952.9559370514],[1159405.1053149151,1932975.1553677113],[1159407.084969745,1932975.1917849621],[1159407.0459278324,1932977.3128437079],[1159409.0255826665,1932977.3492609644],[1159408.8641656665,1932986.1156476224],[1159404.9048560022,1932986.0428131288],[1159404.6161426636,1933001.7379917032],[1159405.8884498302,1933001.7612856138],[1159405.6414030804,1933015.1943296152],[1159402.9547286618,1933015.1447890303],[1159402.7024325833,1933028.861297017]]]},"properties":{"OBJECTID":515270,"Area_SQFT":19261.487497421251,"Year":"2022","Height":71.012,"GlobalID":"{B158D3C0-894E-41B6-B788-CFA4C59F0E14}"}},{"type":"Feature","id":515723,"geometry":{"type":"Polygon","coordinates":[[[1159184.267502072,1932993.5395172848],[1159180.4778114825,1932991.6320407798],[1159179.5240732366,1932993.5267220333],[1159175.7343826524,1932991.6192455413],[1159174.7806444021,1932993.5139267878],[1159170.9909538198,1932991.6064502965],[1159170.0372155721,1932993.5011315318],[1159166.1212129013,1932991.5300068716],[1159165.1674746536,1932993.4250162069],[1159160.9988478259,1932991.3265952026],[1159160.0451095765,1932993.22160453],[1159155.87648274,1932991.1231835289],[1159154.922744496,1932993.0178647868],[1159150.6278055755,1932990.8561237007],[1159149.6740673275,1932992.7508049579],[1159145.5054404929,1932990.652712035],[1159144.5517022435,1932992.5473932885],[1159140.3830754105,1932990.4493003676],[1159139.4293371595,1932992.3439816199],[1159135.2607103349,1932990.2455606207],[1159134.3069720829,1932992.1405699535],[1159130.0120331673,1932989.9785007797],[1159129.0582949184,1932991.8735101232],[1159125.1422922562,1932989.9023854502],[1159124.1885540034,1932991.79706671],[1159120.3988634218,1932989.8895902063],[1159119.445125171,1932991.784271461],[1159115.6554345882,1932989.8767949468],[1159114.7016963372,1932991.7718042922],[1159110.9120057556,1932989.8639996976],[1159109.9582675037,1932991.7590090316],[1159104.9054560955,1932989.2157070364],[1159104.0153660043,1932990.984076208],[1159100.2256754267,1932989.0765996941],[1159099.1446408434,1932991.2239051224],[1159094.9763420972,1932989.1258122067],[1159094.0226038438,1932991.0204934564],[1159089.9802890937,1932988.9857206177],[1159089.0265508457,1932990.8807299528],[1159084.9842360949,1932988.8459571211],[1159084.0304978471,1932990.7406383671],[1159079.8618710157,1932988.6425454507],[1159078.9081327629,1932990.5372267051],[1159074.8658180176,1932988.5024538708],[1159073.9120797704,1932990.3974632053],[1159070.2487012648,1932988.5533067915],[1159069.2949630157,1932990.4483161203],[1159062.7260785198,1932987.1418922886],[1159063.743464937,1932985.1205708752],[1159062.2277199384,1932984.3577771203],[1159081.9389665998,1932945.1980785483],[1159085.223408842,1932946.8512904642],[1159086.2404671798,1932944.8302971357],[1159089.6512215098,1932946.5471572189],[1159090.5416396796,1932944.7784599722],[1159094.5836263439,1932946.8132328037],[1159095.5373645939,1932944.9185515484],[1159099.8323035112,1932947.0802926344],[1159100.7860417608,1932945.1856113877],[1159104.9546685931,1932947.2837043044],[1159105.9084068411,1932945.389023056],[1159110.077033675,1932947.4871159599],[1159111.0307719214,1932945.5924347176],[1159115.1993987474,1932947.6908557212],[1159116.1531370091,1932945.7958463908],[1159120.3217638331,1932947.8942673919],[1159121.2755020829,1932945.9992580512],[1159125.4441289157,1932948.0976790511],[1159126.3978671646,1932946.2029978049],[1159130.4401819133,1932948.2374425477],[1159131.3306000805,1932946.4690733873],[1159134.7410263342,1932948.1859334698],[1159135.9493572456,1932945.7856758025],[1159138.3492868294,1932946.994006712],[1159142.6730970701,1932938.4041288972],[1159096.5659058453,1932915.1955138904],[1159112.398551337,1932883.7418366524],[1159110.5035420058,1932882.7880984046],[1159116.8621250859,1932870.1559058202],[1159118.6308223379,1932871.0459959027],[1159120.4110025009,1932867.5089294973],[1159168.7918112352,1932891.8618991552],[1159170.2544067316,1932888.9567212339],[1159182.0024147343,1932894.8700952306],[1159180.7304356489,1932897.3963369001],[1159230.1220691344,1932922.2578357211],[1159208.8849068899,1932964.4490243029],[1159209.7690914772,1932964.8942333739],[1159202.8383310619,1932978.6632347067],[1159205.1119485584,1932979.8079174547],[1159201.9328210584,1932986.1238497132],[1159194.4800800635,1932982.3722167835],[1159188.8846188153,1932993.4886643649],[1159185.2212403168,1932991.6445079579],[1159184.267502072,1932993.5395172848]]]},"properties":{"OBJECTID":515723,"Area_SQFT":12072.479187861101,"Year":"2022","Height":38.683999999999997,"GlobalID":"{31D4D09E-CCC0-46F3-8297-B0C09D4C0067}"}},{"type":"Feature","id":516000,"geometry":{"type":"Polygon","coordinates":[[[1158995.9404509608,1932949.194133542],[1159003.0470640364,1932952.6895333757],[1158994.1835647107,1932970.7095104614],[1158983.1294529599,1932965.2721853754],[1158976.747904045,1932962.2600522961],[1158926.608896726,1932938.5921206349],[1158927.2401290615,1932937.3089867202],[1158915.5652836498,1932931.5665441409],[1158917.5003191435,1932927.6324968901],[1158915.0892347305,1932926.4464756374],[1158919.4586485643,1932917.5636193894],[1158922.6312143959,1932919.1239837315],[1158930.059021062,1932904.0229640603],[1158926.7594869793,1932902.399935819],[1158931.06656498,1932893.6437197377],[1158933.731257811,1932894.9544126457],[1158936.7463436334,1932888.8251598154],[1159014.5916603648,1932929.85985463],[1159005.8600505386,1932947.6114595574],[1158998.4998290357,1932943.9913880557],[1158995.9404509608,1932949.194133542]]]},"properties":{"OBJECTID":516000,"Area_SQFT":4143.4474414044171,"Year":"2022","Height":61.576999999999998,"GlobalID":"{9CCD29F5-6663-48FC-860A-E25F4FB5953A}"}}]}