{"type":"FeatureCollection","crs":{"type":"name","properties":{"name":"EPSG:3435"}},"features":[{"type":"Feature","id":1254704,"geometry":{"type":"Polygon","coordinates":[[[1174718.6471901422,1860725.7395212452],[1174720.3440371407,1860725.7706891471],[1174720.3207432181,1860727.0433244016],[1174725.269552222,1860727.1345315676],[1174724.9857601398,1860742.5465742373],[1174681.8595340659,1860741.7526125675],[1174681.9297438958,1860737.9350348983],[1174647.5702325769,1860737.3024902372],[1174647.6276471606,1860734.191604072],[1174640.9819911628,1860734.0695570719],[1174641.1772007425,1860723.4645914095],[1174639.338949834,1860723.4307988239],[1174639.3806164144,1860721.168336153],[1174633.4419799997,1860721.0590843954],[1174633.6293155826,1860710.8783304845],[1174640.6991833283,1860711.0085795682],[1174640.8970175793,1860700.2625380768],[1174648.8153088242,1860700.4082070845],[1174648.854350745,1860698.2871483217],[1174664.8323371564,1860698.5814390674],[1174665.0403419908,1860687.2694538329],[1174672.393017571,1860687.4049522576],[1174672.4530568195,1860684.1526621606],[1174679.3815206527,1860684.2802865945],[1174679.4153132325,1860682.4420356669],[1174681.8191798169,1860682.4863269168],[1174682.1548090701,1860664.2462059224],[1174675.2263452362,1860664.1185815083],[1174675.2522638242,1860662.7045423423],[1174680.201400904,1860662.7957495025],[1174680.2949046516,1860657.7055365869],[1174676.0531152352,1860657.6274527654],[1174676.1105298195,1860654.516566589],[1174669.4648738208,1860654.3941915105],[1174669.6495847385,1860644.3551696015],[1174677.4264720697,1860644.4982139352],[1174677.7388074072,1860627.5304000929],[1174682.4048085618,1860627.6163579253],[1174682.8657656538,1860602.5891770301],[1174680.3204951433,1860602.5422611129],[1174680.4924108183,1860593.2099306898],[1174678.6541599,1860593.1761381212],[1174678.7476636516,1860588.0859252005],[1174671.6777958998,1860587.9556761084],[1174671.8549609042,1860578.340537874],[1174683.8736376485,1860578.5619941133],[1174684.0639259836,1860568.2398362802],[1174664.8336494858,1860567.885834367],[1174664.7165237407,1860574.248682535],[1174667.1203903237,1860574.2929737803],[1174666.8080549848,1860591.2607876093],[1174659.4553794097,1860591.1252891982],[1174659.3356289899,1860597.6295412851],[1174643.9232582513,1860597.3460772773],[1174643.9829694137,1860594.0937872005],[1174629.8432339188,1860593.8336171079],[1174629.7080635841,1860601.1862926951],[1174620.3757331681,1860601.0143770298],[1174620.4902342511,1860594.792932776],[1174618.652311417,1860594.7591402004],[1174618.6988992535,1860592.2138696986],[1174613.0430706702,1860592.1098672803],[1174613.1395271751,1860586.8779223578],[1174608.6146018417,1860586.7945892022],[1174608.6562684206,1860584.5324546166],[1174606.676941674,1860584.4960373605],[1174606.8042380079,1860577.5675735322],[1174608.925296756,1860577.6066154491],[1174609.5007549254,1860546.357662214],[1174612.8941208418,1860546.4199980476],[1174612.9305380885,1860544.4406712903],[1174614.9101929185,1860544.4770885478],[1174615.019444678,1860538.538452138],[1174630.5732193282,1860538.8245407974],[1174630.456093583,1860545.1877170461],[1174632.7185562474,1860545.2290555381],[1174632.6896849182,1860546.7844986257],[1174645.4153812488,1860547.0187501307],[1174645.5430056637,1860540.0902863012],[1174722.4631273926,1860541.5066220469],[1174722.3748729737,1860546.3140271334],[1174724.2127958033,1860546.3478197106],[1174724.1583339709,1860549.3173019651],[1174730.5211821315,1860549.4344277154],[1174730.2426393838,1860564.5639906202],[1174722.7485598912,1860564.4258675382],[1174722.5274317255,1860576.4445442806],[1174729.0316838038,1860576.5642946956],[1174728.3938898051,1860611.2066138566],[1174721.7482338038,1860611.0845668621],[1174721.4749403892,1860625.9309938482],[1174722.8886514718,1860625.9572405203],[1174722.8627328896,1860627.3712796865],[1174728.3771575564,1860627.4726574402],[1174728.1117381414,1860641.8952007587],[1174722.5973134716,1860641.7938230215],[1174722.5635208916,1860643.6317458474],[1174720.8666738907,1860643.6005779265],[1174720.733800143,1860650.8118495904],[1174727.5208600538,1860650.9368493422],[1174727.2163987223,1860667.4804514255],[1174719.7223192237,1860667.3423283438],[1174719.443776472,1860682.4718912574],[1174726.7964520585,1860682.6073896678],[1174726.5100353009,1860698.1608362419],[1174720.7128028057,1860698.0542091648],[1174720.6294696387,1860702.5788064091],[1174726.4267021343,1860702.6857615744],[1174726.1353641376,1860718.5220159891],[1174718.7826885583,1860718.3868456606],[1174718.6471901422,1860725.7395212452]]]},"properties":{"OBJECTID":1254704,"Area_SQFT":14386.094648800001,"Year":"2022","Height":59.363999999999997,"GlobalID":"{F3B5A1DA-6883-43BF-94BD-B5B4B0EDB2FE}"}},{"type":"Feature","id":1255679,"geometry":{"type":"Polygon","coordinates":[[[1174435.5037276372,1860626.2567806023],[1174424.3866239008,1860625.8781724342],[1174413.7521307338,1860625.5159684296],[1174413.9027209813,1860621.0904523523],[1174409.4814699825,1860617.2354731925],[1174406.5684180728,1860614.398536603],[1174407.9253707328,1860614.4447963473],[1174408.0644780674,1860610.3509725241],[1174408.7370489009,1860590.6056051925],[1174407.4276683216,1860589.1636789439],[1174407.7695311469,1860579.124000859],[1174408.0779294819,1860570.0689008711],[1174410.6205753181,1860569.0397034532],[1174412.5313326519,1860544.0492678792],[1174412.5772643106,1860542.7015015411],[1174439.7779973042,1860542.6952679588],[1174438.8104795574,1860571.1154866975],[1174440.1825240548,1860573.4199440281],[1174439.9502410658,1860580.2352191126],[1174439.6054254761,1860590.367744775],[1174436.7291188887,1860590.2699759481],[1174435.5037276372,1860626.2567806023]]]},"properties":{"OBJECTID":1255679,"Area_SQFT":2358.6318965099999,"Year":"2022","Height":37.094000000000001,"GlobalID":"{C9EC908D-397B-4628-81EE-D61EE334EC9C}"}},{"type":"Feature","id":1255709,"geometry":{"type":"Polygon","coordinates":[[[1174510.2890111199,1860615.6213031907],[1174510.0577123677,1860621.9677471754],[1174506.2601477916,1860621.8292960194],[1174504.1285903763,1860621.7515402627],[1174502.0265604616,1860621.6750968439],[1174495.57939488,1860621.4398611016],[1174495.7726359554,1860616.1439399424],[1174485.3746908805,1860615.7646756063],[1174485.4580240396,1860613.4782628529],[1174484.6542198779,1860607.2978290261],[1174485.3727223764,1860603.6052511088],[1174484.789718288,1860603.5839256968],[1174486.8261315424,1860547.7336437008],[1174500.3818787083,1860548.2280652886],[1174513.7296210362,1860548.7149409612],[1174512.9802787011,1860569.2696898605],[1174515.2614421155,1860569.3530230343],[1174518.456973789,1860569.4694926185],[1174517.907762283,1860584.5242525293],[1174515.7680027843,1860584.4461687033],[1174515.4933970349,1860591.9832271067],[1174512.6315261184,1860591.8788966096],[1174512.1085612806,1860606.22565268],[1174511.1384188684,1860606.1902196915],[1174510.2890111199,1860615.6213031907]]]},"properties":{"OBJECTID":1255709,"Area_SQFT":2008.3241647499999,"Year":"2022","Height":37.576999999999998,"GlobalID":"{8DE07DC6-5A86-4658-9479-E1A5ED65B0EC}"}},{"type":"Feature","id":1255839,"geometry":{"type":"Polygon","coordinates":[[[1174395.5435057366,1860601.1518439404],[1174395.3036768236,1860608.2814228581],[1174389.4867593229,1860608.085557112],[1174389.6655647419,1860602.7696228519],[1174386.4237733195,1860600.3004676946],[1174370.2030052436,1860600.298827271],[1174369.7312214067,1860599.7318992761],[1174369.9054336655,1860587.4287742726],[1174367.4372627484,1860587.3457691909],[1174367.7679707475,1860577.5206576104],[1174368.0993349119,1860567.6797980312],[1174370.3555639966,1860567.7559133659],[1174372.0671747429,1860552.8346833733],[1174372.0927652484,1860552.0754985374],[1174372.3552319149,1860544.2769577124],[1174396.1698168197,1860545.0787933632],[1174395.9070220743,1860552.8773342075],[1174397.0005238221,1860552.9140795399],[1174397.6783439855,1860567.602042285],[1174399.5274216554,1860569.8156205388],[1174399.2275534822,1860578.7224268566],[1174398.9230921534,1860587.767356276],[1174398.5986177363,1860597.4100535233],[1174395.672770577,1860597.3113004435],[1174395.5435057366,1860601.1518439404]]]},"properties":{"OBJECTID":1255839,"Area_SQFT":1615.42576237,"Year":"2022","Height":39.081000000000003,"GlobalID":"{E1A8101E-C05A-461D-B69D-FDEA091BBAE7}"}},{"type":"Feature","id":1255857,"geometry":{"type":"Polygon","coordinates":[[[1174354.7597946662,1860599.1475828604],[1174354.501593082,1860605.7889737673],[1174328.2749395063,1860604.7699469379],[1174328.5331410873,1860598.1285560196],[1174328.9471822612,1860587.4684723569],[1174329.1699508436,1860586.0324516126],[1174327.7444287569,1860585.9770055283],[1174328.0715278455,1860577.5593714465],[1174329.1309089228,1860568.6102423721],[1174330.3851715086,1860550.4714991213],[1174328.743770591,1860550.4075228733],[1174328.7103060964,1860544.8268253698],[1174328.8336654243,1860541.6562280331],[1174331.9094466721,1860541.7756503769],[1174333.6696137567,1860541.8442197815],[1174337.3920472579,1860542.6978926237],[1174339.0360728358,1860542.7615407975],[1174339.1525424274,1860539.7648276254],[1174344.0012860014,1860539.9531474619],[1174348.01472942,1860541.1772263749],[1174348.6649905825,1860541.2024887884],[1174357.3352488342,1860541.5394303806],[1174357.2876767507,1860542.7618688657],[1174362.7610909967,1860542.9747949578],[1174362.6951462475,1860544.666392637],[1174359.8769104145,1860572.8120056179],[1174359.7489579178,1860576.1036657062],[1174359.3467277503,1860586.4523982813],[1174355.2916177507,1860585.4596181074],[1174354.7597946662,1860599.1475828604]]]},"properties":{"OBJECTID":1255857,"Area_SQFT":1926.2537798400001,"Year":"2022","Height":35.567,"GlobalID":"{E8E7DDB5-26B1-43B8-A445-01CA054D1A28}"}},{"type":"Feature","id":1257003,"geometry":{"type":"Polygon","coordinates":[[[1174705.2630305584,1860468.9326202318],[1174705.22037973,1860470.2856358979],[1174678.7263382354,1860469.4493514779],[1174678.7968761516,1860467.2124793115],[1174673.8841563128,1860467.0576239724],[1174664.6974949101,1860466.7675983175],[1174664.8057624064,1860463.3420802269],[1174651.0872859154,1860462.9090102357],[1174650.9793464935,1860466.3345283226],[1174647.7185262444,1860466.2315101507],[1174646.071875995,1860464.8752136489],[1174640.8133563309,1860466.0136628204],[1174640.9216238295,1860462.5881447273],[1174642.4022639198,1860435.0714674955],[1174642.4934710814,1860432.1787567416],[1174652.1263258248,1860432.4828899931],[1174666.7430944943,1860432.9441751684],[1174674.8615165679,1860433.2004082419],[1174684.1941750646,1860433.495027069],[1174684.0773774018,1860437.1918700812],[1174699.6724905632,1860437.6843231658],[1174699.2561528126,1860450.8775382356],[1174699.1934888912,1860452.8611300711],[1174704.9569288141,1860453.0432163111],[1174705.7292369776,1860454.1685421495],[1174705.2630305584,1860468.9326202318]]]},"properties":{"OBJECTID":1257003,"Area_SQFT":2000.30132594,"Year":"2022","Height":36.658999999999999,"GlobalID":"{A0AC530E-6D66-4D46-906D-3DDC4007C5AC}"}},{"type":"Feature","id":1257056,"geometry":{"type":"Polygon","coordinates":[[[1174357.6672691619,1860461.4834881467],[1174356.2853821665,1860461.6435928205],[1174356.4641875797,1860463.1882091467],[1174343.6981370004,1860464.6668807275],[1174343.269988256,1860460.9710219831],[1174341.2611340045,1860461.2036330667],[1174340.6246523384,1860455.7062687268],[1174341.7401356732,1860447.7600904054],[1174341.3575905026,1860444.4576035601],[1174342.3096883395,1860436.8693641592],[1174341.6705820039,1860431.351986743],[1174340.0672387534,1860431.5376819018],[1174339.2670435014,1860424.6308715825],[1174341.8881012537,1860420.6213651584],[1174341.4648737584,1860416.9688134145],[1174341.5114615923,1860405.0055827473],[1174337.2887010092,1860402.0715335023],[1174333.3303755911,1860399.5705542504],[1174332.0803780875,1860399.7155670866],[1174331.8533444272,1860397.7565814941],[1174332.9442215129,1860396.2372275789],[1174332.9045234211,1860395.8930681583],[1174333.4688267601,1860376.347831666],[1174332.3576085092,1860366.7536907569],[1174343.2880328356,1860365.4876171772],[1174347.1695867537,1860365.7267899269],[1174347.6361212544,1860369.7530285905],[1174360.6452815824,1860368.2464699191],[1174361.2115534169,1860373.1345835121],[1174369.0310915818,1860372.2290735142],[1174368.538966578,1860404.5183790044],[1174367.7578001663,1860408.3310354105],[1174368.8201339953,1860417.5019488281],[1174363.5776904153,1860418.1092310769],[1174364.0117446685,1860421.8575831593],[1174364.2246707529,1860423.6935375023],[1174366.579652912,1860423.4209002422],[1174367.5143623317,1860431.4910940682],[1174368.291591747,1860438.2043352409],[1174367.1560953287,1860449.0058228241],[1174367.3975646605,1860451.0894800648],[1174367.5586535833,1860452.481209567],[1174367.5491391709,1860456.3630915685],[1174367.4015016637,1860461.1701685681],[1174360.4379329181,1860461.1626226455],[1174357.6672691619,1860461.4834881467]]]},"properties":{"OBJECTID":1257056,"Area_SQFT":2781.3327059799999,"Year":"2022","Height":42.399000000000001,"GlobalID":"{77856DA2-1CE4-4CBD-8E9B-1149BD4BCD61}"}},{"type":"Feature","id":1257109,"geometry":{"type":"Polygon","coordinates":[[[1174629.5289300864,1860432.9589389125],[1174628.870794917,1860457.8581673196],[1174628.8356900031,1860459.1895294865],[1174585.3764593492,1860456.8470144887],[1174585.8019834312,1860430.8857803266],[1174629.5289300864,1860432.9589389125]]]},"properties":{"OBJECTID":1257109,"Area_SQFT":1138.83538088,"Year":"2022","Height":11.183999999999999,"GlobalID":"{DF4F0210-2037-4C88-9550-6E2830FD6C2C}"}},{"type":"Feature","id":1257148,"geometry":{"type":"Polygon","coordinates":[[[1174564.7213169374,1860382.4724913386],[1174563.5664636102,1860454.6839610732],[1174534.9336468687,1860453.8877028264],[1174535.9349572002,1860417.8858063326],[1174534.3444091973,1860417.27130625],[1174532.9959867024,1860416.3792476603],[1174533.9628482761,1860381.6112725937],[1174546.0553437793,1860381.9475580007],[1174546.1603304448,1860378.1726311736],[1174555.2301941896,1860378.4249272607],[1174556.8397710202,1860378.4695465893],[1174556.900466443,1860376.2795903359],[1174562.2866105216,1860376.4291963445],[1174562.1931067694,1860379.7854888446],[1174564.7938233539,1860379.8576671823],[1174564.7213169374,1860382.4724913386]]]},"properties":{"OBJECTID":1257148,"Area_SQFT":2223.23746063,"Year":"2022","Height":34.183,"GlobalID":"{50D68173-9D02-4CE4-9C51-C9320EB2D5FE}"}},{"type":"Feature","id":1257159,"geometry":{"type":"Polygon","coordinates":[[[1174523.1472531115,1860452.3329159014],[1174522.9956786172,1860453.8316005773],[1174494.5938325443,1860452.1957770635],[1174494.9461940473,1860446.5028750689],[1174496.4721096293,1860379.7346359261],[1174508.9737250344,1860380.5082564324],[1174509.2020710425,1860376.81863126],[1174516.8654415377,1860376.9501926748],[1174518.4231811974,1860380.0748583409],[1174527.5934384482,1860380.4777446811],[1174523.1472531115,1860452.3329159014]]]},"properties":{"OBJECTID":1257159,"Area_SQFT":2194.1395185199999,"Year":"2022","Height":34.106000000000002,"GlobalID":"{5F8EA302-B45C-4D49-B034-A8EE21586949}"}},{"type":"Feature","id":1257160,"geometry":{"type":"Polygon","coordinates":[[[1174397.3587908233,1860453.8270074076],[1174390.8230427394,1860453.6222833986],[1174389.7662863254,1860453.589475059],[1174389.8000789068,1860452.5123774896],[1174387.5159627458,1860452.4408553166],[1174384.8043539929,1860452.6885582372],[1174376.40738916,1860452.425763486],[1174375.1439402448,1860452.3860653995],[1174375.1836383243,1860451.1173671554],[1174373.0189444975,1860447.4156029029],[1174373.0543774953,1860446.2929017313],[1174374.8870509949,1860387.7241212551],[1174378.9424890748,1860387.8510895134],[1174379.2607299122,1860377.6821465902],[1174386.0543514926,1860377.8947445848],[1174396.3850394855,1860377.3314255124],[1174405.892566409,1860378.5158063367],[1174414.0746366505,1860378.7717113409],[1174413.7691910686,1860388.5328466718],[1174418.8574354828,1860388.6922951723],[1174416.9598014834,1860449.3312814804],[1174415.1635452304,1860449.2751792315],[1174411.4184739867,1860453.8086347338],[1174403.317440324,1860453.5550263228],[1174400.5592437366,1860452.8489909819],[1174397.3925834065,1860452.7499098128],[1174397.3587908233,1860453.8270074076]]]},"properties":{"OBJECTID":1257160,"Area_SQFT":3190.7222194699998,"Year":"2022","Height":43.719999999999999,"GlobalID":"{E818BA7A-27D2-492B-A94C-5E597990690D}"}},{"type":"Feature","id":1257177,"geometry":{"type":"Polygon","coordinates":[[[1174491.6624079638,1860451.7991243175],[1174463.7352984697,1860451.8608039855],[1174463.324538135,1860451.1229445718],[1174463.2480947175,1860416.5268851623],[1174461.4314973038,1860378.4590479198],[1174473.9301599623,1860378.4314889258],[1174473.9229421294,1860375.2389099982],[1174483.1889997108,1860375.2182407577],[1174483.1985141234,1860379.384242919],[1174493.95866321,1860379.3606209287],[1174491.6624079638,1860451.7991243175]]]},"properties":{"OBJECTID":1257177,"Area_SQFT":2223.36192949,"Year":"2022","Height":34.121000000000002,"GlobalID":"{28833D0C-4691-4ACE-87F0-51E6FEBF6B32}"}},{"type":"Feature","id":1257181,"geometry":{"type":"Polygon","coordinates":[[[1174445.5624345562,1860378.7408715133],[1174457.4997466397,1860379.4751220057],[1174453.5282978932,1860416.2017545784],[1174450.9354553008,1860451.5740591462],[1174448.3488463084,1860451.4149387458],[1174421.6779678955,1860450.2075920727],[1174424.6143137321,1860388.4019414249],[1174425.2852441422,1860377.493826757],[1174429.3770994795,1860377.745466671],[1174429.5798549817,1860374.4485572621],[1174432.0667266443,1860374.6014440875],[1174435.3905389016,1860374.8058400112],[1174445.8222765576,1860374.518110919],[1174445.5624345562,1860378.7408715133]]]},"properties":{"OBJECTID":1257181,"Area_SQFT":2273.9123816900001,"Year":"2022","Height":34.168999999999997,"GlobalID":"{85F64AA1-5E83-40FF-B84A-16A29DE0E4CB}"}},{"type":"Feature","id":1257241,"geometry":{"type":"Polygon","coordinates":[[[1174318.2634765923,1860442.9195488989],[1174318.2362456787,1860444.363115567],[1174290.7271143491,1860443.8401507321],[1174291.7737001874,1860419.8264192438],[1174291.9324925237,1860411.4734175899],[1174292.1247493564,1860401.369435169],[1174292.639512104,1860374.3028882537],[1174301.3717780982,1860374.4688984209],[1174306.9970949322,1860374.5758535964],[1174307.0400738462,1860372.3019080127],[1174311.9980691755,1860372.3963960179],[1174312.0617173498,1860369.0548672534],[1174318.0725320925,1860369.169040258],[1174318.0088839296,1860372.5105690057],[1174319.6634081809,1860388.5426891665],[1174319.3671489235,1860404.118773493],[1174324.9662190957,1860404.2254005789],[1174324.7063770944,1860417.9008981586],[1174318.7414940114,1860417.7877094026],[1174318.2634765923,1860442.9195488989]]]},"properties":{"OBJECTID":1257241,"Area_SQFT":2006.1001438200001,"Year":"2022","Height":31.629000000000001,"GlobalID":"{BF8C35D4-4A89-4C0A-ADA6-451F7BCACBA3}"}},{"type":"Feature","id":1257394,"geometry":{"type":"Polygon","coordinates":[[[1174613.1703670034,1860402.5990915042],[1174613.1362463399,1860403.885178159],[1174612.4774550016,1860428.8165587457],[1174584.3170782619,1860428.5232522429],[1174585.0218012675,1860401.8730430864],[1174613.1703670034,1860402.5990915042]]]},"properties":{"OBJECTID":1257394,"Area_SQFT":744.58520306599996,"Year":"2022","Height":12.744,"GlobalID":"{B477DD3D-AAA1-4C0B-9406-18EBF77D36E4}"}},{"type":"Feature","id":1257521,"geometry":{"type":"Polygon","coordinates":[[[1174682.7404378199,1860382.7799054356],[1174688.0911489013,1860383.0951935002],[1174703.2902654812,1860383.9908609979],[1174710.8732555686,1860384.4377105101],[1174709.8611184726,1860416.3513605739],[1174641.9452438324,1860413.9563522523],[1174643.1890077449,1860380.4488733429],[1174682.7404378199,1860382.7799054356]]]},"properties":{"OBJECTID":1257521,"Area_SQFT":2221.3738248300001,"Year":"2022","Height":43.223999999999997,"GlobalID":"{1F918FBC-B2D1-4135-B9D6-5960F3D5A226}"}},{"type":"Feature","id":1257768,"geometry":{"type":"Polygon","coordinates":[[[1174613.3731225072,1860372.3514485909],[1174613.496481847,1860376.9144315983],[1174613.0069815074,1860390.4340895934],[1174587.1130044332,1860389.8602718355],[1174587.5145784311,1860371.7448225149],[1174613.3731225072,1860372.3514485909]]]},"properties":{"OBJECTID":1257768,"Area_SQFT":470.51284907799999,"Year":"2022","Height":12.794,"GlobalID":"{D83678DE-DC5A-4CD4-9FED-7841D2FBF236}"}},{"type":"Feature","id":1258735,"geometry":{"type":"Polygon","coordinates":[[[1174662.1322113345,1860284.4805613607],[1174601.9151401815,1860282.6327960317],[1174604.956144593,1860183.5427711515],[1174662.9117373254,1860185.3216389904],[1174663.2066842432,1860175.7094534934],[1174666.8818737455,1860175.8223141516],[1174666.9166505779,1860174.6914109075],[1174669.4609368255,1860174.7694947375],[1174668.9966989132,1860189.8944644842],[1174670.5514858265,1860189.9420365773],[1174670.3434809945,1860196.7271279818],[1174668.5058862402,1860196.6706976469],[1174668.3887604894,1860200.4872910574],[1174722.3860278085,1860202.1444399881],[1174721.6399663084,1860226.457383465],[1174724.043176726,1860226.5312022225],[1174723.9867463929,1860228.368796963],[1174728.7928391378,1860228.5164344697],[1174728.6931018026,1860231.7674122253],[1174723.038913643,1860231.593856137],[1174722.9736250548,1860233.7142587223],[1174720.9946263919,1860233.6535633118],[1174720.7475796507,1860241.7109618864],[1174731.490340306,1860242.0403575462],[1174731.4037263072,1860244.8674516338],[1174723.6291355588,1860244.6289350439],[1174723.555316803,1860247.0321454683],[1174721.0110305538,1860246.9540616386],[1174720.2692341411,1860271.1256012046],[1174666.9783302406,1860269.4901057871],[1174666.9091046588,1860271.7519122909],[1174665.0715099105,1860271.6954819649],[1174664.9064839934,1860277.0668622905],[1174662.3621977381,1860276.9887784619],[1174662.1322113345,1860284.4805613607]]]},"properties":{"OBJECTID":1258735,"Area_SQFT":10172.8359924,"Year":"2022","Height":63.344000000000001,"GlobalID":"{67CD61CE-B45D-4CFA-B7BE-67D0F9E1641D}"}},{"type":"Feature","id":1259005,"geometry":{"type":"Polygon","coordinates":[[[1174467.4016297199,1860210.9485562264],[1174465.6194810593,1860250.8156024632],[1174418.5962811522,1860249.5134397161],[1174419.1356501468,1860231.0393953025],[1174419.7511344815,1860209.956432221],[1174419.7655701495,1860209.4659476462],[1174467.4016297199,1860210.9485562264]]]},"properties":{"OBJECTID":1259005,"Area_SQFT":1893.2193162999999,"Year":"2022","Height":37.460000000000001,"GlobalID":"{38EAB850-5DA4-4E72-B392-6DD32819CD36}"}},{"type":"Feature","id":1259027,"geometry":{"type":"Polygon","coordinates":[[[1174354.7509364218,1860206.6562419771],[1174353.5737734202,1860248.0334557935],[1174307.3120549314,1860247.3051108019],[1174307.4751123518,1860241.820541712],[1174308.3707798517,1860211.7303788017],[1174308.5449921009,1860205.8819653075],[1174354.7509364218,1860206.6562419771]]]},"properties":{"OBJECTID":1259027,"Area_SQFT":1915.0001041200001,"Year":"2022","Height":39.156999999999996,"GlobalID":"{7D83B709-4023-4B4B-8535-EACDBA10D460}"}},{"type":"Feature","id":1259251,"geometry":{"type":"Polygon","coordinates":[[[1174570.8433519404,1860202.1765921486],[1174570.2285237736,1860217.029908896],[1174535.192832706,1860215.5797805516],[1174535.7945375266,1860201.0463450588],[1174536.3654025346,1860187.2560183159],[1174537.8923023653,1860187.3193384018],[1174538.847681036,1860164.2419567332],[1174538.9175627821,1860162.5516714111],[1174570.1068048566,1860163.8430074072],[1174570.8610684348,1860164.6960240675],[1174570.3013582688,1860178.2153539774],[1174574.0802220982,1860178.3715216483],[1174573.4233992675,1860194.2369754841],[1174570.1215686018,1860194.1001647294],[1174570.8433519404,1860202.1765921486]]]},"properties":{"OBJECTID":1259251,"Area_SQFT":1834.5402235700001,"Year":"2022","Height":16.401,"GlobalID":"{2A60F9FE-D376-497C-9BAD-70E25C2C6CE4}"}},{"type":"Feature","id":1259300,"geometry":{"type":"Polygon","coordinates":[[[1174469.2011667984,1860170.689122312],[1174467.4016297199,1860210.9485562264],[1174419.7655701495,1860209.4659476462],[1174419.8689163958,1860205.9239599779],[1174420.4128785627,1860187.2989972276],[1174420.9450297293,1860169.0651098278],[1174469.2011667984,1860170.689122312]]]},"properties":{"OBJECTID":1259300,"Area_SQFT":1935.9838674,"Year":"2022","Height":40.426000000000002,"GlobalID":"{5345C62E-E73B-4E15-8053-2BD3A0579E02}"}},{"type":"Feature","id":1259333,"geometry":{"type":"Polygon","coordinates":[[[1174274.7704533562,1860207.5778280555],[1174258.9273091943,1860207.2658208061],[1174259.0126108699,1860202.93413656],[1174250.1550170416,1860202.7595962209],[1174250.3571163644,1860192.5060078078],[1174250.823978951,1860168.8151103184],[1174251.8856566201,1860154.3771470715],[1174251.9210896196,1860152.5930299114],[1174257.4948973656,1860152.7029378228],[1174257.6737027827,1860143.62552816],[1174268.250781364,1860143.8341891679],[1174270.2527458584,1860143.8735591664],[1174270.321971446,1860140.356505831],[1174271.8990680303,1860140.3873456563],[1174271.8761021919,1860141.5504010837],[1174274.9318703583,1860143.9657505788],[1174278.6661148586,1860144.0392412352],[1174278.607059866,1860147.041531832],[1174283.6871021918,1860147.1415972374],[1174283.5745696111,1860152.8610739924],[1174283.5466825289,1860154.265926816],[1174287.3924753591,1860154.3417140772],[1174287.1539587756,1860166.4460205669],[1174287.08670169,1860169.8689139851],[1174285.760916939,1860169.8429954038],[1174285.7182661132,1860172.0024399071],[1174289.424623522,1860172.0756024811],[1174289.2760017694,1860179.6051149778],[1174287.3878821924,1860179.5680415707],[1174287.2976592737,1860184.1398828111],[1174284.5840820246,1860187.146438488],[1174284.2632165211,1860203.4318389702],[1174274.8557550269,1860203.24647189],[1174274.7704533562,1860207.5778280555]]]},"properties":{"OBJECTID":1259333,"Area_SQFT":2088.6390136,"Year":"2022","Height":34.383000000000003,"GlobalID":"{BECB1450-6DE4-49F9-90F2-96620A511B4B}"}},{"type":"Feature","id":1259340,"geometry":{"type":"Polygon","coordinates":[[[1174355.8710129228,1860167.2816488128],[1174354.7509364218,1860206.6562419771],[1174308.5449921009,1860205.8819653075],[1174309.7080475166,1860166.8055998979],[1174355.8710129228,1860167.2816488128]]]},"properties":{"OBJECTID":1259340,"Area_SQFT":1812.32104295,"Year":"2022","Height":40.076000000000001,"GlobalID":"{167EC9FB-F862-4606-BE4A-9ED5B453CF4C}"}}]}