{"type":"FeatureCollection","features":[{"type":"Feature","id":204079,"geometry":{"type":"Polygon","coordinates":[[[-87.61542861606577,41.815704633827096],[-87.615422608733212,41.81549361658135],[-87.615334476782294,41.815495151377547],[-87.615340483817874,41.815706169311646],[-87.61542861606577,41.815704633827096]]]},"properties":{"OBJECTID":204079,"Name":"20034000850000","PIN10":"2003400085","PINA":20,"PINSA":3,"PINB":400,"PINP":85,"TAXCODE":null,"Latitude":"+41° 48' 56.13\"","Longitude":"-087° 36' 55.35\"","AssessorBLDGclass":"295","AssessorNBHD":10,"MUNICIPALITY":"CITY OF CHICAGO","PoliticalTownship":"Town of Hyde Park","CommissionerDistrict":"3","BORDistrict":"3","CongressionalDistrict":"1","StateRepresentativeDistrict":"26","StateSenateDistrict":"13","TIFDistrict":"TIF CITY OF CHICAGO-47TH ST/KING DR","ElemSchlTaxDist":null,"HighSchlTaxDist":null,"UnitSchlTaxDist":"BOARD OF EDUCATION","Ward":"Chicago Ward 3","PARCELTYPE":"BaseParcel","Shape_Length":201.89190061568451,"Shape_Area":1848.393687483883}},{"type":"Feature","id":811904,"geometry":{"type":"Polygon","coordinates":[[[-87.615252278219046,41.815707702897846],[-87.615246271769323,41.815496740534869],[-87.61515813797773,41.815498275184261],[-87.615164145979932,41.815709236874973],[-87.615252278219046,41.815707702897846]]]},"properties":{"OBJECTID":811904,"Name":"20034000870000","PIN10":"2003400087","PINA":20,"PINSA":3,"PINB":400,"PINP":87,"TAXCODE":null,"Latitude":"+41° 48' 56.14\"","Longitude":"-087° 36' 54.72\"","AssessorBLDGclass":"295","AssessorNBHD":10,"MUNICIPALITY":"CITY OF CHICAGO","PoliticalTownship":"Town of Hyde Park","CommissionerDistrict":"3","BORDistrict":"3","CongressionalDistrict":"1","StateRepresentativeDistrict":"26","StateSenateDistrict":"13","TIFDistrict":"TIF CITY OF CHICAGO-47TH ST/KING DR","ElemSchlTaxDist":null,"HighSchlTaxDist":null,"UnitSchlTaxDist":"BOARD OF EDUCATION","Ward":null,"PARCELTYPE":"BaseParcel","Shape_Length":201.85190235813076,"Shape_Area":1847.9259274946583}},{"type":"Feature","id":983147,"geometry":{"type":"Polygon","coordinates":[[[-87.639355312034027,41.928717704020364],[-87.639387212958013,41.929578649137291],[-87.641498655818296,41.928880033961029],[-87.641351427531987,41.928629642167422],[-87.641283660655716,41.928514251553487],[-87.641196323670229,41.928543416903402],[-87.641109062529083,41.928572527759478],[-87.640886885627751,41.928646765307107],[-87.640780443364363,41.928682401249674],[-87.640563865513883,41.928313808150662],[-87.639355312034027,41.928717704020364]]]},"properties":{"OBJECTID":983147,"Name":"14283191170000","PIN10":"1428319117","PINA":14,"PINSA":28,"PINB":319,"PINP":117,"TAXCODE":null,"Latitude":"+41° 55' 44.05\"","Longitude":"-087° 38' 24.85\"","AssessorBLDGclass":"295","AssessorNBHD":63,"MUNICIPALITY":"CITY OF CHICAGO","PoliticalTownship":"Town of Lake View","CommissionerDistrict":"12","BORDistrict":"2","CongressionalDistrict":"5","StateRepresentativeDistrict":"12","StateSenateDistrict":"6","TIFDistrict":null,"ElemSchlTaxDist":null,"HighSchlTaxDist":null,"UnitSchlTaxDist":"BOARD OF EDUCATION","Ward":null,"PARCELTYPE":"BaseParcel","Shape_Length":1744.902104525371,"Shape_Area":143807.88337636326}},{"type":"Feature","id":1056032,"geometry":{"type":"Polygon","coordinates":[[[-87.615510814043617,41.815492082175901],[-87.615422608733212,41.81549361658135],[-87.61542861606577,41.815704633827096],[-87.615516822270905,41.815703045223749],[-87.615510814043617,41.815492082175901]]]},"properties":{"OBJECTID":1056032,"Name":"20034000840000","PIN10":"2003400084","PINA":20,"PINSA":3,"PINB":400,"PINP":84,"TAXCODE":null,"Latitude":"+41° 48' 56.13\"","Longitude":"-087° 36' 55.67\"","AssessorBLDGclass":"295","AssessorNBHD":10,"MUNICIPALITY":"CITY OF CHICAGO","PoliticalTownship":"Town of Hyde Park","CommissionerDistrict":"3","BORDistrict":"3","CongressionalDistrict":"1","StateRepresentativeDistrict":"26","StateSenateDistrict":"13","TIFDistrict":"TIF CITY OF CHICAGO-47TH ST/KING DR","ElemSchlTaxDist":null,"HighSchlTaxDist":null,"UnitSchlTaxDist":"BOARD OF EDUCATION","Ward":null,"PARCELTYPE":"BaseParcel","Shape_Length":201.91251367014547,"Shape_Area":1849.7131199212281}},{"type":"Feature","id":1156142,"geometry":{"type":"Polygon","coordinates":[[[-87.615246271769323,41.815496740534869],[-87.615252278219046,41.815707702897846],[-87.615340483817874,41.815706169311646],[-87.615334476782294,41.815495151377547],[-87.615246271769323,41.815496740534869]]]},"properties":{"OBJECTID":1156142,"Name":"20034000860000","PIN10":"2003400086","PINA":20,"PINSA":3,"PINB":400,"PINP":86,"TAXCODE":null,"Latitude":"+41° 48' 56.14\"","Longitude":"-087° 36' 55.04\"","AssessorBLDGclass":"295","AssessorNBHD":10,"MUNICIPALITY":"CITY OF CHICAGO","PoliticalTownship":"Town of Hyde Park","CommissionerDistrict":"3","BORDistrict":"3","CongressionalDistrict":"1","StateRepresentativeDistrict":"26","StateSenateDistrict":"13","TIFDistrict":"TIF CITY OF CHICAGO-47TH ST/KING DR","ElemSchlTaxDist":null,"HighSchlTaxDist":null,"UnitSchlTaxDist":"BOARD OF EDUCATION","Ward":null,"PARCELTYPE":"BaseParcel","Shape_Length":201.91225660003414,"Shape_Area":1849.703415043308}},{"type":"Feature","id":1393030,"geometry":{"type":"Polygon","coordinates":[[[-87.641283660655716,41.928514251553487],[-87.641196323670229,41.928543416903402],[-87.641109062529083,41.928572527759478],[-87.640886885627751,41.928646765307107],[-87.640780443364363,41.928682401249674],[-87.640563865513883,41.928313808150662],[-87.639355312034027,41.928717704020364],[-87.639387212958013,41.929578649137291],[-87.641498655818296,41.928880033961029],[-87.641351427531987,41.928629642167422],[-87.641283660655716,41.928514251553487]]]},"properties":{"OBJECTID":1393030,"Name":"14283191160000","PIN10":"1428319116","PINA":14,"PINSA":28,"PINB":319,"PINP":116,"TAXCODE":null,"Latitude":"+41° 55' 44.05\"","Longitude":"-087° 38' 24.85\"","AssessorBLDGclass":"295","AssessorNBHD":63,"MUNICIPALITY":"CITY OF CHICAGO","PoliticalTownship":"Town of Lake View","CommissionerDistrict":"12","BORDistrict":"2","CongressionalDistrict":"5","StateRepresentativeDistrict":"12","StateSenateDistrict":"6","TIFDistrict":null,"ElemSchlTaxDist":null,"HighSchlTaxDist":null,"UnitSchlTaxDist":"BOARD OF EDUCATION","Ward":null,"PARCELTYPE":"BaseParcel","Shape_Length":1744.9021045253717,"Shape_Area":143807.88337636326}},{"type":"Feature","id":1423841,"geometry":{"type":"Polygon","coordinates":[[[-87.61515813797773,41.815498275184261],[-87.615070006933962,41.815499809783205],[-87.615076013109046,41.81571082703811],[-87.615164145979932,41.815709236874973],[-87.61515813797773,41.815498275184261]]]},"properties":{"OBJECTID":1423841,"Name":"20034000880000","PIN10":"2003400088","PINA":20,"PINSA":3,"PINB":400,"PINP":88,"TAXCODE":null,"Latitude":"+41° 48' 56.15\"","Longitude":"-087° 36' 54.4\"","AssessorBLDGclass":"295","AssessorNBHD":10,"MUNICIPALITY":"CITY OF CHICAGO","PoliticalTownship":"Town of Hyde Park","CommissionerDistrict":"3","BORDistrict":"3","CongressionalDistrict":"1","StateRepresentativeDistrict":"26","StateSenateDistrict":"13","TIFDistrict":"TIF CITY OF CHICAGO-47TH ST/KING DR","ElemSchlTaxDist":null,"HighSchlTaxDist":null,"UnitSchlTaxDist":"BOARD OF EDUCATION","Ward":null,"PARCELTYPE":"BaseParcel","Shape_Length":201.87180817174439,"Shape_Area":1848.1607699536928}}]}