{"type":"FeatureCollection","features":[{"type":"Feature","id":924442,"geometry":{"type":"Polygon","coordinates":[[[-87.59179548692444,41.778311834487923],[-87.591803088283726,41.778654799585794],[-87.591899803477261,41.778653661289411],[-87.591893724107848,41.778379358521541],[-87.592205326726798,41.778375661019176],[-87.592203770373814,41.778307043757316],[-87.59179548692444,41.778311834487923]]]},"properties":{"OBJECTID":924442,"Name":"20232130980000","PIN10":"2023213098","PINA":20,"PINSA":23,"PINB":213,"PINP":98,"PINU":0,"PINAC":0,"TAXCODE":null,"PARCELTYPE":1,"Shape_Length":472.74481953139258,"Shape_Area":5424.2122518053384}},{"type":"Feature","id":924443,"geometry":{"type":"Polygon","coordinates":[[[-87.591598581553313,41.778519991691056],[-87.591601473638136,41.778657170599139],[-87.591803088283726,41.778654799585794],[-87.59179548692444,41.778311834487923],[-87.59159413284911,41.778314196195062],[-87.591595317608608,41.778370461765249],[-87.591595616148595,41.778382812992383],[-87.591598581553313,41.778519991691056]]]},"properties":{"OBJECTID":924443,"Name":"20232130970000","PIN10":"2023213097","PINA":20,"PINSA":23,"PINB":213,"PINP":97,"PINU":0,"PINAC":0,"TAXCODE":null,"PARCELTYPE":1,"Shape_Length":359.92393365443058,"Shape_Area":6869.8047084916288}}]}