{"type":"FeatureCollection","features":[{"type":"Feature","id":649510,"geometry":{"type":"Polygon","coordinates":[[[-87.591759098750856,41.778655316972177],[-87.591751757983019,41.778312347379341],[-87.59159413284911,41.778314196195062],[-87.591595317608608,41.778370461765249],[-87.591595616148595,41.778382812992383],[-87.591598581553313,41.778519991691056],[-87.591601473638136,41.778657170599139],[-87.591759098750856,41.778655316972177]]]},"properties":{"OBJECTID":649510,"PIN10":"2023213110","PINA":20,"PINSA":23,"PINB":213,"PINP":110,"PARCELTYPE":1,"SHAPE_Length":335.99484080830092,"SHAPE_Area":5374.2528333183136,"PIN14":"20232131100000","Longitude":-87.591676624788789,"Latitude":41.778484753243035,"MUNICIPALITY":"Chicago","MunicipalityFIPS":"14000","PoliticalTownship":"Town of Hyde Park","CommissionerDistrict":"3","CongressionalDistrict":"1","StateRepresentativeDistrict":"26","StateSenateDistrict":"13","TIFDistrict":"TIF CITY OF CHICAGO - WOODLAWN","ElemSchlTaxDist":null,"HighSchlTaxDist":null,"UnitSchlTaxDist":"BOARD OF EDUCATION","ChicagoWard":"20","CensusTract_GEOID":"17031834400","AssessorBLDGclass":"278","AssessorNBHD":"70"}},{"type":"Feature","id":649511,"geometry":{"type":"Polygon","coordinates":[[[-87.592203770373814,41.778307043757316],[-87.59179548692444,41.778311834487923],[-87.591751757983019,41.778312347379341],[-87.591759098750856,41.778655316972177],[-87.591803088283726,41.778654799585794],[-87.591899803477261,41.778653661289411],[-87.591893724107848,41.778379358521541],[-87.592205326726798,41.778375661019176],[-87.592203770373814,41.778307043757316]]]},"properties":{"OBJECTID":649511,"PIN10":"2023213111","PINA":20,"PINSA":23,"PINB":213,"PINP":111,"PARCELTYPE":1,"SHAPE_Length":496.67487166566082,"SHAPE_Area":6919.7648745270508,"PIN14":"20232131110000","Longitude":-87.59197854251677,"Latitude":41.778344020203747,"MUNICIPALITY":"Chicago","MunicipalityFIPS":"14000","PoliticalTownship":"Town of Hyde Park","CommissionerDistrict":"3","CongressionalDistrict":"1","StateRepresentativeDistrict":"26","StateSenateDistrict":"13","TIFDistrict":"TIF CITY OF CHICAGO - WOODLAWN","ElemSchlTaxDist":null,"HighSchlTaxDist":null,"UnitSchlTaxDist":"BOARD OF EDUCATION","ChicagoWard":"20","CensusTract_GEOID":"17031834400","AssessorBLDGclass":"278","AssessorNBHD":"70"}}]}