{"type":"FeatureCollection","crs":{"type":"name","properties":{"name":"EPSG:3435"}},"features":[{"type":"Feature","id":617312,"geometry":{"type":"Polygon","coordinates":[[[1162272.0707087682,1923855.1358808954],[1162268.0969634301,1923855.0505792373],[1162268.1425670173,1923852.9295204845],[1162260.9316234356,1923852.7746651531],[1162260.9864133459,1923850.2297227352],[1162251.745290098,1923850.03123232],[1162251.6537548504,1923797.3787785911],[1162251.953951102,1923783.4109587572],[1162253.9336059347,1923783.4532815125],[1162254.185573936,1923771.718068769],[1162274.6868452637,1923772.1583565974],[1162274.4945884284,1923781.1143754267],[1162272.0707087682,1923855.1358808954]]]},"properties":{"OBJECTID":617312,"Area_SQFT":1716.2611781754833,"Year":"2022","Height":47.826000000000001,"GlobalID":"{C35BEFD1-BAE4-416F-A452-40872E3CB72D}"}},{"type":"Feature","id":617335,"geometry":{"type":"Polygon","coordinates":[[[1162098.7455961509,1923853.2746641547],[1162080.7856583241,1923853.1644281547],[1162081.2029803242,1923785.1422545025],[1162078.3745739115,1923785.1248660844],[1162078.4100069057,1923779.3266493487],[1162079.9657780759,1923779.3361637497],[1162080.0058042328,1923772.8309274309],[1162082.2682669021,1923772.84470693],[1162082.3378205686,1923761.531409347],[1162079.6508180725,1923761.5146771006],[1162079.68297024,1923756.282404101],[1162082.9355884045,1923756.3020890953],[1162082.9989084853,1923745.9786189327],[1162087.5241619039,1923746.0065060195],[1162087.5363009851,1923744.0265231112],[1162096.3043280651,1923744.0803287749],[1162096.2921889836,1923746.0603116779],[1162106.9703172341,1923746.1259283524],[1162106.7649370651,1923759.9841683421],[1162105.3994542309,1923759.9756381824],[1162105.2780633969,1923779.77415501],[1162106.4719586496,1923779.7817009322],[1162105.4863963141,1923846.3862264908],[1162098.7882469867,1923846.3452160719],[1162098.7455961509,1923853.2746641547]]]},"properties":{"OBJECTID":617335,"Area_SQFT":2638.7943230466276,"Year":"2022","Height":30.966000000000001,"GlobalID":"{DED229FA-4335-490B-A1E9-4C2F2152BB00}"}},{"type":"Feature","id":617384,"geometry":{"type":"Polygon","coordinates":[[[1162345.6063228264,1923848.8156835786],[1162301.4823953351,1923849.1992129935],[1162302.1090345054,1923799.4204411763],[1162302.6575898365,1923773.8909646813],[1162311.8478601694,1923774.0881427559],[1162312.0027154996,1923766.8775272686],[1162338.725102993,1923767.4513450097],[1162338.6066649139,1923772.9654415897],[1162341.0105314944,1923773.0172787651],[1162340.9678806541,1923774.9966055171],[1162350.1581509856,1923775.1941116757],[1162349.742141326,1923794.5644797496],[1162351.1558524086,1923794.5946634109],[1162351.0981097464,1923797.2810097674],[1162349.1187829894,1923797.2386869951],[1162348.954741325,1923804.8735142564],[1162350.3687804902,1923804.904026004],[1162350.2959459869,1923808.2973919159],[1162348.8819068267,1923808.2668801623],[1162348.7877469044,1923812.6500734999],[1162350.201786072,1923812.6802571691],[1162350.1168124895,1923816.6392387461],[1162348.2785615742,1923816.5998687439],[1162347.5892584857,1923848.6949488982],[1162345.6099317409,1923848.6522980686],[1162345.6063228264,1923848.8156835786]]]},"properties":{"OBJECTID":617384,"Area_SQFT":3699.7746169096113,"Year":"2022","Height":55.009999999999998,"GlobalID":"{2B68FA45-B1B8-4C04-B242-99AEE18DF36C}"}},{"type":"Feature","id":617414,"geometry":{"type":"Polygon","coordinates":[[[1162013.1171585068,1923846.7175906515],[1161993.3448883488,1923846.4748089882],[1161992.8809785126,1923794.2810157579],[1161995.5158157705,1923794.3131679285],[1161995.8402901825,1923767.8696512696],[1162014.5065914262,1923768.0986534304],[1162014.4855940957,1923769.7955004291],[1162017.0308645919,1923769.8266683419],[1162016.1059976772,1923845.1985648216],[1162013.1365154227,1923845.1621475799],[1162013.1171585068,1923846.7175906515]]]},"properties":{"OBJECTID":617414,"Area_SQFT":1767.7318300862785,"Year":"2022","Height":34.817,"GlobalID":"{6E24EE80-9F22-4161-80E9-4587FF7F24CD}"}},{"type":"Feature","id":618324,"geometry":{"type":"Polygon","coordinates":[[[1162176.7611881222,1923769.3233885043],[1162165.0233507152,1923769.2512101764],[1162165.040082956,1923766.5642076875],[1162163.2015039637,1923766.5530528428],[1162163.2172519621,1923764.007454261],[1162158.8330743839,1923763.9805514333],[1162158.823559965,1923765.5363225932],[1162153.8740948003,1923765.5058108477],[1162153.8826249628,1923764.0917716834],[1162150.3471989725,1923764.0697900935],[1162150.337684552,1923765.6255612588],[1162146.8022585504,1923765.6039077651],[1162146.8186627168,1923762.9169052609],[1162144.5558719684,1923762.9031257704],[1162144.5722761366,1923760.2161232601],[1162144.0128940556,1923760.2128424223],[1162144.1733268043,1923738.8585544336],[1162179.6338857862,1923739.0760736885],[1162179.5495683728,1923752.7938940169],[1162181.3881473769,1923752.8050488469],[1162181.3222026243,1923763.5527307596],[1162179.0594118754,1923763.5389512603],[1162179.0420234557,1923766.3673576762],[1162176.7795607965,1923766.3535781736],[1162176.7611881222,1923769.3233885043]]]},"properties":{"OBJECTID":618324,"Area_SQFT":988.71644667229111,"Year":"2022","Height":15.212999999999999,"GlobalID":"{A9BF334A-78F1-4CE4-91EF-287845D11644}"}},{"type":"Feature","id":618329,"geometry":{"type":"Polygon","coordinates":[[[1162237.2745185259,1923768.8135470143],[1162230.2013699408,1923768.7518673472],[1162230.2390995251,1923764.4293694312],[1162227.4589213571,1923764.4050912666],[1162227.6738159447,1923739.776531592],[1162238.4395424358,1923739.8703634329],[1162249.4270532697,1923739.966163771],[1162249.204612778,1923765.4621757695],[1162237.3047021942,1923765.3581733452],[1162237.2745185259,1923768.8135470143]]]},"properties":{"OBJECTID":618329,"Area_SQFT":576.69040983221328,"Year":"2022","Height":12.718999999999999,"GlobalID":"{44628083-41A2-43A6-9EBF-B382E64A7D87}"}},{"type":"Feature","id":618385,"geometry":{"type":"Polygon","coordinates":[[[1162300.4299040015,1923740.49503411],[1162299.8984090053,1923759.6921741765],[1162298.4929000055,1923761.6797030186],[1162298.4541861718,1923763.0773380182],[1162277.2777193459,1923762.4910531032],[1162278.0385446029,1923739.7880145216],[1162300.4299040015,1923740.49503411]]]},"properties":{"OBJECTID":618385,"Area_SQFT":506.14993263061615,"Year":"2022","Height":11.961,"GlobalID":"{DE3BCCBD-874A-4CB5-BD9E-650060756B53}"}},{"type":"Feature","id":618393,"geometry":{"type":"Polygon","coordinates":[[[1161951.774761525,1923733.0078443454],[1161956.9266541093,1923733.1088940213],[1161968.9840446897,1923733.3454421028],[1161969.4072721906,1923762.6593598402],[1161969.187784438,1923762.8348844289],[1161961.8787439403,1923762.6915120122],[1161961.9207386104,1923760.5589703484],[1161948.3049521989,1923760.2915824282],[1161948.8416965266,1923732.9501016913],[1161951.774761525,1923733.0078443454]]]},"properties":{"OBJECTID":618393,"Area_SQFT":579.64571769145346,"Year":"2022","Height":11.912000000000001,"GlobalID":"{FF4A1EE7-6F99-426D-BBD4-DBEBA2020D9E}"}},{"type":"Feature","id":618397,"geometry":{"type":"Polygon","coordinates":[[[1162224.8903569453,1923739.6400489353],[1162224.2837308627,1923762.5924308423],[1162203.4209116981,1923762.0412508477],[1162203.4560166155,1923760.7108729281],[1162203.6663180254,1923752.7479623526],[1162203.9947294546,1923740.3208218543],[1162204.0275377873,1923739.0885408549],[1162224.8903569453,1923739.6400489353]]]},"properties":{"OBJECTID":618397,"Area_SQFT":479.19331168402471,"Year":"2022","Height":13.212,"GlobalID":"{4C96BF34-E6B7-4E0D-9A5C-AC2282C15EEC}"}},{"type":"Feature","id":618411,"geometry":{"type":"Polygon","coordinates":[[[1161970.6907341918,1923761.6318028406],[1161971.1060876918,1923733.387108678],[1161971.475837599,1923733.3943265197],[1161990.1181887661,1923733.7604675244],[1161991.7848521033,1923733.7929477736],[1161990.4840016889,1923760.8171719313],[1161972.1575947721,1923760.457592597],[1161970.6907341918,1923761.6318028406]]]},"properties":{"OBJECTID":618411,"Area_SQFT":548.01074914174524,"Year":"2022","Height":10.558999999999999,"GlobalID":"{9E77B335-3C9A-486E-9ADD-C823065CD0C1}"}},{"type":"Feature","id":618428,"geometry":{"type":"Polygon","coordinates":[[[1162143.1618458957,1923738.8523208429],[1162142.7999699616,1923760.2052965101],[1162108.0858005632,1923759.9923704269],[1162107.9309452313,1923739.2391311035],[1162107.9345541494,1923738.636113941],[1162143.1618458957,1923738.8523208429]]]},"properties":{"OBJECTID":618428,"Area_SQFT":746.89326134988198,"Year":"2022","Height":11.585000000000001,"GlobalID":"{BEFBDCAB-5313-4EE0-9CA9-5161552B2ACC}"}},{"type":"Feature","id":618459,"geometry":{"type":"Polygon","coordinates":[[[1161943.4863922817,1923732.0606677702],[1161943.449975034,1923733.7145358545],[1161942.9480075291,1923756.5186241008],[1161922.867339036,1923756.0242025121],[1161922.900803539,1923754.5137068501],[1161923.3978497812,1923731.9389488536],[1161943.4863922817,1923732.0606677702]]]},"properties":{"OBJECTID":618459,"Area_SQFT":487.64778823419778,"Year":"2022","Height":13.206,"GlobalID":"{B14C4F2D-E6DD-42ED-8ADC-B468E58CAFF6}"}},{"type":"Feature","id":618473,"geometry":{"type":"Polygon","coordinates":[[[1162019.0833539162,1923732.7273331021],[1162018.6660319259,1923755.6879171082],[1161995.6381908532,1923755.2692827571],[1161996.0555128462,1923732.3090268553],[1162019.0833539162,1923732.7273331021]]]},"properties":{"OBJECTID":618473,"Area_SQFT":528.90353883631474,"Year":"2022","Height":15.603999999999999,"GlobalID":"{326D8026-C7EF-4562-8E15-E464F9DCA49E}"}},{"type":"Feature","id":618831,"geometry":{"type":"Polygon","coordinates":[[[1162248.1330926034,1923725.2923086141],[1162237.8417746059,1923724.1207230249],[1162232.5957221098,1923723.5236113556],[1162230.1249265254,1923723.2424439406],[1162226.310301611,1923721.1643641051],[1162228.4254548592,1923707.8471335289],[1162226.781429274,1923705.5666262761],[1162226.8883844451,1923698.9035818717],[1162226.8900248581,1923698.7985951942],[1162249.5586146924,1923699.0866523646],[1162248.2167538551,1923710.8740303626],[1162251.6301328514,1923711.2624810268],[1162251.1081522733,1923715.8461332794],[1162249.2324998549,1923715.6325510284],[1162248.1330926034,1923725.2923086141]]]},"properties":{"OBJECTID":618831,"Area_SQFT":553.77968493705396,"Year":"2022","Height":20.652000000000001,"GlobalID":"{58CFDB7F-5694-4052-B934-1BAD9B85FA25}"}},{"type":"Feature","id":618837,"geometry":{"type":"Polygon","coordinates":[[[1162334.2516867409,1923700.9436040404],[1162338.8592890769,1923701.0515434609],[1162338.298922746,1923724.9678342012],[1162333.6906642478,1923724.8598947793],[1162314.334403751,1923724.4064836181],[1162310.1365775049,1923724.3080586104],[1162308.525032171,1923724.2703290281],[1162306.6244454174,1923724.2257097031],[1162302.8626419208,1923724.1377833704],[1162300.0742616686,1923724.0724947678],[1162299.1274131758,1923724.0501851074],[1162296.3705289238,1923723.9855526923],[1162293.6707311715,1923723.9222326162],[1162292.0057082609,1923723.8831906838],[1162259.1202753559,1923723.1128510218],[1162259.3978338488,1923711.2588721083],[1162259.6806416817,1923699.1965602906],[1162334.2516867409,1923700.9436040404]]]},"properties":{"OBJECTID":618837,"Area_SQFT":1894.7013134329693,"Year":"2022","Height":31.797000000000001,"GlobalID":"{3EA152F8-144D-46AF-8C1C-ECA64D3F0F47}"}},{"type":"Feature","id":618879,"geometry":{"type":"Polygon","coordinates":[[[1162141.7195915491,1923709.6555288564],[1162141.4840277205,1923722.143364779],[1162110.3791030673,1923721.5564236944],[1162098.4644287317,1923719.8146292767],[1162092.4106350639,1923719.7001281939],[1162092.5333382336,1923713.1981726941],[1162092.5907528179,1923710.1456853636],[1162093.0628647378,1923696.9587038674],[1162098.8935617292,1923697.0686117858],[1162110.8528553967,1923696.4449253706],[1162141.9577800552,1923697.0318664536],[1162141.8944599729,1923700.391111701],[1162146.4059338858,1923700.4760852787],[1162152.0141903833,1923700.5820562022],[1162151.9849909658,1923702.1224074517],[1162149.6008093848,1923702.0774600336],[1162149.5529092187,1923704.6135442073],[1162148.1772558012,1923704.5876256081],[1162141.8173603876,1923704.4675471121],[1162141.7195915491,1923709.6555288564]]]},"properties":{"OBJECTID":618879,"Area_SQFT":1238.7543035795445,"Year":"2022","Height":27.494,"GlobalID":"{8982A410-D18C-4E2B-97AE-EDDDBF737C49}"}},{"type":"Feature","id":618891,"geometry":{"type":"Polygon","coordinates":[[[1162197.479650622,1923698.0958407037],[1162208.4714265356,1923698.3727430252],[1162207.8920313693,1923721.3707285319],[1162196.9002554573,1923721.0938261887],[1162186.2116285409,1923720.8244697729],[1162186.7910237056,1923697.8264842909],[1162197.479650622,1923698.0958407037]]]},"properties":{"OBJECTID":618891,"Area_SQFT":498.92208966893372,"Year":"2022","Height":12.991,"GlobalID":"{C0BB43A9-8424-4CE8-B4F5-DB0CA857D3A4}"}},{"type":"Feature","id":618930,"geometry":{"type":"Polygon","coordinates":[[[1161995.9167335995,1923718.8973082695],[1161954.8485742752,1923716.2477072738],[1161956.3928625265,1923692.3100911158],[1162006.300899182,1923694.1325940383],[1162006.0961751777,1923697.3048317721],[1162012.164732591,1923697.6962351964],[1162010.8261525962,1923718.4422566954],[1161996.0079407697,1923717.4862218616],[1161995.9167335995,1923718.8973082695]]]},"properties":{"OBJECTID":618930,"Area_SQFT":1346.3223066835446,"Year":"2022","Height":28.917999999999999,"GlobalID":"{DE3F9330-6488-42DC-BD30-255B58F352F0}"}},{"type":"Feature","id":619152,"geometry":{"type":"Polygon","coordinates":[[[1162249.6084833534,1923696.4455815337],[1162249.5953600192,1923697.2743200453],[1162226.9097098629,1923697.5807498624],[1162227.2971762756,1923673.4387377931],[1162254.1330805991,1923674.3412950404],[1162254.1721225195,1923674.4580927109],[1162261.1504550211,1923674.5771869584],[1162264.2383753462,1923674.6300083729],[1162264.1724305982,1923678.728425374],[1162264.0940186861,1923683.6178513004],[1162249.8181286049,1923683.3888491238],[1162249.6084833534,1923696.4455815337]]]},"properties":{"OBJECTID":619152,"Area_SQFT":664.51389301553991,"Year":"2022","Height":13.896000000000001,"GlobalID":"{1EFC03E0-576B-485E-9313-F8E0C703DE09}"}},{"type":"Feature","id":619173,"geometry":{"type":"Polygon","coordinates":[[[1162208.7279876973,1923673.9639992083],[1162208.5376993674,1923685.226771957],[1162208.3569254542,1923695.9206482],[1162188.0830158726,1923695.578129201],[1162185.1548721232,1923695.5285886184],[1162185.2293470416,1923691.1125869525],[1162185.2667485406,1923688.9157409463],[1162185.3760002931,1923682.4360951204],[1162185.5259343726,1923673.5719396248],[1162208.7279876973,1923673.9639992083]]]},"properties":{"OBJECTID":619173,"Area_SQFT":509.58708432290416,"Year":"2022","Height":12.832000000000001,"GlobalID":"{A90D0F40-1C05-46FA-8921-1BBA8F6D8540}"}},{"type":"Feature","id":619179,"geometry":{"type":"Polygon","coordinates":[[[1162142.5368471364,1923683.9741497897],[1162142.2514146408,1923695.7441393628],[1162112.3771305678,1923695.0200594587],[1162098.8099004866,1923694.6909918631],[1162097.4394963963,1923694.6578554509],[1162098.4040613987,1923671.6670877985],[1162099.3787969847,1923671.2258157134],[1162112.9460270596,1923671.5545552073],[1162142.8203111435,1923672.2789632073],[1162150.3179995527,1923673.3015989559],[1162150.287487797,1923674.5519245355],[1162142.7694582252,1923674.3695102057],[1162142.5368471364,1923683.9741497897]]]},"properties":{"OBJECTID":619179,"Area_SQFT":1059.6147466686673,"Year":"2022","Height":27.850999999999999,"GlobalID":"{6CB283A6-6076-4BA0-AB02-6F17B2C2BC31}"}},{"type":"Feature","id":619214,"geometry":{"type":"Polygon","coordinates":[[[1162006.3865289306,1923692.8077935383],[1161956.4696340309,1923691.1184924536],[1161956.4965368644,1923690.7037951227],[1161954.6294146078,1923690.5833885346],[1161954.7882069477,1923684.2376007016],[1161955.1317101964,1923670.4922213755],[1161955.1425369387,1923670.0676815417],[1161962.1917354439,1923670.5224050377],[1161962.5129290272,1923665.5407877129],[1162007.7953187607,1923666.5722817071],[1162007.5984687626,1923669.6254252058],[1162012.961318925,1923669.9715531268],[1162011.5318598442,1923692.128661037],[1162006.451489426,1923691.8009057902],[1162006.3865289306,1923692.8077935383]]]},"properties":{"OBJECTID":619214,"Area_SQFT":1435.6780842899429,"Year":"2022","Height":27.704999999999998,"GlobalID":"{B674B89D-73EE-4437-A3D1-DDA61399A39A}"}},{"type":"Feature","id":619392,"geometry":{"type":"Polygon","coordinates":[[[1162342.4219459933,1923675.4315159563],[1162285.5749468436,1923674.7336827028],[1162285.8367573421,1923653.3807070446],[1162292.7658773419,1923653.4656806353],[1162292.7855623397,1923651.8725079629],[1162338.1850778325,1923651.8725079617],[1162338.1726106608,1923652.8915347916],[1162340.4354014164,1923652.9194218756],[1162340.4180129932,1923654.3334610458],[1162342.6804756592,1923654.361020053],[1162342.6456988296,1923657.189426464],[1162341.0902557403,1923657.1703976283],[1162341.0190616571,1923662.9682862908],[1162343.2815243271,1923662.9958452967],[1162343.2155795752,1923668.3695222002],[1162342.5085599921,1923668.360992047],[1162342.4219459933,1923675.4315159563]]]},"properties":{"OBJECTID":619392,"Area_SQFT":1295.7192985271265,"Year":"2022","Height":28.231000000000002,"GlobalID":"{66A62FCC-4EB2-4D79-AD42-BFA281A06254}"}},{"type":"Feature","id":619420,"geometry":{"type":"Polygon","coordinates":[[[1162253.5497484403,1923650.0260549595],[1162253.3660217763,1923661.4571344545],[1162253.2039486014,1923671.5529147899],[1162253.249880268,1923671.6910378791],[1162227.9471093595,1923671.351471629],[1162228.1124633534,1923661.0516234548],[1162229.3598361984,1923649.6379323844],[1162253.5497484403,1923650.0260549595]]]},"properties":{"OBJECTID":619420,"Area_SQFT":542.00228808147904,"Year":"2022","Height":12.238,"GlobalID":"{6F6F8A4D-2315-4A8F-AF82-11AC0463C168}"}},{"type":"Feature","id":619496,"geometry":{"type":"Polygon","coordinates":[[[1162009.3756961783,1923642.0808608814],[1162007.9134287629,1923664.7399362864],[1161934.4883787858,1923663.6333112065],[1161933.1648906192,1923663.548009549],[1161934.6671841978,1923640.2616388015],[1161946.3810715321,1923641.0175428027],[1161946.4909794526,1923639.3115094691],[1162009.3756961783,1923642.0808608814]]]},"properties":{"OBJECTID":619496,"Area_SQFT":1757.5614815072429,"Year":"2022","Height":33.884999999999998,"GlobalID":"{1A7535E1-D7D6-4316-856E-1DA74A74ABA1}"}},{"type":"Feature","id":619680,"geometry":{"type":"Polygon","coordinates":[[[1162338.2191984935,1923649.0867523872],[1162292.8291974259,1923648.3219901237],[1162292.8301816741,1923648.2334076266],[1162273.4689999314,1923647.9958752925],[1162266.9519525983,1923647.9158229711],[1162267.1048394355,1923635.4719502118],[1162269.5087060137,1923635.5014777204],[1162269.6428921027,1923624.5585862282],[1162344.3146587426,1923624.9211183018],[1162344.3123621626,1923625.1048449695],[1162338.5144734958,1923625.0336508944],[1162338.2191984935,1923649.0867523872]]]},"properties":{"OBJECTID":619680,"Area_SQFT":1668.0020480307517,"Year":"2022","Height":35.374000000000002,"GlobalID":"{53366055-B757-4B9C-BEEF-86CEB087721D}"}},{"type":"Feature","id":619688,"geometry":{"type":"Polygon","coordinates":[[[1162209.9583001924,1923648.022121964],[1162186.157822872,1923647.5454168802],[1162186.2857753695,1923641.1461514637],[1162182.8641942923,1923641.0775820501],[1162182.9540891231,1923636.5972760539],[1162186.3756702039,1923636.66584547],[1162186.4074942926,1923635.067751559],[1162186.6443704595,1923623.2511741356],[1162193.4583331998,1923623.251174134],[1162210.4546902869,1923623.2511741326],[1162210.2082997004,1923635.54445663],[1162209.9583001924,1923648.022121964]]]},"properties":{"OBJECTID":619688,"Area_SQFT":599.46345720895965,"Year":"2022","Height":12.959,"GlobalID":"{E6115732-189F-409D-BB68-01524EC74775}"}},{"type":"Feature","id":619710,"geometry":{"type":"Polygon","coordinates":[[[1162155.1782260505,1923646.6983057179],[1162118.9939152307,1923645.9148427185],[1162100.4201334838,1923645.5126125475],[1162097.9837866484,1923643.9860408001],[1162096.4539340644,1923643.9529043797],[1162096.5943537359,1923637.4693215459],[1162090.531373739,1923637.3380882174],[1162090.629798735,1923632.7990553032],[1162096.6927787357,1923632.9302886396],[1162098.0152826493,1923625.3295820637],[1162100.7111434008,1923622.2682364737],[1162156.1322923871,1923622.6832618893],[1162156.0670037942,1923625.6983477273],[1162157.1509911271,1923625.7216416367],[1162157.8957402951,1923625.7377177256],[1162159.3993462136,1923625.7701979682],[1162159.544030963,1923628.5382370495],[1162159.0063023816,1923631.0769458869],[1162159.437403881,1923633.5178858754],[1162159.4206716309,1923634.2888817219],[1162162.7510455493,1923635.7465559754],[1162165.9344381262,1923635.8154534644],[1162165.846511797,1923639.7954323862],[1162165.2431665473,1923642.5487077197],[1162165.180502628,1923645.4410903847],[1162155.2100501324,1923645.2252115493],[1162155.1782260505,1923646.6983057179]]]},"properties":{"OBJECTID":619710,"Area_SQFT":1539.3940431552248,"Year":"2022","Height":32.231999999999999,"GlobalID":"{057C6A95-F14D-4693-A386-3B5D3619F135}"}},{"type":"Feature","id":619714,"geometry":{"type":"Polygon","coordinates":[[[1162229.8578666928,1923646.300668715],[1162228.4015047792,1923644.5880737216],[1162229.7564889432,1923644.5034282126],[1162228.5540635234,1923625.2403433996],[1162232.4454599414,1923624.9972336385],[1162232.2988066929,1923622.6491412201],[1162236.1767516893,1923622.8079335531],[1162241.5668327755,1923622.4713200589],[1162241.7561368586,1923625.5051066459],[1162250.9516565234,1923624.931945049],[1162251.0855145236,1923627.0802347139],[1162250.6908302689,1923645.6714048884],[1162240.648199439,1923646.2983721325],[1162231.0366701104,1923645.3590695478],[1162229.8578666928,1923646.300668715]]]},"properties":{"OBJECTID":619714,"Area_SQFT":474.08773149930221,"Year":"2022","Height":22.007999999999999,"GlobalID":"{C014231E-5A04-4457-89D4-4291086FB52C}"}},{"type":"Feature","id":619783,"geometry":{"type":"Polygon","coordinates":[[[1162008.9462351014,1923631.1658564685],[1162012.7565949271,1923631.4115908898],[1162012.1542339248,1923640.7494987072],[1161946.5506906125,1923638.3856583044],[1161947.2458991976,1923627.6104173858],[1161953.3144566098,1923628.0018208052],[1161953.396477445,1923626.731810218],[1161959.6061106946,1923627.132399969],[1161960.1523694457,1923618.6645691416],[1161962.9748703574,1923618.8466553981],[1161963.1477702742,1923616.1652303094],[1161960.7488249457,1923616.0107030587],[1161960.7576831917,1923615.8715957284],[1162009.8635560947,1923616.9490213897],[1162008.9462351014,1923631.1658564685]]]},"properties":{"OBJECTID":619783,"Area_SQFT":1323.3246779754409,"Year":"2022","Height":27.32,"GlobalID":"{C06740C7-20D9-42C6-82AE-56BFE401C884}"}},{"type":"Feature","id":619980,"geometry":{"type":"Polygon","coordinates":[[[1162344.3169553205,1923624.7308299802],[1162286.1632002599,1923622.4726323907],[1162286.7225823398,1923607.1432667309],[1162293.6162693468,1923607.2279122325],[1162293.6736839251,1923602.5655199797],[1162344.577781579,1923603.4684053117],[1162344.3169553205,1923624.7308299802]]]},"properties":{"OBJECTID":619980,"Area_SQFT":1164.5314350309304,"Year":"2022","Height":28.949000000000002,"GlobalID":"{69477936-4E03-4526-BA7A-A57034236B69}"}},{"type":"Feature","id":620009,"geometry":{"type":"Polygon","coordinates":[[[1162149.0732513892,1923609.3010708115],[1162148.8137374725,1923621.280705634],[1162100.9545812304,1923620.8187643071],[1162100.9634394799,1923620.4135813876],[1162098.0828678142,1923619.6537403951],[1162094.728215737,1923619.5809058961],[1162094.8938978177,1923611.9372203904],[1162095.0727032362,1923603.6731293169],[1162098.4273553116,1923603.7459638168],[1162098.5999271518,1923595.7705860694],[1162149.3422797215,1923596.8693371525],[1162149.0732513892,1923609.3010708115]]]},"properties":{"OBJECTID":620009,"Area_SQFT":1305.880508229184,"Year":"2022","Height":31.327999999999999,"GlobalID":"{52BD975F-92E1-46AB-B5BA-B93C57397DC7}"}},{"type":"Feature","id":620011,"geometry":{"type":"Polygon","coordinates":[[[1162210.6453066983,1923599.4346207306],[1162210.9313953735,1923599.4405262268],[1162210.5042308674,1923620.7685675602],[1162193.5049210417,1923620.9257194665],[1162193.5524931208,1923618.5487557233],[1162188.9252057911,1923618.4559081399],[1162186.1443714513,1923618.4001339755],[1162186.4987014581,1923600.7006943093],[1162186.5338063804,1923598.9516820612],[1162210.6453066983,1923599.4346207306]]]},"properties":{"OBJECTID":620011,"Area_SQFT":510.86263159881645,"Year":"2022","Height":11.786,"GlobalID":"{011E0B9E-BF3D-4F66-84AB-1CDA747A8196}"}},{"type":"Feature","id":620065,"geometry":{"type":"Polygon","coordinates":[[[1162009.9272042566,1923615.9598501455],[1161960.8685753599,1923614.1550637244],[1161961.5956080193,1923602.8857293096],[1161964.4181089432,1923603.0678155604],[1161964.5729642748,1923600.6685421392],[1161969.3711830229,1923600.9782528083],[1161970.0473627697,1923590.4982868917],[1162005.0988018496,1923591.9513679801],[1162005.0082508477,1923593.3572050636],[1162011.3589599219,1923593.7669811517],[1162009.9272042566,1923615.9598501455]]]},"properties":{"OBJECTID":620065,"Area_SQFT":1077.5089613566929,"Year":"2022","Height":27.611999999999998,"GlobalID":"{792B8F7C-4C52-4BEA-ABD6-656524178F4A}"}},{"type":"Feature","id":620104,"geometry":{"type":"Polygon","coordinates":[[[1162251.0776405144,1923612.7265889023],[1162244.6734538563,1923612.5556574822],[1162229.5478279435,1923612.1517868871],[1162230.0041918654,1923599.0904613088],[1162240.9155873579,1923599.3821273989],[1162245.0130201085,1923599.8384913092],[1162250.0264615214,1923600.3968891515],[1162250.0264615247,1923601.8772011481],[1162251.3958813632,1923600.8086337324],[1162251.0776405144,1923612.7265889023]]]},"properties":{"OBJECTID":620104,"Area_SQFT":274.90311981239637,"Year":"2022","Height":11.064,"GlobalID":"{5928EA0F-14F5-4F8F-84FA-41AA9EA25F17}"}},{"type":"Feature","id":620247,"geometry":{"type":"Polygon","coordinates":[[[1162342.781853409,1923599.9956432362],[1162286.035903929,1923599.9218244853],[1162278.4325726763,1923599.8286488152],[1162278.4722707665,1923596.5760306446],[1162279.3206942589,1923596.5865293178],[1162279.5811924273,1923575.3749575666],[1162289.0555829282,1923575.4910990819],[1162289.070674767,1923574.2732537379],[1162343.0846743281,1923575.3247608198],[1162342.781853409,1923599.9956432362]]]},"properties":{"OBJECTID":620247,"Area_SQFT":1593.9393917009172,"Year":"2022","Height":41.194000000000003,"GlobalID":"{359E2F98-4848-417B-BEE1-09FDA72F1146}"}},{"type":"Feature","id":620278,"geometry":{"type":"Polygon","coordinates":[[[1162253.0067705184,1923577.3529719843],[1162251.4910255249,1923596.9992581452],[1162230.1505170318,1923597.1354127275],[1162230.711211442,1923576.951397982],[1162253.0067705184,1923577.3529719843]]]},"properties":{"OBJECTID":620278,"Area_SQFT":434.64720750460106,"Year":"2022","Height":12.630000000000001,"GlobalID":"{A9C48B67-2170-4C9B-80C1-0F6253C89F84}"}},{"type":"Feature","id":620286,"geometry":{"type":"Polygon","coordinates":[[[1162213.0727952805,1923596.3309523966],[1162212.4884788678,1923596.3148763119],[1162185.1758694546,1923595.5412558133],[1162185.1604495428,1923582.4818987332],[1162179.8756832082,1923583.3349153989],[1162179.5830328783,1923594.2171114823],[1162169.4915176311,1923593.9457865653],[1162169.4590373777,1923595.1577263852],[1162101.9529388172,1923593.342113235],[1162095.611744147,1923593.1715098966],[1162095.780707072,1923586.8959318963],[1162095.9365466526,1923581.0973870668],[1162100.2213149832,1923568.4409163189],[1162100.3079289829,1923565.2234030748],[1162119.3525103158,1923566.1269445678],[1162119.9282965597,1923567.1699214822],[1162129.2701413918,1923567.4212333194],[1162132.4446757229,1923567.5065349895],[1162145.6529826378,1923567.8618492389],[1162148.4265991324,1923567.9363241578],[1162149.6716753843,1923556.9652174909],[1162151.5985088006,1923557.0170546598],[1162151.6240992998,1923556.0616759895],[1162155.6723195554,1923551.3523678284],[1162174.7477407136,1923551.2175255769],[1162179.6532427077,1923551.3494150739],[1162179.5574423752,1923554.9156809151],[1162179.0777845453,1923572.7447134899],[1162185.3592680343,1923572.9103955687],[1162188.8838672896,1923569.4989850754],[1162189.4645747871,1923564.755228159],[1162208.9770029441,1923565.7772077434],[1162213.7417571966,1923571.455017905],[1162213.0727952805,1923596.3309523966]]]},"properties":{"OBJECTID":620286,"Area_SQFT":3587.077087707893,"Year":"2022","Height":32.594999999999999,"GlobalID":"{3B3283AD-C430-416C-8D22-3D438BF212AC}"}},{"type":"Feature","id":620337,"geometry":{"type":"Polygon","coordinates":[[[1161911.047808876,1923561.4750509879],[1161923.8151717845,1923561.7650766526],[1161923.4313142842,1923578.6803971508],[1161930.0756579521,1923578.8309874011],[1161929.9693589499,1923583.5074872323],[1161929.8338605345,1923589.4553099866],[1161921.4949664581,1923590.1587206514],[1161910.2879678763,1923589.9044560688],[1161897.8959322928,1923589.6229605661],[1161897.9874675486,1923585.5898321513],[1161898.4461280496,1923565.3772741568],[1161898.5412722172,1923561.1912589171],[1161911.047808876,1923561.4750509879]]]},"properties":{"OBJECTID":620337,"Area_SQFT":791.79948458393335,"Year":"2022","Height":19.414000000000001,"GlobalID":"{EAC66F89-D7FC-4758-AE34-505E3D608A12}"}},{"type":"Feature","id":620347,"geometry":{"type":"Polygon","coordinates":[[[1162005.3058224285,1923588.7423848973],[1161954.6044802766,1923589.2551791521],[1161948.6117101125,1923588.868368895],[1161948.711775535,1923587.3162066529],[1161935.4457259506,1923586.4602372304],[1161937.2941474523,1923557.8113444063],[1161947.7376961147,1923558.484899496],[1161947.8561341972,1923556.6502574938],[1161950.5375592781,1923556.8231574164],[1161951.0474007826,1923548.920286078],[1161949.9181379476,1923548.8474515688],[1161950.2078355304,1923544.3602558295],[1161950.7823094509,1923544.3428674177],[1161978.6487235199,1923545.036107501],[1161978.37608627,1923549.2660859125],[1161975.5535853573,1923549.0839996664],[1161975.1618538545,1923555.1525570767],[1161976.1497127735,1923555.2162052384],[1161975.9587682709,1923558.1801100764],[1161989.7891211833,1923559.0721686594],[1161989.9895801034,1923555.9675160751],[1161993.5177882689,1923556.1952059101],[1161993.3265156825,1923559.1587826575],[1162013.0843501822,1923560.4333864059],[1162011.600429255,1923583.4372774025],[1162005.6729476766,1923583.0550603119],[1162005.3058224285,1923588.7423848973]]]},"properties":{"OBJECTID":620347,"Area_SQFT":2603.7759479741849,"Year":"2022","Height":37.536999999999999,"GlobalID":"{B553A2FD-26A3-4494-90C6-69BF94D6BF01}"}},{"type":"Feature","id":620496,"geometry":{"type":"Polygon","coordinates":[[[1162340.8163061575,1923564.2460428237],[1162343.2201727531,1923564.275570319],[1162343.1017346615,1923573.9212203226],[1162291.0709988403,1923572.6023253158],[1162291.2071534235,1923561.5157333303],[1162289.6517103461,1923561.4967044897],[1162289.7402928444,1923554.2847766594],[1162290.8715241791,1923554.2985561616],[1162290.9063010043,1923551.4704778283],[1162296.9869975038,1923551.5449527465],[1162296.9994646749,1923550.5213327457],[1162340.9701772442,1923551.7162122449],[1162340.8163061575,1923564.2460428237]]]},"properties":{"OBJECTID":620496,"Area_SQFT":1131.0824997736481,"Year":"2022","Height":28.445,"GlobalID":"{D7A72612-0BD8-47A6-8897-2E3767ED8267}"}},{"type":"Feature","id":620536,"geometry":{"type":"Polygon","coordinates":[[[1162260.9732900176,1923550.7772377322],[1162260.6212566008,1923560.8923749889],[1162260.2649581011,1923571.1147954941],[1162229.6554392737,1923570.0488527401],[1162230.011409695,1923559.8264322407],[1162230.3637711953,1923549.7112949986],[1162260.9732900176,1923550.7772377322]]]},"properties":{"OBJECTID":620536,"Area_SQFT":623.28123461064422,"Year":"2022","Height":13.083,"GlobalID":"{715B1E98-8C6D-4A74-B012-25652218E7D7}"}},{"type":"Feature","id":620777,"geometry":{"type":"Polygon","coordinates":[[[1162341.1338908267,1923538.3678137541],[1162345.6591442397,1923538.4235879204],[1162345.5062574132,1923550.8677887449],[1162344.0515359105,1923550.8497441665],[1162297.0086510119,1923549.7867541618],[1162297.0355538374,1923547.5856430731],[1162289.8236260111,1923547.4970605788],[1162289.8721823441,1923543.5374228286],[1162286.4781602609,1923543.495756245],[1162286.5424645953,1923538.2638113354],[1162293.8957963409,1923538.3540342441],[1162293.9876596746,1923530.8592985831],[1162291.4423891739,1923530.8278025782],[1162291.4492789237,1923530.2621869221],[1162286.6412176765,1923530.2034599958],[1162286.6743540964,1923527.516457502],[1162298.5529392541,1923527.6621265004],[1162298.5667187541,1923526.5308951703],[1162308.1825131695,1923526.6490051732],[1162308.2015420052,1923525.1011080006],[1162341.2867776644,1923525.9124580817],[1162341.1338908267,1923538.3678137541]]]},"properties":{"OBJECTID":620777,"Area_SQFT":1273.1560369259023,"Year":"2022","Height":29.093,"GlobalID":"{C0598116-6292-47CF-83CB-1225DC1E6DE7}"}},{"type":"Feature","id":620792,"geometry":{"type":"Polygon","coordinates":[[[1162258.5969824358,1923524.9620006699],[1162258.182613187,1923537.1148634988],[1162257.773493266,1923549.1089339908],[1162230.4297159475,1923548.1761930808],[1162230.838835859,1923536.1821225842],[1162231.2535331915,1923524.0292597583],[1162258.5969824358,1923524.9620006699]]]},"properties":{"OBJECTID":620792,"Area_SQFT":661.03462981215171,"Year":"2022","Height":15.034000000000001,"GlobalID":"{4C660788-E6CE-4ABF-922F-1E8B4F216F8D}"}},{"type":"Feature","id":620833,"geometry":{"type":"Polygon","coordinates":[[[1162203.8119870343,1923545.1417503271],[1162190.4179849578,1923544.6187854924],[1162190.5265805405,1923541.8349984167],[1162190.708338707,1923537.1788397436],[1162190.7224462905,1923536.8166357398],[1162190.7634567071,1923535.7677533254],[1162190.7844540456,1923535.2333055842],[1162190.8225117037,1923534.2559453337],[1162190.9268422076,1923531.5856750866],[1162191.5232977059,1923528.2500518288],[1162186.8687794569,1923528.0679655899],[1162186.2070353688,1923523.271387246],[1162213.309999529,1923523.7041291674],[1162213.1981231086,1923544.1210830871],[1162208.6102057837,1923543.9419495808],[1162207.1600774461,1923543.8851911691],[1162206.9271382864,1923543.8760048288],[1162206.0232687017,1923543.8408999096],[1162203.8661207857,1923543.7565825055],[1162203.8119870343,1923545.1417503271]]]},"properties":{"OBJECTID":620833,"Area_SQFT":491.59729822606874,"Year":"2022","Height":22.494,"GlobalID":"{DA71617B-C77D-4A00-B83C-FA7CEBE6EAE7}"}},{"type":"Feature","id":620851,"geometry":{"type":"Polygon","coordinates":[[[1162112.2340862309,1923521.5233592528],[1162117.2806640603,1923521.5604326725],[1162118.8485743159,1923521.5722436735],[1162120.505395147,1923521.5843827503],[1162123.08609865,1923521.6034115872],[1162132.9476274741,1923521.6759180033],[1162141.1109969774,1923522.1762450843],[1162145.2661723881,1923522.2067568314],[1162153.6188459699,1923522.2681084154],[1162157.6365544654,1923522.2976359208],[1162157.6283523822,1923523.4157439137],[1162173.4518115455,1923523.5322135014],[1162176.9432743734,1923524.8274865022],[1162176.8789700477,1923533.5584401696],[1162176.8021985451,1923543.9993641658],[1162173.5873099612,1923543.9757421601],[1162172.0134942119,1923543.9642592382],[1162165.8534015487,1923543.9189837368],[1162163.6152170449,1923543.9025795755],[1162154.894105884,1923543.8382752521],[1162153.0716029683,1923543.6017271634],[1162147.6762725539,1923543.5620290819],[1162146.7576392205,1923543.5554674137],[1162146.2327058923,1923543.5515304143],[1162145.8511449718,1923543.548577664],[1162142.9594184661,1923543.5272522441],[1162140.9312073062,1923543.5124884867],[1162123.0585396441,1923543.1096021542],[1162113.61564515,1923542.1985147444],[1162111.5634839013,1923542.1834229222],[1162102.311205809,1923542.1155096523],[1162102.4214418139,1923527.1680330022],[1162102.4634364848,1923521.4515090026],[1162112.2340862309,1923521.5233592528]]]},"properties":{"OBJECTID":620851,"Area_SQFT":1564.6014077283273,"Year":"2022","Height":40.713000000000001,"GlobalID":"{6231525D-5D7F-46B0-8CE5-AB77E5193825}"}},{"type":"Feature","id":620857,"geometry":{"type":"Polygon","coordinates":[[[1162021.8513930065,1923543.1601270037],[1162012.929166757,1923543.0705602518],[1162012.9432743432,1923542.8517286591],[1161998.6893658466,1923541.9321110717],[1161998.6250615125,1923542.9268597485],[1161990.9515204334,1923542.8497601619],[1161978.8403241907,1923542.0685937474],[1161978.7976733539,1923542.7277131653],[1161950.3315229476,1923542.441952579],[1161950.3462866971,1923542.2142627416],[1161951.8987770265,1923542.3143281625],[1161952.0716769453,1923539.6329030811],[1161949.8134793574,1923539.4872340758],[1161951.1064557745,1923519.4472479229],[1161967.7596376913,1923520.5217208334],[1161967.9269601894,1923517.9295344218],[1162019.0347975914,1923518.7231680036],[1162018.2697072621,1923530.58272433],[1162020.1043492579,1923530.7011624158],[1162020.0042838384,1923532.253324664],[1162022.5446330896,1923532.4173663331],[1162021.8513930065,1923543.1601270037]]]},"properties":{"OBJECTID":620857,"Area_SQFT":1663.5445739295421,"Year":"2022","Height":29.795000000000002,"GlobalID":"{60CF8339-34D7-4EC6-9C36-33A25D866648}"}},{"type":"Feature","id":620881,"geometry":{"type":"Polygon","coordinates":[[[1161933.6635772809,1923538.9918282593],[1161933.6684985361,1923541.1358528233],[1161918.603239954,1923541.1696454133],[1161902.4608837976,1923541.2060626633],[1161902.4559625438,1923539.0620380789],[1161902.444151544,1923533.8015499103],[1161903.8493324616,1923533.7985971645],[1161904.8942778765,1923527.9741337486],[1161902.3647553783,1923527.979711171],[1161902.3388367982,1923516.3881989201],[1161904.8680312084,1923516.3822934215],[1161923.6048703678,1923516.3402987572],[1161928.5080757868,1923516.3291439197],[1161933.6127243699,1923516.3176610074],[1161933.6635772809,1923538.9918282593]]]},"properties":{"OBJECTID":620881,"Area_SQFT":764.02540713899828,"Year":"2022","Height":15.01,"GlobalID":"{AE4FC8C8-53AE-4CEE-919D-8B51281D5557}"}},{"type":"Feature","id":621081,"geometry":{"type":"Polygon","coordinates":[[[1162340.550886746,1923516.7218596765],[1162343.6621009924,1923516.7599173323],[1162343.5646602474,1923524.6745996722],[1162308.2205708376,1923523.5623971641],[1162308.2468175017,1923521.4167321664],[1162294.6713853416,1923521.2500658354],[1162294.9404136732,1923499.3386923489],[1162347.2569100726,1923500.4062755129],[1162347.1269890764,1923511.003695257],[1162343.1676794125,1923510.955138922],[1162343.145041662,1923512.7933898391],[1162340.5994430722,1923512.7622219254],[1162340.550886746,1923516.7218596765]]]},"properties":{"OBJECTID":621081,"Area_SQFT":1173.0260290869141,"Year":"2022","Height":30.280000000000001,"GlobalID":"{87E167D0-1839-49D6-980B-AACB36D84BDA}"}},{"type":"Feature","id":621105,"geometry":{"type":"Polygon","coordinates":[[[1162213.3191858672,1923522.0007205005],[1162187.2299992091,1923521.6916659996],[1162187.8300636236,1923520.4072197552],[1162188.3923984573,1923513.0125495044],[1162186.5239638728,1923512.939715002],[1162186.8156299584,1923505.4735225972],[1162188.1568346228,1923505.526015928],[1162188.256243875,1923502.97713651],[1162184.1611077136,1923502.8173599301],[1162184.41799696,1923496.2356801762],[1162184.4216058755,1923496.1454572657],[1162213.4822432848,1923495.9692765083],[1162213.4537000339,1923497.3695361773],[1162213.3191858672,1923522.0007205005]]]},"properties":{"OBJECTID":621105,"Area_SQFT":689.46583379603771,"Year":"2022","Height":22.774999999999999,"GlobalID":"{A285210E-B206-4D1A-A8C8-E26886B85357}"}},{"type":"Feature","id":621124,"geometry":{"type":"Polygon","coordinates":[[[1162161.2165998067,1923519.8898323283],[1162156.4574229645,1923519.7763155035],[1162114.3761423079,1923518.773692844],[1162114.4433993988,1923515.9449583378],[1162108.9919667311,1923515.704473254],[1162108.9411138212,1923517.8402957586],[1162105.3394149826,1923517.7543379241],[1162102.9585142257,1923517.6975795026],[1162104.1809527338,1923505.0096127645],[1162104.1858739799,1923495.8787255106],[1162103.5077257319,1923495.8009697543],[1162175.8963604595,1923496.6989338512],[1162176.5065954628,1923496.7133695178],[1162177.2762789596,1923496.7317421772],[1162176.7329729612,1923519.5377989213],[1162175.6086313785,1923519.5108960883],[1162161.2165998067,1923519.8898323283]]]},"properties":{"OBJECTID":621124,"Area_SQFT":1666.9540460965727,"Year":"2022","Height":34.927999999999997,"GlobalID":"{299C0AA5-A6BB-46AA-BEC7-E48FA5CBFFFC}"}},{"type":"Feature","id":621153,"geometry":{"type":"Polygon","coordinates":[[[1162019.0948368439,1923517.7933798288],[1161968.0047159414,1923516.721531583],[1161968.0601620288,1923515.864249828],[1161961.8505287836,1923515.4636600881],[1161962.8793981082,1923499.5161854238],[1161967.9597685249,1923499.843940669],[1161968.4738751084,1923491.8774211786],[1162020.6279702608,1923494.0312882517],[1162019.0948368439,1923517.7933798288]]]},"properties":{"OBJECTID":621153,"Area_SQFT":1350.620486907035,"Year":"2022","Height":30.146999999999998,"GlobalID":"{3D32CD8C-12FB-4A53-9C7A-270A31ED520D}"}},{"type":"Feature","id":621338,"geometry":{"type":"Polygon","coordinates":[[[1162241.8050212767,1923501.5007615094],[1162241.7889451936,1923502.7336986747],[1162235.8378416128,1923502.6559429204],[1162235.890663031,1923498.5870534277],[1162232.6163913603,1923498.5444026024],[1162232.7705905233,1923486.7435731818],[1162232.9185561121,1923475.3938583483],[1162259.7682399366,1923475.7134115156],[1162259.6196181856,1923487.0942942603],[1162259.4654190191,1923498.8947955999],[1162244.5760131069,1923498.7005702695],[1162241.8050212767,1923501.5007615094]]]},"properties":{"OBJECTID":621338,"Area_SQFT":650.18794265307224,"Year":"2022","Height":15.913,"GlobalID":"{77EBD489-EB77-4C25-96F6-00FD46D9B1F4}"}},{"type":"Feature","id":621387,"geometry":{"type":"Polygon","coordinates":[[[1162345.8691175748,1923498.2592981777],[1162347.2831567416,1923498.2766865899],[1162347.2674087465,1923499.5529307588],[1162294.9518965916,1923498.4092322618],[1162294.9561616746,1923498.0588392669],[1162293.5417944242,1923498.0414508453],[1162293.620206343,1923491.6779465158],[1162295.7412650911,1923491.7041931779],[1162295.9289287606,1923476.3977933524],[1162343.0121679129,1923477.5264000113],[1162342.8537036621,1923490.443697019],[1162345.9645898261,1923490.4817546825],[1162345.8691175748,1923498.2592981777]]]},"properties":{"OBJECTID":621387,"Area_SQFT":1078.6895847626047,"Year":"2022","Height":43.642000000000003,"GlobalID":"{89542070-57AE-48F7-9DCC-2A1BB8DDAD49}"}},{"type":"Feature","id":621452,"geometry":{"type":"Polygon","coordinates":[[[1162213.5117707839,1923494.5194762584],[1162184.4852540442,1923494.5194762568],[1162184.7178651232,1923488.5654199326],[1162190.5787457905,1923488.794094014],[1162191.0879311222,1923475.7609836014],[1162213.8874262013,1923476.0405106079],[1162213.5117707839,1923494.5194762584]]]},"properties":{"OBJECTID":621452,"Area_SQFT":462.17856489795298,"Year":"2022","Height":11.547000000000001,"GlobalID":"{F2BADCE0-BBEA-4EE4-8E81-6DBFF834A19A}"}},{"type":"Feature","id":621456,"geometry":{"type":"Polygon","coordinates":[[[1162145.6585600523,1923484.0755995167],[1162145.5253582194,1923489.6730292551],[1162149.5801401441,1923489.7694857616],[1162149.4705602967,1923494.3590435078],[1162096.0697484834,1923493.4285991839],[1162093.5474438199,1923475.0841476826],[1162091.4972510701,1923475.3662993505],[1162091.0789448258,1923472.3233264238],[1162092.6514482393,1923472.1071195155],[1162092.2800579011,1923469.4056813538],[1162094.5599089814,1923468.9184776007],[1162097.5648242345,1923468.5050926001],[1162099.4362115725,1923468.2478752667],[1162101.0316808163,1923467.4663807689],[1162101.3469689034,1923469.7593551904],[1162104.4211097306,1923469.3367838471],[1162104.6537208196,1923471.0300219313],[1162121.5322959765,1923471.4073177625],[1162122.864970474,1923471.4391418609],[1162126.9154873097,1923471.535598353],[1162133.9236753928,1923471.7025927696],[1162135.3649454722,1923471.7370415211],[1162145.0657134701,1923472.4476700197],[1162149.3130803071,1923472.5487196778],[1162149.0584876344,1923483.2373466005],[1162145.6805416408,1923483.1566380959],[1162145.6585600523,1923484.0755995167]]]},"properties":{"OBJECTID":621456,"Area_SQFT":1233.4123249255365,"Year":"2022","Height":30.023,"GlobalID":"{54F25F94-5869-43B3-8144-052D31B7E1DC}"}},{"type":"Feature","id":621478,"geometry":{"type":"Polygon","coordinates":[[[1162016.7224662639,1923468.897152184],[1162015.8432029283,1923482.5263900165],[1162018.9481835912,1923482.7265208529],[1162018.3431979264,1923492.1037986779],[1161966.0431056921,1923490.9338535056],[1161942.6980080281,1923489.4279510167],[1161944.1524014475,1923466.8860013513],[1162016.7224662639,1923468.897152184]]]},"properties":{"OBJECTID":621478,"Area_SQFT":1714.0598557923411,"Year":"2022","Height":31.959,"GlobalID":"{B3A2D750-70E3-4929-A1C0-EED2C7E4D516}"}},{"type":"Feature","id":621657,"geometry":{"type":"Polygon","coordinates":[[[1162343.039070745,1923475.3390684361],[1162295.9538630948,1923474.363676687],[1162289.6415397581,1923474.2330995153],[1162288.3183796762,1923474.2166953534],[1162288.4105710946,1923466.7219596934],[1162280.0670838447,1923466.6195976841],[1162280.0985798493,1923464.0743271958],[1162278.2600008461,1923464.0516894283],[1162278.3000270179,1923460.799399364],[1162280.2796818411,1923460.8236775273],[1162280.3892616779,1923451.9145746101],[1162289.2107663443,1923452.0231701978],[1162290.2878639284,1923452.0362935369],[1162345.8625559129,1923452.7055835286],[1162345.7756138279,1923459.788574605],[1162343.2300152453,1923459.7574066794],[1162343.039070745,1923475.3390684361]]]},"properties":{"OBJECTID":621657,"Area_SQFT":1372.9974354649335,"Year":"2022","Height":36.280999999999999,"GlobalID":"{CBCAF22D-3D03-475D-83A6-F01970B255C3}"}},{"type":"Feature","id":621682,"geometry":{"type":"Polygon","coordinates":[[[1162256.3738897729,1923451.2830141948],[1162256.1357012729,1923468.5667722705],[1162256.0943627711,1923471.7413066041],[1162256.0687722682,1923473.6881531018],[1162232.2938854469,1923473.8233234389],[1162232.5924412776,1923450.9716631083],[1162256.3738897729,1923451.2830141948]]]},"properties":{"OBJECTID":621682,"Area_SQFT":538.05731365869144,"Year":"2022","Height":12.353,"GlobalID":"{F9FE0210-3F1C-4596-918A-CF280FB62907}"}},{"type":"Feature","id":621768,"geometry":{"type":"Polygon","coordinates":[[[1162018.2562558432,1923445.1275146934],[1162016.8117049325,1923467.5159213545],[1161957.2859053642,1923465.403392775],[1161958.7320966967,1923442.9877552008],[1161988.6510001053,1923444.917869444],[1161988.7602518487,1923443.2243032707],[1162018.2562558432,1923445.1275146934]]]},"properties":{"OBJECTID":621768,"Area_SQFT":1336.1990690963983,"Year":"2022","Height":38.499000000000002,"GlobalID":"{49852E0C-4CE8-44F5-BEB7-819C701C72BF}"}},{"type":"Feature","id":621835,"geometry":{"type":"Polygon","coordinates":[[[1162174.0449862082,1923461.2715112688],[1162173.99478946,1923462.9194738448],[1162162.1434352158,1923462.5595664482],[1162158.8196229653,1923462.4588448526],[1162131.6618688926,1923461.6346995176],[1162125.2439027319,1923460.617641188],[1162121.7695002269,1923460.5123264331],[1162107.8351449037,1923461.2597002764],[1162103.119931231,1923461.1166559334],[1162103.7701924001,1923439.6911738608],[1162103.8171083182,1923438.1390116191],[1162109.7219521473,1923438.3184731936],[1162109.6747081475,1923439.8703073573],[1162110.0700485662,1923437.5651938675],[1162122.2179901458,1923437.9336314488],[1162144.6237852185,1923438.6137482014],[1162174.7047618036,1923439.5264760247],[1162174.1496447937,1923457.8256520289],[1162174.0449862082,1923461.2715112688]]]},"properties":{"OBJECTID":621835,"Area_SQFT":1647.2006447716644,"Year":"2022","Height":41.805,"GlobalID":"{8234BA59-2E8D-4977-B7F4-809E04EF8A46}"}},{"type":"Feature","id":621836,"geometry":{"type":"Polygon","coordinates":[[[1162216.1167524522,1923458.0556384432],[1162216.0015951993,1923462.8305632703],[1162209.3680782879,1923462.6701305218],[1162193.8451434539,1923462.2951312594],[1162194.0347756248,1923454.4437690163],[1162192.365487623,1923454.4034147749],[1162192.4156843729,1923452.3325527781],[1162192.464240713,1923450.3164806848],[1162194.1335287062,1923450.3568349332],[1162194.3589219602,1923441.0271291989],[1162195.9707953676,1923441.0661711055],[1162196.0167270394,1923439.1527891161],[1162217.0445721243,1923438.8995087745],[1162216.1167524522,1923458.0556384432]]]},"properties":{"OBJECTID":621836,"Area_SQFT":529.75193993516314,"Year":"2022","Height":22.297999999999998,"GlobalID":"{01C89DC8-5A41-407D-8171-49C22DFC1E4A}"}},{"type":"Feature","id":622009,"geometry":{"type":"Polygon","coordinates":[[[1162345.8920834088,1923450.2958114364],[1162296.2616052583,1923449.3089367717],[1162296.3537966779,1923441.7859859415],[1162288.9742182589,1923441.6954349419],[1162289.1484305072,1923438.3033813681],[1162289.5660805956,1923430.1780695328],[1162289.610371843,1923426.5622631086],[1162344.4636085758,1923428.4074037804],[1162344.4344091653,1923430.7787901002],[1162346.131256161,1923430.799459371],[1162346.0669518257,1923436.0317323625],[1162348.6125504067,1923436.0629002773],[1162348.4718026568,1923447.517273691],[1162345.9265321603,1923447.4861057752],[1162345.8920834088,1923450.2958114364]]]},"properties":{"OBJECTID":622009,"Area_SQFT":1232.8649272930832,"Year":"2022","Height":28.209,"GlobalID":"{E1307B41-629D-4542-8275-D68C306B3DDA}"}},{"type":"Feature","id":622039,"geometry":{"type":"Polygon","coordinates":[[[1162253.1560484436,1923427.4024845366],[1162254.2580803544,1923427.4293873629],[1162253.7649711091,1923447.8250158564],[1162233.7098931125,1923447.3401086961],[1162233.5511007719,1923426.9287322019],[1162253.1560484436,1923427.4024845366]]]},"properties":{"OBJECTID":622039,"Area_SQFT":415.92941361357782,"Year":"2022","Height":11.545,"GlobalID":"{5A5D34A9-C9D1-46D9-89D0-18DF8CB1771B}"}},{"type":"Feature","id":622169,"geometry":{"type":"Polygon","coordinates":[[[1162216.3362401982,1923412.6564510318],[1162216.044574115,1923424.7236841235],[1162215.7739053674,1923435.9208401931],[1162190.9990205353,1923436.3824534477],[1162191.294951706,1923424.1255882035],[1162191.5764472056,1923412.4822387891],[1162216.3362401982,1923412.6564510318]]]},"properties":{"OBJECTID":622169,"Area_SQFT":583.9914791309817,"Year":"2022","Height":15.259,"GlobalID":"{9D62CC43-3969-4C16-948E-19D2402ABC58}"}},{"type":"Feature","id":622205,"geometry":{"type":"Polygon","coordinates":[[[1162160.7379262159,1923421.3119455364],[1162160.3937668006,1923434.2413816135],[1162141.2113904778,1923433.730555865],[1162122.3062445663,1923433.2272760312],[1162102.1117311511,1923432.6895474498],[1162097.8909390704,1923432.5773429477],[1162098.3541927361,1923415.1702255285],[1162102.575312899,1923415.2827581174],[1162102.8010342338,1923406.8047567112],[1162119.3078909793,1923407.2443883684],[1162121.1661549737,1923407.293928951],[1162121.2432545633,1923404.4061394532],[1162131.9509103042,1923404.6912438737],[1162131.8738107241,1923407.579033368],[1162140.0394768105,1923407.7962245354],[1162161.0026894677,1923408.3546223713],[1162160.7379262159,1923421.3119455364]]]},"properties":{"OBJECTID":622205,"Area_SQFT":1613.6282348578181,"Year":"2022","Height":37.082999999999998,"GlobalID":"{2F955E3E-0D1B-431B-BD4E-3B35B8E7CF12}"}},{"type":"Feature","id":622277,"geometry":{"type":"Polygon","coordinates":[[[1161929.080581204,1923401.0029310398],[1161928.154073874,1923411.9021874552],[1161927.9414758703,1923414.4054632802],[1161933.679981451,1923414.893323194],[1161933.1990112874,1923420.5517764452],[1161932.9214527856,1923423.8191583629],[1161931.0218502856,1923428.3713146017],[1161926.4657570357,1923427.9838482016],[1161923.7863004541,1923427.7561583661],[1161915.2512125431,1923427.0310942002],[1161904.1639643773,1923426.0888388676],[1161904.8394879606,1923418.1420043632],[1161905.1282012959,1923414.7443733693],[1161905.5839090424,1923411.985520622],[1161903.7600937951,1923408.6190575326],[1161904.5058272099,1923399.8398756257],[1161916.7101991253,1923400.8769470383],[1161927.2390494533,1923400.8467633664],[1161929.080581204,1923401.0029310398]]]},"properties":{"OBJECTID":622277,"Area_SQFT":695.00804171837478,"Year":"2022","Height":20.016999999999999,"GlobalID":"{CD9C5333-4E1E-4F6E-BCD2-71B449A2F171}"}},{"type":"Feature","id":622299,"geometry":{"type":"Polygon","coordinates":[[[1162014.6060006751,1923427.1793878644],[1161940.3945349525,1923424.9018333578],[1161940.8502426997,1923410.0596714506],[1161943.1117211205,1923410.1288970348],[1161943.5241218649,1923396.700118127],[1161980.9830364322,1923397.8497221246],[1161981.022078356,1923396.5777430411],[1161983.001077021,1923396.6384384544],[1161983.1086883524,1923393.1302433701],[1162019.1650466772,1923393.8874597095],[1162019.1332226007,1923394.9176413838],[1162015.5994370121,1923394.8090457933],[1162014.6060006751,1923427.1793878644]]]},"properties":{"OBJECTID":622299,"Area_SQFT":2236.3992729174911,"Year":"2022","Height":40.725000000000001,"GlobalID":"{D6325E6B-D635-4449-A54C-9F618F717411}"}},{"type":"Feature","id":622315,"geometry":{"type":"Polygon","coordinates":[[[1162344.4996977441,1923425.4684332847],[1162289.6425240103,1923423.9490793648],[1162289.7406209302,1923415.9641872055],[1162287.7609660921,1923415.9399090342],[1162287.8492205094,1923408.7279812128],[1162290.1120112597,1923408.7558682866],[1162290.1832053496,1923402.9583077079],[1162344.7677418275,1923403.6200517963],[1162344.4996977441,1923425.4684332847]]]},"properties":{"OBJECTID":622315,"Area_SQFT":1188.1478886048606,"Year":"2022","Height":37.750999999999998,"GlobalID":"{9D7BAECC-A864-4703-AA29-2BD3D965A452}"}},{"type":"Feature","id":622330,"geometry":{"type":"Polygon","coordinates":[[[1162239.8375055233,1923402.0721546316],[1162246.3036999439,1923402.3005006264],[1162257.1560404382,1923402.683373872],[1162256.3942309355,1923424.2666640386],[1162245.5422185219,1923423.8788695366],[1162239.0760241111,1923423.6508516083],[1162233.3135684421,1923423.4520331158],[1162234.0750498578,1923401.8687429603],[1162239.8375055233,1923402.0721546316]]]},"properties":{"OBJECTID":622330,"Area_SQFT":498.70986789916662,"Year":"2022","Height":16.015999999999998,"GlobalID":"{BCA0B465-E730-40A8-9356-21231C741088}"}},{"type":"Feature","id":622542,"geometry":{"type":"Polygon","coordinates":[[[1162214.6607186126,1923404.6046298766],[1162205.7893452886,1923404.5514803808],[1162205.8185447056,1923403.3356035431],[1162194.3894337071,1923403.3050917836],[1162194.4396304535,1923401.2335736258],[1162195.6305729549,1923388.4009221331],[1162195.6561634548,1923387.3376040463],[1162195.653538788,1923383.6942386257],[1162195.8677772016,1923374.8179440487],[1162199.9511023732,1923374.9163690531],[1162201.4730809536,1923372.4521351322],[1162219.3588719531,1923372.8993127136],[1162218.6160912842,1923403.6446580349],[1162216.5439169528,1923403.594789366],[1162214.6863091192,1923403.5498419546],[1162214.6607186126,1923404.6046298766]]]},"properties":{"OBJECTID":622542,"Area_SQFT":726.14563800889619,"Year":"2022","Height":13.637,"GlobalID":"{149836D3-EFC9-45EF-9830-74EC4B495BBB}"}},{"type":"Feature","id":622572,"geometry":{"type":"Polygon","coordinates":[[[1162174.7930162097,1923401.8411839609],[1162112.0208320669,1923400.3001765406],[1162112.1976689829,1923393.0898891201],[1162107.9565357352,1923392.9858867074],[1162108.3000389782,1923378.9895236252],[1162111.8344807348,1923379.076137631],[1162112.0159108092,1923371.6854043868],[1162176.6607946258,1923371.8540392206],[1162176.6319232895,1923373.0279213819],[1162178.8940578783,1923373.0833674665],[1162178.7205017989,1923380.1522509723],[1162175.6102717984,1923380.0758075509],[1162175.2247738789,1923395.7690176244],[1162177.4869084619,1923395.8244637072],[1162177.3792971312,1923400.2073289566],[1162174.8346827975,1923400.1446650387],[1162174.7930162097,1923401.8411839609]]]},"properties":{"OBJECTID":622572,"Area_SQFT":1945.9725512071125,"Year":"2022","Height":32.881,"GlobalID":"{1B98CAE5-3EEB-4AB4-B65B-12EA208C0194}"}},{"type":"Feature","id":622582,"geometry":{"type":"Polygon","coordinates":[[[1162346.2106523288,1923378.2372285461],[1162346.1850618285,1923380.3090748047],[1162347.7408329928,1923380.3281036296],[1162347.4898492445,1923400.7476822049],[1162290.2140451756,1923400.4284571293],[1162290.2297931779,1923399.13974579],[1162284.8564443486,1923399.0738010437],[1162285.1248165129,1923377.1962201325],[1162346.2106523288,1923378.2372285461]]]},"properties":{"OBJECTID":622582,"Area_SQFT":1420.977223008774,"Year":"2022","Height":31.390000000000001,"GlobalID":"{4F27CDCD-B791-4E03-9E0A-CEFDE373633D}"}},{"type":"Feature","id":622622,"geometry":{"type":"Polygon","coordinates":[[[1162260.6242093521,1923374.8579702219],[1162259.8856937694,1923396.632204877],[1162235.3516221056,1923395.8001855405],[1162235.4037873647,1923394.2621308742],[1162235.75352419,1923373.8202426322],[1162260.6242093521,1923374.8579702219]]]},"properties":{"OBJECTID":622622,"Area_SQFT":540.68497821670871,"Year":"2022","Height":11.125,"GlobalID":"{457841E6-7936-46BD-B0CD-C7C538362D13}"}},{"type":"Feature","id":622668,"geometry":{"type":"Polygon","coordinates":[[[1162021.3714070886,1923391.135168629],[1161969.4551723595,1923390.4215873727],[1161963.672047449,1923390.2440942838],[1161964.1143037777,1923375.8261441274],[1161961.7114214434,1923375.7523253704],[1161961.7763819396,1923373.6319227999],[1161957.2530970275,1923373.4931435501],[1161957.3528343642,1923370.2418377239],[1161963.996521858,1923370.4459055504],[1161964.044093943,1923368.8907905496],[1161965.8820167738,1923368.9472208878],[1161965.9643656921,1923366.2615307174],[1161964.2681748604,1923366.2096935539],[1161964.2780173577,1923365.8934212159],[1162022.11189118,1923367.0161223812],[1162021.3714070886,1923391.135168629]]]},"properties":{"OBJECTID":622668,"Area_SQFT":1425.415442714909,"Year":"2022","Height":29.946000000000002,"GlobalID":"{FEB35EC5-6BCE-41C8-A2F8-F68DBEE62292}"}},{"type":"Feature","id":622799,"geometry":{"type":"Polygon","coordinates":[[[1162311.5899866715,1923352.4465977284],[1162346.0912299985,1923353.4085380577],[1162346.0735134985,1923354.8498081367],[1162348.4773800736,1923354.8793356374],[1162348.2306614078,1923374.9796891378],[1162289.9794655936,1923373.4557420462],[1162290.2402918462,1923352.1844591424],[1162311.5899866715,1923352.4465977284]]]},"properties":{"OBJECTID":622799,"Area_SQFT":1248.9892794743857,"Year":"2022","Height":37.898000000000003,"GlobalID":"{1D028567-62AB-4161-A606-6928E81F1BED}"}},{"type":"Feature","id":622815,"geometry":{"type":"Polygon","coordinates":[[[1162260.0385806048,1923350.4436489739],[1162259.6294606868,1923361.9078648898],[1162267.1501149337,1923363.5312212182],[1162266.7967691857,1923373.4340885533],[1162236.1183528649,1923372.3392744686],[1162236.5202549482,1923361.0830633813],[1162236.9293748636,1923349.6191755601],[1162260.0385806048,1923350.4436489739]]]},"properties":{"OBJECTID":622815,"Area_SQFT":605.89383561805948,"Year":"2022","Height":10.653,"GlobalID":"{9192B0AA-8018-4E4D-8B59-1BB3E93C1E21}"}},{"type":"Feature","id":622833,"geometry":{"type":"Polygon","coordinates":[[[1162218.398900117,1923351.6847882224],[1162218.1213416154,1923363.174266547],[1162219.3303286929,1923371.3599457154],[1162202.1738669553,1923371.0961667125],[1162202.4120554547,1923361.2425118904],[1162202.6518843696,1923351.3042115564],[1162218.398900117,1923351.6847882224]]]},"properties":{"OBJECTID":622833,"Area_SQFT":316.49495727795704,"Year":"2022","Height":11.696999999999999,"GlobalID":"{E43347E6-8D58-40EC-9562-588F0C3D9399}"}},{"type":"Feature","id":622843,"geometry":{"type":"Polygon","coordinates":[[[1162108.0858005637,1923347.3727889711],[1162157.5837330515,1923347.9669478892],[1162157.5427226329,1923349.6421413841],[1162163.338970881,1923349.7842014725],[1162163.1614777953,1923357.020407462],[1162162.6801795491,1923370.7100126296],[1162112.0398608942,1923370.7100126357],[1162112.0497033997,1923370.3107352075],[1162106.4384941449,1923370.1729402191],[1162107.2281907352,1923348.2655037199],[1162107.2606709793,1923347.3629464731],[1162108.0858005637,1923347.3727889711]]]},"properties":{"OBJECTID":622843,"Area_SQFT":1281.3307952244597,"Year":"2022","Height":29.065999999999999,"GlobalID":"{0676D7D1-D378-4456-AC90-F3543C33B7B4}"}},{"type":"Feature","id":622900,"geometry":{"type":"Polygon","coordinates":[[[1162022.8589369238,1923342.667417791],[1162022.16536876,1923365.2733437147],[1161964.3137784461,1923364.7310219617],[1161965.0365460236,1923341.1670927166],[1162022.8589369238,1923342.667417791]]]},"properties":{"OBJECTID":622900,"Area_SQFT":1335.8860087389119,"Year":"2022","Height":28.693000000000001,"GlobalID":"{17DD056F-E919-4373-84B0-D0AE3EF4FBC8}"}},{"type":"Feature","id":622917,"geometry":{"type":"Polygon","coordinates":[[[1161932.8023585419,1923342.3160405518],[1161932.3374644546,1923362.4813545519],[1161932.3039999548,1923363.940341132],[1161906.6357442099,1923363.3488068769],[1161908.0957150445,1923343.0237163119],[1161908.125242542,1923341.747472144],[1161932.8023585419,1923342.3160405518]]]},"properties":{"OBJECTID":622917,"Area_SQFT":543.99590840996439,"Year":"2022","Height":10.404999999999999,"GlobalID":"{7AC04EE3-F7CF-4A6F-ADA6-728235A4A933}"}},{"type":"Feature","id":623069,"geometry":{"type":"Polygon","coordinates":[[[1162348.683416408,1923326.5696809846],[1162348.4170127439,1923348.2543488888],[1162325.0870069123,1923347.7559903073],[1162325.0883192478,1923347.6621584783],[1162314.7835498299,1923347.5358463922],[1162296.6644915873,1923347.3134058854],[1162296.9230212618,1923326.2540648167],[1162348.683416408,1923326.5696809846]]]},"properties":{"OBJECTID":623069,"Area_SQFT":1103.0526177678109,"Year":"2022","Height":35.509,"GlobalID":"{B66D1F6E-64CF-4ABC-A114-66F92DC21A1D}"}},{"type":"Feature","id":623077,"geometry":{"type":"Polygon","coordinates":[[[1162217.8106467028,1923323.7104347313],[1162217.5324320348,1923335.7569985574],[1162217.2601228643,1923347.5420799674],[1162192.5377313774,1923346.9708868859],[1162192.6876654571,1923340.4771334769],[1162192.6450146262,1923330.1018261465],[1162192.8061035406,1923323.132679977],[1162217.8106467028,1923323.7104347313]]]},"properties":{"OBJECTID":623077,"Area_SQFT":592.9235118305553,"Year":"2022","Height":15.298999999999999,"GlobalID":"{618A1412-2C70-482F-844E-6DA52322B236}"}},{"type":"Feature","id":623086,"geometry":{"type":"Polygon","coordinates":[[[1162157.6070269651,1923347.0240363877],[1162108.1209054838,1923345.9423456446],[1162108.2508264836,1923340.6513457207],[1162105.4234043194,1923340.5821201375],[1162105.8223536504,1923324.3236224807],[1162109.2153914794,1923324.4066275721],[1162109.2298271495,1923323.8216549887],[1162147.698582222,1923324.2101056355],[1162147.6706951403,1923325.3508513963],[1162157.8498086378,1923325.6008508937],[1162157.7700843837,1923328.8524848146],[1162160.5325460481,1923328.9203980672],[1162160.5003938822,1923331.6074005531],[1162160.2487539651,1923331.6011669689],[1162160.0092531361,1923341.3560687206],[1162157.7474466339,1923341.3006226432],[1162157.6070269651,1923347.0240363877]]]},"properties":{"OBJECTID":623086,"Area_SQFT":1170.7433587704058,"Year":"2022","Height":30.295999999999999,"GlobalID":"{B3C387D4-BC77-498F-A8FD-184B4870D2D6}"}},{"type":"Feature","id":623108,"geometry":{"type":"Polygon","coordinates":[[[1162260.6274901882,1923345.032570556],[1162237.7190714465,1923344.7514031415],[1162237.982850444,1923323.2566954806],[1162243.1918295235,1923323.3206717325],[1162250.9926669416,1923323.4164720627],[1162251.0166170264,1923321.4676570608],[1162256.6714613498,1923321.6510556599],[1162256.6419338526,1923324.051641393],[1162261.3085911917,1923324.1087278978],[1162261.2390375214,1923329.7652126465],[1162263.9125886017,1923329.7980209731],[1162262.9562256832,1923343.3639387197],[1162260.6481594397,1923343.3353954733],[1162260.6274901882,1923345.032570556]]]},"properties":{"OBJECTID":623108,"Area_SQFT":539.88140007518109,"Year":"2022","Height":12.534000000000001,"GlobalID":"{FADD90CA-40C1-4957-993A-9DEBB25152B8}"}},{"type":"Feature","id":623145,"geometry":{"type":"Polygon","coordinates":[[[1161934.4900192029,1923316.3987695728],[1161934.1852297857,1923328.634637472],[1161933.8745348721,1923341.1205048831],[1161906.8463737136,1923340.4479340524],[1161907.1573967126,1923327.9620666397],[1161907.4618580448,1923315.7261987415],[1161934.4900192029,1923316.3987695728]]]},"properties":{"OBJECTID":623145,"Area_SQFT":668.59294816928241,"Year":"2022","Height":12.500999999999999,"GlobalID":"{F52D52AA-B1C1-497C-B105-88C48E5A0C95}"}},{"type":"Feature","id":623146,"geometry":{"type":"Polygon","coordinates":[[[1162022.7506694277,1923323.1526930591],[1162023.4573609265,1923323.1743465608],[1162022.9065090057,1923341.1126308923],[1161965.0805091916,1923339.7317281379],[1161965.2527529376,1923334.1218312299],[1161964.2632536099,1923334.0916475577],[1161964.6884496047,1923320.2389849823],[1161966.6674482776,1923320.2996803962],[1161966.8006501079,1923315.9634029716],[1162022.9245535892,1923317.4876781541],[1162022.7506694277,1923323.1526930591]]]},"properties":{"OBJECTID":623146,"Area_SQFT":1376.9299880925425,"Year":"2022","Height":27.829000000000001,"GlobalID":"{432B9FF9-498E-41F7-8607-319E1FB4363A}"}}]}