{"type":"FeatureCollection","crs":{"type":"name","properties":{"name":"EPSG:3435"}},"features":[{"type":"Feature","id":1062874,"geometry":{"type":"Polygon","coordinates":[[[1182014.4682260423,1880284.3276947557],[1181911.155440574,1880244.475740348],[1181924.8466861544,1880208.9823730243],[1181923.6590244866,1880208.5243686864],[1181936.6885259848,1880174.7462210313],[1181933.7859727347,1880173.6268006947],[1181954.7045660643,1880119.3972503759],[1181957.6071193141,1880120.5169987967],[1181965.0890597301,1880101.121040222],[1181966.8042793963,1880101.7827843095],[1181981.0555632238,1880064.8379763179],[1182061.8060578648,1880095.9868641319],[1182043.2303076196,1880144.1426077106],[1182040.3763107029,1880153.8085988667],[1182038.1735592065,1880161.2695419544],[1182044.9133751183,1880164.5352834559],[1182049.1817392828,1880166.6031926961],[1182073.1400246951,1880175.8449721162],[1182063.4697684487,1880200.9144757797],[1182049.8792444468,1880195.6720322007],[1182046.7745918671,1880203.7205725268],[1182047.1702603751,1880203.8734593589],[1182045.8979532013,1880207.1720091894],[1182044.4465125294,1880206.6122990232],[1182027.5489085375,1880250.4179856775],[1182028.8681316201,1880250.9268429321],[1182027.239525957,1880255.1492754228],[1182025.9199747907,1880254.6400900944],[1182014.4682260423,1880284.3276947557]]]},"properties":{"OBJECTID":1062874,"Area_SQFT":20450.197038999999,"Year":"2022","Height":80.852999999999994,"GlobalID":"{26D6B3D0-DCE2-4D93-853F-F3068111D68D}"}},{"type":"Feature","id":1063224,"geometry":{"type":"Polygon","coordinates":[[[1181814.5122611891,1880252.8290701008],[1181788.9453831979,1880242.8763340914],[1181789.2019443619,1880242.2175427619],[1181763.3712873703,1880232.1624447682],[1181766.8086164547,1880223.3327380158],[1181762.7233227878,1880221.7421900176],[1181767.1350593753,1880210.4085512757],[1181766.0809276158,1880209.9981190183],[1181794.9122347778,1880135.9329784594],[1181792.8036431901,1880135.1121139552],[1181799.0109798578,1880119.1659516352],[1181801.1195714425,1880119.9868161324],[1181830.0023876829,1880045.7897860704],[1181831.0565194378,1880046.2002183273],[1181835.1608419325,1880035.6572604098],[1181838.9826846826,1880037.1447902396],[1181842.522375762,1880028.0516325708],[1181894.4471406615,1880048.2641905667],[1181859.5108588431,1880138.0120425422],[1181861.619450425,1880138.8329070408],[1181859.9777214224,1880143.0500902131],[1181864.1949045912,1880144.6918192059],[1181857.833696845,1880161.0336500423],[1181853.352734681,1880159.2892309527],[1181851.4032635111,1880164.2974230419],[1181849.2946719269,1880163.4765585307],[1181814.5122611891,1880252.8290701008]]]},"properties":{"OBJECTID":1063224,"Area_SQFT":13384.9973326,"Year":"2022","Height":71.415000000000006,"GlobalID":"{2684B9AC-CC32-41D3-BED6-BD61F10F0867}"}},{"type":"Feature","id":1064967,"geometry":{"type":"Polygon","coordinates":[[[1181707.8907553055,1880052.0647079071],[1181705.410445309,1880051.8458763198],[1181679.8373337372,1880049.588991069],[1181664.0765384836,1880047.4764624836],[1181642.5070278274,1880045.5699702369],[1181642.4437077404,1880046.2891289033],[1181620.0047762485,1880044.3088179021],[1181617.9431005837,1880042.4216825662],[1181617.1261730858,1880042.3495042336],[1181618.3007114145,1880029.1162629901],[1181620.2236078307,1880007.4522643364],[1181622.420453832,1879982.7016576757],[1181633.5326363256,1879983.682298762],[1181636.5838113248,1879983.9513270913],[1181640.1326887398,1879984.2646466778],[1181641.5106387397,1879983.1245570974],[1181651.0122601546,1879983.9631380895],[1181650.8656069061,1879985.6235678364],[1181653.8954564899,1879985.8916119256],[1181667.8455598166,1879987.1245490839],[1181668.9010038984,1879987.2177247503],[1181681.0489454749,1879988.2915415114],[1181685.0161291428,1879988.6422625922],[1181685.1726248977,1879986.8709406671],[1181685.851757393,1879986.9309799199],[1181685.8547101424,1879986.8988277509],[1181694.5325143081,1879987.6658865823],[1181694.5298896409,1879987.6967264195],[1181694.8363194761,1879987.7236292548],[1181694.6798237253,1879989.4965915862],[1181699.3189220661,1879989.9063676682],[1181702.9311195582,1879990.2259208362],[1181715.5124592218,1879991.3377952494],[1181715.5108187958,1879991.3561679258],[1181715.5449394735,1879991.3591206667],[1181714.2135773073,1880006.4470169998],[1181715.4904776341,1880006.5598776643],[1181715.9550436381,1880006.3866496687],[1181715.9396237205,1880006.5995757512],[1181715.1633785553,1880015.4515921688],[1181711.1532159725,1880015.0972621622],[1181707.8907553055,1880052.0647079071]]]},"properties":{"OBJECTID":1064967,"Area_SQFT":5669.6918694699998,"Year":"2022","Height":35.969000000000001,"GlobalID":"{D10E34FC-79D0-4888-853A-81A105F80840}"}},{"type":"Feature","id":1065767,"geometry":{"type":"Polygon","coordinates":[[[1181930.9070414882,1879958.1685702705],[1181920.4946607435,1879953.9674631825],[1181910.0015714914,1879949.8857784409],[1181900.0658958298,1879946.0206286798],[1181897.372331667,1879949.0606488553],[1181895.7319150027,1879953.1262575146],[1181880.256224165,1879946.8825036013],[1181881.7378485091,1879943.2102668553],[1181879.6394275017,1879942.3638118599],[1181880.3802396662,1879940.5275294364],[1181870.6512565063,1879936.2939421113],[1181866.3704251791,1879934.4310849342],[1181861.311052097,1879932.2296457787],[1181877.6108882502,1879891.8307764463],[1181900.0373525843,1879900.8789866986],[1181900.9897784973,1879898.5184271152],[1181902.5635942465,1879899.1532683612],[1181908.119685492,1879885.3826266264],[1181911.3982222464,1879886.705458614],[1181912.0333915753,1879885.1319709572],[1181913.8693459095,1879885.8727831172],[1181943.1983554829,1879896.333392119],[1181953.6901323935,1879900.5666513706],[1181948.0812197344,1879914.4685264435],[1181951.2288512343,1879915.7385370284],[1181949.7472268986,1879919.4107737723],[1181952.1081145648,1879920.3631996878],[1181947.5044492348,1879931.7729537718],[1181945.7994001484,1879931.0852911079],[1181940.5608935687,1879944.0688609323],[1181937.1511234806,1879942.6932075147],[1181930.9070414882,1879958.1685702705]]]},"properties":{"OBJECTID":1065767,"Area_SQFT":4373.1127509400003,"Year":"2022","Height":37.633000000000003,"GlobalID":"{135B59D3-018C-43FA-AB4F-AED712DA823A}"}},{"type":"Feature","id":1066143,"geometry":{"type":"Polygon","coordinates":[[[1181796.0021276083,1879919.0338060344],[1181793.9286409428,1879918.7792133531],[1181792.3321874449,1879918.5826914371],[1181791.189145118,1879918.4422717767],[1181787.2245861168,1879918.0452909353],[1181779.7423176172,1879917.2956205213],[1181779.4663995374,1879917.2680615271],[1181777.2328082027,1879917.0443086936],[1181732.3457588819,1879912.5472704531],[1181727.8372377201,1879912.0954996902],[1181724.0498437216,1879911.7159072771],[1181722.0672361394,1879911.5174168576],[1181723.2463676378,1879899.7467711163],[1181723.2571943856,1879899.3468375267],[1181723.2860657149,1879899.3504464449],[1181726.0514801329,1879871.7471552079],[1181727.466831635,1879871.8888872054],[1181729.1512114652,1879869.2576588758],[1181753.2184205402,1879872.502074959],[1181755.531079961,1879872.7337017874],[1181798.9696413632,1879878.4364462863],[1181799.6533670307,1879883.2612397855],[1181797.9401158639,1879900.3629116158],[1181798.2918211941,1879900.4062186114],[1181796.3663001137,1879916.072197777],[1181796.079555274,1879918.9324282806],[1181796.0155790276,1879918.9258666045],[1181796.0021276083,1879919.0338060344]]]},"properties":{"OBJECTID":1066143,"Area_SQFT":3094.4268443999999,"Year":"2022","Height":30.001000000000001,"GlobalID":"{AE38793E-2597-4841-9CCB-7BE45D87DB33}"}},{"type":"Feature","id":1066189,"geometry":{"type":"Polygon","coordinates":[[[1181721.3080513049,1879853.9450254524],[1181722.0495196369,1879856.5549283759],[1181717.2844373041,1879907.7523325272],[1181717.2476919703,1879912.4311289466],[1181711.5393700551,1879912.3861815303],[1181705.6394474711,1879911.8254871117],[1181678.6411418989,1879909.2598754382],[1181669.3576958994,1879908.3776593623],[1181661.1329748202,1879907.5961648584],[1181651.2520890706,1879906.6571903573],[1181643.6740202431,1879905.9370474373],[1181633.2695134948,1879904.9485323713],[1181622.6504402473,1879903.9393480245],[1181620.4611401651,1879903.7356082718],[1181620.7006409958,1879899.7992644375],[1181621.0014934132,1879896.5673155284],[1181625.74229758,1879845.6307376213],[1181626.7022694158,1879845.1399249618],[1181721.3080513049,1879853.9450254524]]]},"properties":{"OBJECTID":1066189,"Area_SQFT":5716.4600147600004,"Year":"2022","Height":32.817999999999998,"GlobalID":"{22440835-9727-42E4-AA5E-1583F0CAC9CC}"}},{"type":"Feature","id":1066356,"geometry":{"type":"Polygon","coordinates":[[[1181944.85025507,1879892.2392402056],[1181915.9329900811,1879880.7579639503],[1181890.3588942492,1879870.439415032],[1181892.7401230887,1879864.5378520424],[1181905.4399008264,1879833.0618651428],[1181907.3037422502,1879828.4427798823],[1181958.2075118145,1879847.7947753009],[1181962.0106538148,1879849.3292210423],[1181961.2698416465,1879851.1655034644],[1181962.8436573979,1879851.8003447114],[1181957.446358481,1879865.1776145475],[1181963.0857828942,1879867.4528724614],[1181958.3764747295,1879879.125093211],[1181953.1304222334,1879877.0086276294],[1181947.6271523966,1879890.6480360376],[1181945.7911980625,1879889.9072238777],[1181944.85025507,1879892.2392402056]]]},"properties":{"OBJECTID":1066356,"Area_SQFT":2837.1782256000001,"Year":"2022","Height":37.722000000000001,"GlobalID":"{B2719732-34B1-4D62-BB60-7CE9140E2ACC}"}},{"type":"Feature","id":1066783,"geometry":{"type":"Polygon","coordinates":[[[1181968.1884629759,1879847.2468761283],[1181959.7947789792,1879843.8603999687],[1181908.4166009116,1879825.6845833024],[1181911.0488134928,1879819.1603181402],[1181924.1485248294,1879785.5586793181],[1181926.0005552401,1879780.968465402],[1181984.624125635,1879804.621305227],[1181979.6500542217,1879816.9493645628],[1181984.6336400579,1879818.9598592301],[1181977.9135091419,1879835.6159938923],[1181973.5857618898,1879833.8696063098],[1181968.1884629759,1879847.2468761283]]]},"properties":{"OBJECTID":1066783,"Area_SQFT":3049.1767475400002,"Year":"2022","Height":38.177999999999997,"GlobalID":"{D12ED688-41E6-46D1-9D87-6B12BEAAA9AA}"}},{"type":"Feature","id":1066898,"geometry":{"type":"Polygon","coordinates":[[[1181831.0929366876,1879810.1655854725],[1181827.9948457703,1879834.6274788028],[1181799.3305330288,1879831.5018288845],[1181801.0496896948,1879816.4368983919],[1181801.6310533623,1879811.3447169669],[1181802.1484407859,1879806.8115895586],[1181831.0929366876,1879810.1655854725]]]},"properties":{"OBJECTID":1066898,"Area_SQFT":717.48456054500002,"Year":"2022","Height":13.223000000000001,"GlobalID":"{143FB7F7-F420-4A0B-8EED-EC615DDFB7B9}"}},{"type":"Feature","id":1067007,"geometry":{"type":"Polygon","coordinates":[[[1181559.5347528527,1879818.6239018848],[1181559.366118019,1879820.3617593057],[1181559.2598190214,1879821.4572295544],[1181557.9904646045,1879822.8752057212],[1181557.8969608548,1879823.8361618028],[1181513.3314331984,1879819.5097268838],[1181502.1188572021,1879818.4214744791],[1181492.5480102049,1879817.4923424805],[1181492.9850172051,1879812.990711055],[1181493.6333098698,1879806.3125748064],[1181494.1497130415,1879800.9913912304],[1181494.589016628,1879796.4671220649],[1181498.0237210409,1879796.8004547288],[1181500.4295561216,1879772.0167116472],[1181512.3963956994,1879773.1784547265],[1181513.4052519486,1879773.2762235664],[1181563.4651911866,1879778.135793901],[1181563.2604671835,1879780.2466820625],[1181562.8749692671,1879784.215834229],[1181559.5347528527,1879818.6239018848]]]},"properties":{"OBJECTID":1067007,"Area_SQFT":2985.75826551,"Year":"2022","Height":38.871000000000002,"GlobalID":"{9ABC49BA-CE1B-41D0-8EE7-4F700A8F9AEA}"}},{"type":"Feature","id":1067254,"geometry":{"type":"Polygon","coordinates":[[[1182003.835045214,1879735.2274151659],[1182013.7979517935,1879739.1414493311],[1182013.3140288808,1879740.3737303335],[1182008.298947047,1879758.7332736601],[1182007.8803127185,1879759.799216402],[1182006.9367450506,1879762.201114486],[1182005.8511173015,1879764.9642323263],[1182004.9603710496,1879767.2309600657],[1182004.4620124607,1879768.4999864085],[1182003.9931813891,1879769.6932254892],[1182002.0952192987,1879774.5245806517],[1182000.6811801386,1879778.1239829052],[1182000.1093308856,1879779.5793605691],[1181997.9515268018,1879781.1062604066],[1181990.9689292233,1879798.8798468921],[1181986.8623101444,1879796.9349689006],[1181983.950898638,1879796.1754559779],[1181922.3749063285,1879771.6413843269],[1181923.2243140743,1879769.1039878263],[1181946.0874573204,1879713.5440595844],[1182003.835045214,1879735.2274151659]]]},"properties":{"OBJECTID":1067254,"Area_SQFT":4702.5384102400003,"Year":"2022","Height":41.692,"GlobalID":"{5017EE10-0A61-4C29-B3F8-ED322D850E63}"}},{"type":"Feature","id":1067518,"geometry":{"type":"Polygon","coordinates":[[[1181517.6358865285,1879719.2438513322],[1181520.9577302814,1879719.5614359938],[1181529.1391443617,1879720.34325859],[1181568.2935935971,1879724.0860332472],[1181567.9487780137,1879727.6942937551],[1181567.8346050202,1879728.8885170741],[1181564.5094804333,1879763.675849075],[1181564.2453733508,1879766.4399511544],[1181563.8962926834,1879770.0911905696],[1181501.1851320399,1879764.0971080665],[1181501.8898550335,1879756.7263879089],[1181501.940379875,1879756.1981737386],[1181502.4000246192,1879751.3894563194],[1181503.5804684558,1879739.0387592362],[1181499.8101347871,1879738.6781956539],[1181500.1073782863,1879735.568293757],[1181500.6962878755,1879729.4085291633],[1181501.8124273706,1879717.7313871735],[1181517.6358865285,1879719.2438513322]]]},"properties":{"OBJECTID":1067518,"Area_SQFT":2991.0942423400002,"Year":"2022","Height":38.445,"GlobalID":"{17D43058-8E08-4A1A-BC9D-E2B58A672766}"}},{"type":"Feature","id":1068001,"geometry":{"type":"Polygon","coordinates":[[[1181543.0633291111,1879709.9800903366],[1181542.7703506893,1879712.7300848314],[1181542.5036189416,1879715.941692587],[1181541.6154973547,1879715.8678738372],[1181500.4617082854,1879712.4469489236],[1181500.6100019545,1879710.6598790025],[1181501.9899204557,1879694.0621431717],[1181500.3767347075,1879692.2960705925],[1181500.4492411222,1879691.42664976],[1181500.8734528739,1879686.321673085],[1181501.2376253726,1879681.9417606003],[1181501.3960896221,1879680.0346121697],[1181501.41446229,1879679.8121716778],[1181501.474501539,1879679.0913725886],[1181501.6946454509,1879676.4453805292],[1181501.8540939556,1879674.5234683396],[1181502.2464816165,1879669.8046457684],[1181502.3852608709,1879668.1347016012],[1181504.3035641154,1879668.2941501045],[1181504.3796794543,1879667.3768290919],[1181504.4981175375,1879665.9539316818],[1181506.7402390384,1879649.3388074373],[1181540.6670084419,1879650.016299519],[1181542.5836712741,1879648.88638053],[1181542.7500095314,1879646.8847441066],[1181546.5282171902,1879647.199047935],[1181550.6817521898,1879647.5441915975],[1181555.0633051046,1879647.9083640999],[1181554.8969668553,1879649.9100005187],[1181554.7572033582,1879651.5917556854],[1181567.5285032711,1879652.6534333508],[1181574.6977802666,1879653.2495607701],[1181574.7076227644,1879653.1291541853],[1181576.4336691794,1879653.2728546869],[1181577.6196904287,1879653.4923424299],[1181578.9494121824,1879653.6029065149],[1181578.6131267643,1879662.0999367619],[1181575.6167416787,1879698.1448121727],[1181549.9727641076,1879696.5011146727],[1181544.5357671061,1879696.1523620845],[1181543.0633291111,1879709.9800903366]]]},"properties":{"OBJECTID":1068001,"Area_SQFT":4224.3862552199998,"Year":"2022","Height":38.475999999999999,"GlobalID":"{37C6B42A-6AA1-4137-B477-FDE7C04A3EF8}"}},{"type":"Feature","id":1068049,"geometry":{"type":"Polygon","coordinates":[[[1181644.499805995,1879661.4263816858],[1181649.558194825,1879661.8942285152],[1181657.7855405707,1879662.6553818518],[1181672.7920722358,1879664.0431743567],[1181680.3580019828,1879664.7429761086],[1181689.0335095639,1879665.5454679248],[1181703.495422893,1879666.8830636798],[1181714.4045218071,1879667.8919199333],[1181714.3156112293,1879670.433253431],[1181712.2703397248,1879697.1274257516],[1181711.4445539739,1879707.9026666745],[1181711.266732807,1879710.2225439188],[1181708.1902953936,1879709.9380956825],[1181682.137525979,1879707.5283235908],[1181638.1963409116,1879701.3009738419],[1181637.6481136596,1879698.1123319177],[1181641.0703509094,1879661.1091251038],[1181644.499805995,1879661.4263816858]]]},"properties":{"OBJECTID":1068049,"Area_SQFT":3093.2263210000001,"Year":"2022","Height":30.905000000000001,"GlobalID":"{086A34D9-0C5F-4D22-9342-48856ADF4D91}"}},{"type":"Feature","id":1068541,"geometry":{"type":"Polygon","coordinates":[[[1182040.7664017917,1879659.5566347726],[1181982.0119261367,1879635.8509735344],[1181983.4951908935,1879632.174471708],[1181983.955819888,1879630.9927155268],[1181996.6992327182,1879598.3146312854],[1181998.4164208854,1879594.058406214],[1182053.5071899549,1879614.3726700409],[1182058.3595424525,1879616.3306713696],[1182053.1210358674,1879629.3142411946],[1182057.84248312,1879631.219093031],[1182051.0163812859,1879648.1373662809],[1182046.1640287919,1879646.1796930183],[1182040.7664017917,1879659.5566347726]]]},"properties":{"OBJECTID":1068541,"Area_SQFT":3012.58869925,"Year":"2022","Height":37.878999999999998,"GlobalID":"{7A3FC1DF-42FF-4B07-9348-A42483219F81}"}}]}